{"type": "FeatureCollection", "features": [{"type": "Feature", "geometry": {"type": "Polygon", "coordinates": [[[139.7007137317144, 35.68807707152971, 72.5], [139.70071361878337, 35.68807694407253, 72.5], [139.70071349266547, 35.68807682513009, 72.5], [139.7007133543206, 35.688076715607636, 72.5], [139.7007132048016, 35.6880766163387, 72.5], [139.7007130452464, 35.68807652807875, 72.5], [139.70071287686935, 35.688076451499526, 72.5], [139.70071270095178, 35.68807638718383, 72.5], [139.7007125188327, 35.68807633562114, 72.5], [139.70071233189802, 35.688076297203885, 72.5], [139.70071214157048, 35.68807627222444, 72.5], [139.70071194929858, 35.688076260872926, 72.5], [139.70071175654562, 35.68807626323573, 72.5], [139.70071156477852, 35.68807627929485, 72.5], [139.70071137545682, 35.688076308928096, 72.5], [139.7007111900214, 35.688076351909906, 72.5], [139.70071100988343, 35.688076407913194, 72.5], [139.70071083641392, 35.688076476511725, 72.5], [139.70071067093306, 35.68807655718345, 72.5], [139.7007105147003, 35.68807664931437, 72.5], [139.70071036890462, 35.68807675220333, 72.5], [139.70071023465562, 35.68807686506729, 72.5], [139.70071011297503, 35.688076987047275, 72.5], [139.70071000478893, 35.688077117214924, 72.5], [139.70070991092064, 35.68807725457963, 72.5], [139.7007098320846, 35.688077398095935, 72.5], [139.70070976888078, 35.68807754667162, 72.5], [139.7007097217902, 35.68807769917589, 72.5], [139.70070969117123, 35.68807785444813, 72.5], [139.7007096772569, 35.68807801130662, 72.5], [139.70070968015312, 35.68807816855755, 72.5], [139.70070969983786, 35.68807832500418, 72.5], [139.70070973616131, 35.68807847945583, 72.5], [139.70070978884698, 35.688078630737024, 72.5], [139.70070985749396, 35.688078777696454, 72.5], [139.70070994157976, 35.68807891921565, 72.5], [139.70071004046443, 35.68807905421755, 72.5], [139.70071015339548, 35.688079181674745, 72.5], [139.70071027951334, 35.68807930061718, 72.5], [139.70071041785823, 35.68807941013964, 72.5], [139.70071056737723, 35.68807950940859, 72.5], [139.70071072693244, 35.68807959766854, 72.5], [139.70071089530953, 35.688079674247774, 72.5], [139.70071107122703, 35.688079738563474, 72.5], [139.70071125334616, 35.688079790126146, 72.5], [139.70071144028086, 35.688079828543415, 72.5], [139.7007116306084, 35.68807985352284, 72.5], [139.7007118228803, 35.688079864874375, 72.5], [139.70071201563326, 35.68807986251158, 72.5], [139.70071220740036, 35.68807984645244, 72.5], [139.70071239672205, 35.68807981681921, 72.5], [139.70071258215754, 35.68807977383739, 72.5], [139.7007127622955, 35.6880797178341, 72.5], [139.70071293576504, 35.68807964923556, 72.5], [139.70071310124587, 35.688079568563836, 72.5], [139.70071325747867, 35.68807947643291, 72.5], [139.70071340327434, 35.68807937354396, 72.5], [139.7007135375233, 35.68807926068, 72.5], [139.7007136592039, 35.68807913870001, 72.5], [139.70071376739, 35.68807900853234, 72.5], [139.70071386125827, 35.68807887116763, 72.5], [139.70071394009432, 35.688078727651316, 72.5], [139.70071400329812, 35.68807857907564, 72.5], [139.7007140503887, 35.688078426571366, 72.5], [139.7007140810077, 35.688078271299126, 72.5], [139.70071409492198, 35.68807811444065, 72.5], [139.70071409202575, 35.68807795718972, 72.5], [139.700714072341, 35.688077800743095, 72.5], [139.7007140360176, 35.68807764629145, 72.5], [139.70071398333187, 35.68807749501023, 72.5], [139.7007139146849, 35.68807734805081, 72.5], [139.70071383059908, 35.68807720653162, 72.5], [139.7007137317144, 35.68807707152971, 72.5]]]}, "properties": {"id": "161fe0a6f843494197c9f66eec0fd792", "category": "C001", "floor_id": "3dc6f5b2773f499aa6ab7e10223bb60b", "source": "2", "__floor": "3out", "__z_abs": 72.5}}, {"type": "Feature", "geometry": {"type": "Polygon", "coordinates": [[[139.70077276297528, 35.68808699138217, 72.5], [139.7007726500442, 35.68808686392505, 72.5], [139.70077252392622, 35.68808674498267, 72.5], [139.70077238558122, 35.68808663546029, 72.5], [139.70077223606214, 35.688086536191406, 72.5], [139.70077207650684, 35.68808644793155, 72.5], [139.7007719081297, 35.6880863713524, 72.5], [139.7007717322121, 35.68808630703679, 72.5], [139.70077155009292, 35.68808625547419, 72.5], [139.7007713631582, 35.68808621705704, 72.5], [139.7007711728306, 35.68808619207769, 72.5], [139.70077098055867, 35.68808618072626, 72.5], [139.70077078780568, 35.688086183089155, 72.5], [139.7007705960386, 35.68808619914837, 72.5], [139.7007704067169, 35.68808622878169, 72.5], [139.70077022128146, 35.688086271763616, 72.5], [139.7007700411435, 35.688086327766996, 72.5], [139.700769867674, 35.68808639636562, 72.5], [139.70076970219318, 35.688086477037395, 72.5], [139.7007695459605, 35.688086569168405, 72.5], [139.70076940016486, 35.68808667205743, 72.5], [139.70076926591594, 35.68808678492146, 72.5], [139.70076914423544, 35.688086906901496, 72.5], [139.70076903604945, 35.68808703706922, 72.5], [139.70076894218124, 35.68808717443396, 72.5], [139.70076886334527, 35.688087317950306, 72.5], [139.70076880014156, 35.68808746652602, 72.5], [139.70076875305102, 35.68808761903032, 72.5], [139.70076872243217, 35.688087774302566, 72.5], [139.700768708518, 35.68808793116106, 72.5], [139.70076871141436, 35.688088088411995, 72.5], [139.7007687310992, 35.68808824485861, 72.5], [139.70076876742274, 35.688088399310246, 72.5], [139.70076882010858, 35.68808855059143, 72.5], [139.70076888875565, 35.688088697550825, 72.5], [139.70076897284153, 35.68808883906996, 72.5], [139.70076907172637, 35.68808897407183, 72.5], [139.7007691846575, 35.688089101528966, 72.5], [139.70076931077546, 35.688089220471326, 72.5], [139.70076944912046, 35.68808932999372, 72.5], [139.70076959863954, 35.688089429262604, 72.5], [139.70076975819484, 35.68808951752247, 72.5], [139.70076992657198, 35.68808959410162, 72.5], [139.7007701024896, 35.68808965841723, 72.5], [139.70077028460875, 35.68808970997982, 72.5], [139.7007704715435, 35.688089748397005, 72.5], [139.7007706618711, 35.68808977337634, 72.5], [139.70077085414306, 35.688089784727765, 72.5], [139.70077104689605, 35.68808978236486, 72.5], [139.70077123866312, 35.68808976630566, 72.5], [139.70077142798485, 35.68808973667234, 72.5], [139.7007716134203, 35.6880896936904, 72.5], [139.70077179355826, 35.68808963768703, 72.5], [139.70077196702772, 35.6880895690884, 72.5], [139.70077213250855, 35.688089488416615, 72.5], [139.70077228874126, 35.68808939628562, 72.5], [139.7007724345369, 35.68808929339659, 72.5], [139.7007725687858, 35.68808918053256, 72.5], [139.70077269046635, 35.68808905855251, 72.5], [139.70077279865237, 35.688088928384786, 72.5], [139.70077289252052, 35.68808879102002, 72.5], [139.70077297135649, 35.68808864750368, 72.5], [139.70077303456023, 35.68808849892796, 72.5], [139.70077308165068, 35.68808834642367, 72.5], [139.70077311226953, 35.68808819115142, 72.5], [139.70077312618375, 35.68808803429293, 72.5], [139.70077312328738, 35.688087877042, 72.5], [139.7007731036025, 35.68808772059538, 72.5], [139.70077306727893, 35.688087566143736, 72.5], [139.70077301459312, 35.68808741486257, 72.5], [139.70077294594603, 35.688087267903185, 72.5], [139.70077286186014, 35.688087126384026, 72.5], [139.70077276297528, 35.68808699138217, 72.5]]]}, "properties": {"id": "dafd1a3480614e3583c11a444bcb4220", "category": "C001", "floor_id": "3dc6f5b2773f499aa6ab7e10223bb60b", "source": "2", "__floor": "3out", "__z_abs": 72.5}}, {"type": "Feature", "geometry": {"type": "Polygon", "coordinates": [[[139.70075127857194, 35.68815219200561, 72.5], [139.70075112329155, 35.68815201675204, 72.5], [139.70075094987925, 35.68815185320624, 72.5], [139.70075075965477, 35.68815170261293, 72.5], [139.7007505540659, 35.688151566118194, 72.5], [139.70075033467722, 35.68815144476084, 72.5], [139.7007501031585, 35.68815133946446, 72.5], [139.70074986127162, 35.68815125103046, 72.5], [139.70074961085757, 35.68815118013185, 72.5], [139.70074935382215, 35.68815112730821, 72.5], [139.7007490921215, 35.688151092961554, 72.5], [139.7007488277474, 35.688151077353304, 72.5], [139.70074856271182, 35.68815108060221, 72.5], [139.70074829903186, 35.688151102683605, 72.5], [139.7007480387143, 35.68815114342938, 72.5], [139.70074778374035, 35.68815120252946, 72.5], [139.70074753605047, 35.68815127953406, 72.5], [139.7007472975297, 35.68815137385712, 72.5], [139.70074706999333, 35.68815148478078, 72.5], [139.70074685517312, 35.68815161146087, 72.5], [139.70074665470395, 35.688151752933244, 72.5], [139.70074647011148, 35.688151908121235, 72.5], [139.7007463028006, 35.68815207584375, 72.5], [139.70074615404465, 35.688152254824345, 72.5], [139.70074602497573, 35.688152443700844, 72.5], [139.70074591657618, 35.688152641035806, 72.5], [139.70074582967092, 35.688152845327366, 72.5], [139.70074576492138, 35.68815305502078, 72.5], [139.70074572282036, 35.68815326852011, 72.5], [139.70074570368823, 35.688153484200534, 72.5], [139.70074570767065, 35.688153700420564, 72.5], [139.7007457347373, 35.68815391553466, 72.5], [139.70074578468217, 35.68815412790567, 72.5], [139.70074585712513, 35.688154335917304, 72.5], [139.7007459515149, 35.68815453798647, 72.5], [139.7007460671331, 35.68815473257532, 72.5], [139.70074620309975, 35.68815491820292, 72.5], [139.70074635838014, 35.68815509345651, 72.5], [139.70074653179242, 35.68815525700229, 72.5], [139.7007467220169, 35.688155407595616, 72.5], [139.7007469276058, 35.68815554409036, 72.5], [139.70074714699444, 35.68815566544772, 72.5], [139.70074737851323, 35.68815577074409, 72.5], [139.70074762040008, 35.688155859178096, 72.5], [139.70074787081415, 35.68815593007672, 72.5], [139.70074812784958, 35.68815598290037, 72.5], [139.70074838955023, 35.68815601724701, 72.5], [139.70074865392436, 35.688156032855275, 72.5], [139.70074891895996, 35.68815602960635, 72.5], [139.70074918263995, 35.688156007524974, 72.5], [139.7007494429575, 35.688155966779185, 72.5], [139.70074969793149, 35.68815590767911, 72.5], [139.70074994562142, 35.6881558306745, 72.5], [139.70075018414218, 35.68815573635143, 72.5], [139.7007504116785, 35.68815562542777, 72.5], [139.70075062649875, 35.688155498747676, 72.5], [139.70075082696792, 35.688155357275306, 72.5], [139.70075101156038, 35.68815520208731, 72.5], [139.70075117887126, 35.68815503436476, 72.5], [139.7007513276272, 35.68815485538418, 72.5], [139.70075145669608, 35.68815466650767, 72.5], [139.70075156509563, 35.6881544691727, 72.5], [139.70075165200092, 35.68815426488113, 72.5], [139.70075171675043, 35.68815405518774, 72.5], [139.70075175885145, 35.68815384168839, 72.5], [139.70075177798353, 35.688153626007974, 72.5], [139.70075177400108, 35.68815340978793, 72.5], [139.70075174693443, 35.68815319467384, 72.5], [139.70075169698956, 35.688152982302846, 72.5], [139.70075162454657, 35.68815277429121, 72.5], [139.70075153015682, 35.688152572222045, 72.5], [139.70075141453862, 35.68815237763318, 72.5], [139.70075127857194, 35.68815219200561, 72.5]]]}, "properties": {"id": "cc67a4875afd44c4bc4729c403beac7b", "category": "C001", "floor_id": "3dc6f5b2773f499aa6ab7e10223bb60b", "source": "2", "__floor": "3out", "__z_abs": 72.5}}, {"type": "Feature", "geometry": {"type": "Polygon", "coordinates": [[[139.70070363414584, 35.68811706394942, 72.5], [139.70070352121473, 35.68811693649223, 72.5], [139.70070339509684, 35.68811681754979, 72.5], [139.7007032567519, 35.68811670802733, 72.5], [139.70070310723284, 35.688116608758364, 72.5], [139.70070294767757, 35.68811652049841, 72.5], [139.7007027793004, 35.68811644391917, 72.5], [139.7007026033828, 35.68811637960345, 72.5], [139.70070242126363, 35.688116328040756, 72.5], [139.70070223432884, 35.688116289623494, 72.5], [139.70070204400125, 35.68811626464402, 72.5], [139.70070185172924, 35.688116253292485, 72.5], [139.70070165897613, 35.688116255655274, 72.5], [139.70070146720903, 35.688116271714385, 72.5], [139.70070127788722, 35.688116301347605, 72.5], [139.70070109245165, 35.688116344329416, 72.5], [139.7007009123136, 35.68811640033268, 72.5], [139.70070073884398, 35.68811646893122, 72.5], [139.70070057336306, 35.68811654960291, 72.5], [139.70070041713015, 35.688116641733814, 72.5], [139.7007002713344, 35.688116744622754, 72.5], [139.70070013708533, 35.6881168574867, 72.5], [139.7007000154047, 35.68811697946666, 72.5], [139.70069990721854, 35.688117109634334, 72.5], [139.70069981335018, 35.68811724699902, 72.5], [139.70069973451405, 35.688117390515316, 72.5], [139.70069967131016, 35.68811753909098, 72.5], [139.70069962421954, 35.68811769159526, 72.5], [139.70069959360055, 35.68811784686749, 72.5], [139.7006995796862, 35.688118003725975, 72.5], [139.70069958258242, 35.68811816097692, 72.5], [139.70069960226712, 35.688118317423545, 72.5], [139.70069963859055, 35.68811847187519, 72.5], [139.70069969127627, 35.6881186231564, 72.5], [139.70069975992325, 35.688118770115835, 72.5], [139.70069984400908, 35.68811891163504, 72.5], [139.70069994289378, 35.68811904663694, 72.5], [139.70070005582485, 35.68811917409414, 72.5], [139.70070018194278, 35.68811929303657, 72.5], [139.7007003202877, 35.68811940255905, 72.5], [139.70070046980675, 35.68811950182802, 72.5], [139.70070062936205, 35.68811959008798, 72.5], [139.70070079773922, 35.68811966666723, 72.5], [139.7007009736568, 35.68811973098294, 72.5], [139.700701155776, 35.68811978254564, 72.5], [139.70070134271077, 35.68811982096291, 72.5], [139.70070153303837, 35.68811984594237, 72.5], [139.7007017253104, 35.6881198572939, 72.5], [139.70070191806352, 35.688119854931124, 72.5], [139.70070210983067, 35.68811983887201, 72.5], [139.70070229915248, 35.688119809238785, 72.5], [139.70070248458808, 35.68811976625699, 72.5], [139.7007026647261, 35.688119710253716, 72.5], [139.70070283819575, 35.688119641655184, 72.5], [139.7007030036767, 35.68811956098348, 72.5], [139.70070315990955, 35.688119468852584, 72.5], [139.7007033057053, 35.68811936596363, 72.5], [139.7007034399544, 35.688119253099686, 72.5], [139.700703561635, 35.688119131119706, 72.5], [139.7007036698212, 35.688119000952035, 72.5], [139.70070376368955, 35.68811886358735, 72.5], [139.70070384252563, 35.68811872007105, 72.5], [139.7007039057295, 35.68811857149537, 72.5], [139.70070395282013, 35.688118418991095, 72.5], [139.70070398343913, 35.68811826371888, 72.5], [139.70070399735346, 35.68811810686038, 72.5], [139.70070399445726, 35.68811794960944, 72.5], [139.7007039747725, 35.688117793162824, 72.5], [139.70070393844907, 35.68811763871117, 72.5], [139.70070388576337, 35.68811748742997, 72.5], [139.7007038171164, 35.688117340470534, 72.5], [139.70070373303054, 35.688117198951346, 72.5], [139.70070363414584, 35.68811706394942, 72.5]]]}, "properties": {"id": "3c5013eedb244d0697559736b85eb332", "category": "C001", "floor_id": "3dc6f5b2773f499aa6ab7e10223bb60b", "source": "2", "__floor": "3out", "__z_abs": 72.5}}, {"type": "Feature", "geometry": {"type": "Polygon", "coordinates": [[[139.7009299875612, 35.688182222765505, 72.5], [139.70092983228037, 35.68818204751217, 72.5], [139.70092965886764, 35.68818188396664, 72.5], [139.70092946864278, 35.688181733373604, 72.5], [139.7009292630535, 35.68818159687917, 72.5], [139.70092904366447, 35.68818147552214, 72.5], [139.7009288121454, 35.68818137022612, 72.5], [139.70092857025827, 35.68818128179247, 72.5], [139.70092831984394, 35.68818121089422, 72.5], [139.7009280628083, 35.688181158070954, 72.5], [139.7009278011075, 35.6881811237247, 72.5], [139.70092753673322, 35.68818110811684, 72.5], [139.70092727169757, 35.688181111366156, 72.5], [139.70092700801754, 35.688181133447934, 72.5], [139.7009267477, 35.688181174194106, 72.5], [139.70092649272607, 35.68818123329455, 72.5], [139.70092624503624, 35.68818131029951, 72.5], [139.7009260065156, 35.68818140462294, 72.5], [139.7009257789794, 35.68818151554693, 72.5], [139.7009255641594, 35.68818164222732, 72.5], [139.7009253636905, 35.6881817837, 72.5], [139.7009251790983, 35.68818193888827, 72.5], [139.70092501178772, 35.68818210661104, 72.5], [139.70092486303213, 35.68818228559184, 72.5], [139.7009247339636, 35.68818247446855, 72.5], [139.7009246255644, 35.68818267180366, 72.5], [139.7009245386596, 35.68818287609536, 72.5], [139.70092447391048, 35.688183085788864, 72.5], [139.70092443180988, 35.68818329928826, 72.5], [139.70092441267826, 35.6881835149687, 72.5], [139.70092441666117, 35.688183731188744, 72.5], [139.70092444372833, 35.68818394630279, 72.5], [139.70092449367365, 35.688184158673714, 72.5], [139.7009245661171, 35.68818436668525, 72.5], [139.70092466050738, 35.688184568754274, 72.5], [139.70092477612602, 35.68818476334296, 72.5], [139.70092491209317, 35.68818494897035, 72.5], [139.70092506737402, 35.68818512422369, 72.5], [139.70092524078672, 35.68818528776924, 72.5], [139.7009254310116, 35.68818543836227, 72.5], [139.70092563660086, 35.68818557485672, 72.5], [139.70092585598988, 35.68818569621375, 72.5], [139.70092608750898, 35.688185801509775, 72.5], [139.7009263293961, 35.68818588994343, 72.5], [139.70092657981044, 35.68818596084167, 72.5], [139.70092683684612, 35.68818601366494, 72.5], [139.70092709854694, 35.688186048011204, 72.5], [139.7009273629212, 35.68818606361907, 72.5], [139.7009276279569, 35.68818606036976, 72.5], [139.7009278916369, 35.68818603828799, 72.5], [139.70092815195449, 35.688185997541815, 72.5], [139.7009284069284, 35.68818593844136, 72.5], [139.70092865461825, 35.68818586143638, 72.5], [139.70092889313892, 35.68818576711297, 72.5], [139.7009291206751, 35.68818565618895, 72.5], [139.70092933549512, 35.68818552950855, 72.5], [139.70092953596406, 35.68818538803587, 72.5], [139.70092972055625, 35.68818523284761, 72.5], [139.70092988786683, 35.68818506512481, 72.5], [139.7009300366224, 35.688184886144, 72.5], [139.70093016569095, 35.688184697267296, 72.5], [139.70093027409013, 35.688184499932184, 72.5], [139.70093036099493, 35.68818429564048, 72.5], [139.700930425744, 35.688184085946986, 72.5], [139.7009304678446, 35.688183872447574, 72.5], [139.70093048697618, 35.68818365676714, 72.5], [139.70093048299327, 35.68818344054709, 72.5], [139.70093045592614, 35.68818322543305, 72.5], [139.70093040598076, 35.68818301306212, 72.5], [139.70093033353726, 35.688182805050594, 72.5], [139.70093023914703, 35.688182602981556, 72.5], [139.70093012352834, 35.68818240839289, 72.5], [139.7009299875612, 35.688182222765505, 72.5]]]}, "properties": {"id": "7f1bd3333775436d851d54ced8a44650", "category": "C001", "floor_id": "3dc6f5b2773f499aa6ab7e10223bb60b", "source": "2", "__floor": "3out", "__z_abs": 72.5}}, {"type": "Feature", "geometry": {"type": "Polygon", "coordinates": [[[139.70093667926093, 35.68815573741192, 72.5], [139.70093652398012, 35.68815556215859, 72.5], [139.70093635056742, 35.68815539861306, 72.5], [139.70093616034262, 35.688155248020045, 72.5], [139.7009359547534, 35.68815511152562, 72.5], [139.70093573536445, 35.68815499016859, 72.5], [139.70093550384541, 35.68815488487259, 72.5], [139.70093526195834, 35.68815479643895, 72.5], [139.70093501154415, 35.68815472554073, 72.5], [139.70093475450855, 35.688154672717474, 72.5], [139.70093449280785, 35.68815463837122, 72.5], [139.70093422843365, 35.68815462276337, 72.5], [139.70093396339806, 35.68815462601271, 72.5], [139.70093369971818, 35.688154648094496, 72.5], [139.70093343940073, 35.688154688840676, 72.5], [139.70093318442687, 35.68815474794115, 72.5], [139.7009329367371, 35.68815482494613, 72.5], [139.70093269821658, 35.68815491926955, 72.5], [139.70093247068047, 35.68815503019358, 72.5], [139.70093225586055, 35.68815515687399, 72.5], [139.7009320553917, 35.688155298346665, 72.5], [139.70093187079956, 35.68815545353495, 72.5], [139.7009317034891, 35.688155621257735, 72.5], [139.7009315547336, 35.68815580023855, 72.5], [139.70093142566506, 35.68815598911525, 72.5], [139.70093131726594, 35.68815618645037, 72.5], [139.7009312303611, 35.68815639074208, 72.5], [139.70093116561208, 35.688156600435576, 72.5], [139.70093112351157, 35.68815681393498, 72.5], [139.70093110437992, 35.688157029615425, 72.5], [139.70093110836288, 35.68815724583546, 72.5], [139.70093113542998, 35.68815746094952, 72.5], [139.70093118537534, 35.68815767332043, 72.5], [139.7009312578188, 35.688157881331975, 72.5], [139.70093135220907, 35.68815808340101, 72.5], [139.70093146782767, 35.688158277989686, 72.5], [139.7009316037948, 35.68815846361705, 72.5], [139.70093175907556, 35.6881586388704, 72.5], [139.70093193248826, 35.688158802415934, 72.5], [139.70093212271308, 35.68815895300896, 72.5], [139.7009323283023, 35.68815908950338, 72.5], [139.70093254769128, 35.688159210860405, 72.5], [139.7009327792103, 35.68815931615642, 72.5], [139.70093302109737, 35.68815940459007, 72.5], [139.7009332715116, 35.6881594754883, 72.5], [139.70093352854718, 35.68815952831155, 72.5], [139.70093379024792, 35.6881595626578, 72.5], [139.70093405462214, 35.68815957826565, 72.5], [139.70093431965773, 35.688159575016314, 72.5], [139.70093458333764, 35.68815955293452, 72.5], [139.70093484365512, 35.688159512188335, 72.5], [139.70093509862897, 35.68815945308787, 72.5], [139.70093534631872, 35.688159376082886, 72.5], [139.7009355848393, 35.68815928175945, 72.5], [139.70093581237538, 35.688159170835426, 72.5], [139.70093602719533, 35.688159044155014, 72.5], [139.7009362276642, 35.68815890268232, 72.5], [139.70093641225628, 35.68815874749404, 72.5], [139.7009365795668, 35.68815857977124, 72.5], [139.70093672832235, 35.68815840079043, 72.5], [139.7009368573908, 35.68815821191371, 72.5], [139.70093696578994, 35.688158014578576, 72.5], [139.70093705269468, 35.68815781028688, 72.5], [139.70093711744374, 35.68815760059337, 72.5], [139.70093715954425, 35.68815738709396, 72.5], [139.70093717867584, 35.688157171413515, 72.5], [139.7009371746929, 35.688156955193485, 72.5], [139.70093714762575, 35.688156740079435, 72.5], [139.7009370976804, 35.688156527708514, 72.5], [139.70093702523693, 35.68815631969699, 72.5], [139.70093693084667, 35.688156117627955, 72.5], [139.70093681522803, 35.68815592303929, 72.5], [139.70093667926093, 35.68815573741192, 72.5]]]}, "properties": {"id": "5dbe69ac5bc14022b32b39726808a736", "category": "C001", "floor_id": "3dc6f5b2773f499aa6ab7e10223bb60b", "source": "2", "__floor": "3out", "__z_abs": 72.5}}, {"type": "Feature", "geometry": {"type": "Polygon", "coordinates": [[[139.70106149023673, 35.688176710827456, 72.5], [139.70106133495563, 35.68817653557428, 72.5], [139.7010611615426, 35.68817637202892, 72.5], [139.70106097131753, 35.68817622143611, 72.5], [139.70106076572804, 35.6881760849419, 72.5], [139.70106054633885, 35.6881759635851, 72.5], [139.7010603148196, 35.68817585828934, 72.5], [139.70106007293234, 35.68817576985596, 72.5], [139.70105982251792, 35.68817569895798, 72.5], [139.7010595654822, 35.68817564613501, 72.5], [139.70105930378136, 35.688175611789035, 72.5], [139.7010590394071, 35.68817559618145, 72.5], [139.70105877437146, 35.68817559943106, 72.5], [139.70105851069152, 35.68817562151312, 72.5], [139.70105825037405, 35.688175662259574, 72.5], [139.7010579954002, 35.68817572136031, 72.5], [139.70105774771048, 35.68817579836555, 72.5], [139.70105750919006, 35.688175892689216, 72.5], [139.7010572816541, 35.68817600361347, 72.5], [139.7010570668343, 35.68817613029412, 72.5], [139.7010568663656, 35.688176271767006, 72.5], [139.70105668177368, 35.68817642695546, 72.5], [139.70105651446337, 35.68817659467842, 72.5], [139.70105636570807, 35.688176773659386, 72.5], [139.70105623663986, 35.68817696253622, 72.5], [139.70105612824102, 35.68817715987146, 72.5], [139.7010560413365, 35.68817736416325, 72.5], [139.70105597658778, 35.68817757385682, 72.5], [139.70105593448756, 35.688177787356274, 72.5], [139.70105591535628, 35.68817800303673, 72.5], [139.70105591933952, 35.68817821925678, 72.5], [139.701055946407, 35.68817843437079, 72.5], [139.70105599635272, 35.68817864674166, 72.5], [139.70105606879653, 35.68817885475312, 72.5], [139.7010561631871, 35.68817905682205, 72.5], [139.70105627880608, 35.6881792514106, 72.5], [139.7010564147735, 35.688179437037846, 72.5], [139.70105657005456, 35.68817961229102, 72.5], [139.70105674346757, 35.68817977583638, 72.5], [139.7010569336927, 35.688179926429214, 72.5], [139.70105713928217, 35.688180062923415, 72.5], [139.70105735867142, 35.68818018428021, 72.5], [139.70105759019063, 35.688180289575996, 72.5], [139.7010578320779, 35.688180378009385, 72.5], [139.70105808249232, 35.68818044890737, 72.5], [139.7010583395281, 35.68818050173034, 72.5], [139.70105860122897, 35.688180536076324, 72.5], [139.7010588656032, 35.68818055168389, 72.5], [139.70105913063887, 35.688180548434296, 72.5], [139.7010593943188, 35.68818052635224, 72.5], [139.7010596546363, 35.68818048560579, 72.5], [139.70105990961014, 35.68818042650504, 72.5], [139.70106015729985, 35.68818034949981, 72.5], [139.70106039582035, 35.68818025517612, 72.5], [139.70106062335634, 35.68818014425185, 72.5], [139.70106083817612, 35.68818001757123, 72.5], [139.7010610386448, 35.688179876098324, 72.5], [139.70106122323674, 35.68817972090985, 72.5], [139.70106139054698, 35.68817955318689, 72.5], [139.7010615393023, 35.68817937420591, 72.5], [139.70106166837053, 35.68817918532907, 72.5], [139.70106177676936, 35.68817898799382, 72.5], [139.70106186367383, 35.68817878370202, 72.5], [139.70106192842258, 35.688178574008454, 72.5], [139.70106197052277, 35.688178360509006, 72.5], [139.70106198965405, 35.68817814482854, 72.5], [139.70106198567078, 35.6881779286085, 72.5], [139.70106195860328, 35.68817771349448, 72.5], [139.70106190865755, 35.68817750112361, 72.5], [139.70106183621374, 35.68817729311216, 72.5], [139.70106174182314, 35.68817709104324, 72.5], [139.70106162620417, 35.688176896454685, 72.5], [139.70106149023673, 35.688176710827456, 72.5]]]}, "properties": {"id": "0d8b76f05e7e475dbe6b72076615a10a", "category": "C001", "floor_id": "3dc6f5b2773f499aa6ab7e10223bb60b", "source": "2", "__floor": "3out", "__z_abs": 72.5}}, {"type": "Feature", "geometry": {"type": "Polygon", "coordinates": [[[139.70075776950944, 35.68812419542255, 72.5], [139.7007562091819, 35.688130375267264, 72.5], [139.70076378423508, 35.68813164820632, 72.5], [139.70076534456206, 35.68812546836151, 72.5], [139.70075776950944, 35.68812419542255, 72.5]]]}, "properties": {"id": "716b4b3ecda54277bdd8c7bc788cb9bf", "category": "C001", "floor_id": "3dc6f5b2773f499aa6ab7e10223bb60b", "source": "2", "__floor": "3out", "__z_abs": 72.5}}, {"type": "Feature", "geometry": {"type": "Polygon", "coordinates": [[[139.70105480295263, 35.68820319692335, 72.5], [139.7010546476715, 35.68820302167017, 72.5], [139.70105447425846, 35.68820285812481, 72.5], [139.70105428403332, 35.68820270753198, 72.5], [139.70105407844375, 35.68820257103775, 72.5], [139.70105385905453, 35.68820244968096, 72.5], [139.7010536275352, 35.68820234438517, 72.5], [139.70105338564787, 35.68820225595177, 72.5], [139.70105313523342, 35.68820218505379, 72.5], [139.70105287819757, 35.68820213223079, 72.5], [139.70105261649667, 35.688202097884805, 72.5], [139.7010523521223, 35.688202082277215, 72.5], [139.70105208708657, 35.68820208552681, 72.5], [139.70105182340654, 35.688202107608845, 72.5], [139.70105156308895, 35.68820214835528, 72.5], [139.70105130811504, 35.688202207456015, 72.5], [139.7010510604253, 35.688202284461234, 72.5], [139.70105082190474, 35.688202378784894, 72.5], [139.70105059436864, 35.688202489709134, 72.5], [139.7010503795488, 35.68820261638975, 72.5], [139.70105017908006, 35.68820275786263, 72.5], [139.70104999448805, 35.68820291305109, 72.5], [139.70104982717768, 35.68820308077404, 72.5], [139.70104967842232, 35.68820325975499, 72.5], [139.70104954935405, 35.68820344863184, 72.5], [139.7010494409551, 35.68820364596707, 72.5], [139.70104935405058, 35.688203850258844, 72.5], [139.7010492893018, 35.688204059952405, 72.5], [139.70104924720155, 35.68820427345185, 72.5], [139.70104922807027, 35.68820448913231, 72.5], [139.7010492320535, 35.68820470535234, 72.5], [139.70104925912096, 35.688204920466376, 72.5], [139.70104930906666, 35.68820513283725, 72.5], [139.70104938151047, 35.6882053408487, 72.5], [139.70104947590107, 35.68820554291764, 72.5], [139.70104959152005, 35.688205737506216, 72.5], [139.70104972748746, 35.688205923133445, 72.5], [139.70104988276864, 35.688206098386644, 72.5], [139.70105005618169, 35.68820626193199, 72.5], [139.70105024640682, 35.688206412524835, 72.5], [139.7010504519964, 35.688206549019064, 72.5], [139.70105067138564, 35.68820667037586, 72.5], [139.70105090290497, 35.68820677567166, 72.5], [139.70105114479233, 35.68820686410506, 72.5], [139.70105139520678, 35.688206935003045, 72.5], [139.70105165224263, 35.68820698782605, 72.5], [139.70105191394356, 35.68820702217203, 72.5], [139.70105217831792, 35.688207037779634, 72.5], [139.7010524433537, 35.688207034530045, 72.5], [139.7010527070337, 35.688207012448004, 72.5], [139.7010529673513, 35.68820697170157, 72.5], [139.70105322232524, 35.688206912600826, 72.5], [139.70105347001504, 35.6882068355956, 72.5], [139.70105370853562, 35.68820674127194, 72.5], [139.70105393607167, 35.688206630347686, 72.5], [139.70105415089154, 35.68820650366706, 72.5], [139.7010543513603, 35.68820636219417, 72.5], [139.70105453595227, 35.68820620700572, 72.5], [139.70105470326266, 35.688206039282754, 72.5], [139.70105485201802, 35.688205860301785, 72.5], [139.7010549810863, 35.68820567142495, 72.5], [139.7010550894852, 35.68820547408972, 72.5], [139.7010551763897, 35.68820526979793, 72.5], [139.7010552411385, 35.68820506010436, 72.5], [139.7010552832387, 35.688204846604926, 72.5], [139.70105530236998, 35.68820463092445, 72.5], [139.70105529838673, 35.68820441470442, 72.5], [139.70105527131926, 35.6882041995904, 72.5], [139.70105522137354, 35.68820398721954, 72.5], [139.70105514892973, 35.688203779208074, 72.5], [139.7010550545391, 35.68820357713914, 72.5], [139.7010549389201, 35.68820338255059, 72.5], [139.70105480295263, 35.68820319692335, 72.5]]]}, "properties": {"id": "fdc71931e8494ef3b69b1793d7615816", "category": "C001", "floor_id": "3dc6f5b2773f499aa6ab7e10223bb60b", "source": "2", "__floor": "3out", "__z_abs": 72.5}}]}