{"type": "FeatureCollection", "features": [{"type": "Feature", "geometry": {"type": "Polygon", "coordinates": [[[139.7000785527227, 35.68942655638165, 62.5], [139.70012420650372, 35.68941916677555, 62.5], [139.70026508861105, 35.68939584506248, 62.5], [139.70033015168377, 35.68940641132865, 62.5], [139.7003438471873, 35.68935292946295, 62.5], [139.70056191127568, 35.68939008783853, 62.5], [139.70070818229422, 35.68941444933912, 62.5], [139.70072790657113, 35.689337411629715, 62.5], [139.70018824238065, 35.689246825797085, 62.5], [139.70003171438282, 35.68922061386999, 62.5], [139.7000098652821, 35.689304872850066, 62.5], [139.69998296481228, 35.689410263185586, 62.5], [139.7000785527227, 35.68942655638165, 62.5]]]}, "properties": {"id": "ef7f046522994184afcdc5b67bef33e2", "category": "1", "name": "2é", "ordinal": 2.0, "short_name": "2F", "source": "1", "__floor": "2F", "__z_abs": 62.5}}, {"type": "Feature", "geometry": {"type": "Polygon", "coordinates": [[[139.69932012057757, 35.691023570384026, 62.5], [139.69931751142525, 35.691012589257774, 62.5], [139.69935325633304, 35.691006596938266, 62.5], [139.6993622428403, 35.69097468864661, 62.5], [139.6993911462798, 35.690872061345594, 62.5], [139.69941285790588, 35.69079487560474, 62.5], [139.6994723449049, 35.69034301808552, 62.5], [139.69946012177414, 35.69034188570395, 62.5], [139.69946870020658, 35.69028026067091, 62.5], [139.69949855909104, 35.69028277627905, 62.5], [139.6995053119276, 35.69022943322329, 62.5], [139.6995281053705, 35.69023135356351, 62.5], [139.69953602045726, 35.69016882924708, 62.5], [139.6995622526782, 35.69017103929778, 62.5], [139.6995751071144, 35.69006949668353, 62.5], [139.6996272640151, 35.69007389085728, 62.5], [139.6996580648788, 35.68983057951795, 62.5], [139.69958335369572, 35.689824451947516, 62.5], [139.6995885846648, 35.689782005322286, 62.5], [139.69956072960733, 35.68977745743408, 62.5], [139.69960713827643, 35.689588284156564, 62.5], [139.69963910677453, 35.68945797207055, 62.5], [139.69964449083426, 35.68941607585892, 62.5], [139.6997478601117, 35.68942491670391, 62.5], [139.6997446949497, 35.689449546753195, 62.5], [139.6997586174293, 35.68945132918195, 62.5], [139.69984837740262, 35.68946282068344, 62.5], [139.69985888721015, 35.68946416619471, 62.5], [139.6998626434414, 35.68944544579438, 62.5], [139.6999896652981, 35.68946244935612, 62.5], [139.69999437907393, 35.689443738968315, 62.5], [139.69997521645757, 35.68944047306188, 62.5], [139.69998296481228, 35.689410263185586, 62.5], [139.70000992235157, 35.689304855976076, 62.5], [139.70003171438282, 35.68922061386999, 62.5], [139.69994086037562, 35.68921677468375, 62.5], [139.6999343699954, 35.689241437774044, 62.5], [139.69991453780568, 35.68923796429121, 62.5], [139.69981989636608, 35.68922138839125, 62.5], [139.69982318381494, 35.68919580648861, 62.5], [139.6996588868342, 35.68911735834264, 62.5], [139.69963140815878, 35.689274614315316, 62.5], [139.699604979861, 35.68927235396581, 62.5], [139.69959490308048, 35.6893507665202, 62.5], [139.69961266817577, 35.68935228592728, 62.5], [139.69959952155006, 35.68945458644835, 62.5], [139.69945989501298, 35.69002373689593, 62.5], [139.69944912653088, 35.69002372492051, 62.5], [139.69933176533542, 35.69086680743662, 62.5], [139.69931940878553, 35.690869253657254, 62.5], [139.69930745613945, 35.69096004327488, 62.5], [139.69926013625332, 35.69095048229822, 62.5], [139.69924399722314, 35.69095582499279, 62.5], [139.69926512744047, 35.691031712830764, 62.5], [139.69932012057757, 35.691023570384026, 62.5]]]}, "properties": {"id": "91c06133cdd84d8eb36537147a68d5c0", "category": "1", "name": "2é", "ordinal": 2.0, "short_name": "2F", "source": "1", "__floor": "2F", "__z_abs": 62.5}}, {"type": "Feature", "geometry": {"type": "Polygon", "coordinates": [[[139.6999438334214, 35.68964325581613, 62.5], [139.69994530163015, 35.6896375224954, 62.5], [139.6999701634628, 35.689641524011236, 62.5], [139.69998797441266, 35.68956300262036, 62.5], [139.6999652932833, 35.689559137075186, 62.5], [139.6999896652981, 35.68946244935612, 62.5], [139.69986264344152, 35.68944544579438, 62.5], [139.69985888721033, 35.68946416619474, 62.5], [139.69984837740265, 35.68946282068344, 62.5], [139.69975861742932, 35.68945132918201, 62.5], [139.6997446949497, 35.68944954675323, 62.5], [139.69974786011187, 35.689424916703956, 62.5], [139.69964449083443, 35.689416075858894, 62.5], [139.69963910677453, 35.68945797207055, 62.5], [139.6996071382764, 35.68958828415668, 62.5], [139.69968551532546, 35.68960108073468, 62.5], [139.6996750025861, 35.68964393349461, 62.5], [139.69970427409442, 35.68964871262904, 62.5], [139.69971478672267, 35.689605859850985, 62.5], [139.69981310779997, 35.68962191257442, 62.5], [139.69980259515376, 35.68966476542511, 62.5], [139.69982927891192, 35.6896691220598, 62.5], [139.69983979167662, 35.68962626919682, 62.5], [139.69992700635294, 35.68964050851269, 62.5], [139.6999438334214, 35.68964325581613, 62.5]]]}, "properties": {"id": "b116f548458d4769a21fb67f7caf4b41", "category": "1", "name": "2é", "ordinal": 2.0, "short_name": "2F", "source": "1", "__floor": "2F", "__z_abs": 62.5}}, {"type": "Feature", "geometry": {"type": "Polygon", "coordinates": [[[139.700698678876, 35.68997871791985, 62.5], [139.70075575538146, 35.68998259323135, 62.5], [139.70076214776918, 35.689919859326984, 62.5], [139.70083060447632, 35.689931636710796, 62.5], [139.7008298410768, 35.68994623984319, 62.5], [139.70092879992626, 35.6899631046368, 62.5], [139.70116291672045, 35.690003003004556, 62.5], [139.7012174134477, 35.68978933523533, 62.5], [139.70124353528766, 35.68979378690863, 62.5], [139.70126368595982, 35.689715014209945, 62.5], [139.70129239605834, 35.689702330590585, 62.5], [139.7013143632383, 35.68969262586732, 62.5], [139.70133170652053, 35.68962489602463, 62.5], [139.70133887958715, 35.68962612332431, 62.5], [139.70136312301545, 35.68952882594204, 62.5], [139.70130619187168, 35.689519123778766, 62.5], [139.70132698522826, 35.68943792037425, 62.5], [139.70072790657113, 35.689337411629715, 62.5], [139.70070818229422, 35.68941444933912, 62.5], [139.70056191127568, 35.68939008783853, 62.5], [139.7003438471873, 35.68935292946295, 62.5], [139.70033014172574, 35.68940640971368, 62.5], [139.70026508861105, 35.68939584506248, 62.5], [139.70012420650372, 35.68941916677555, 62.5], [139.7000785527054, 35.68942655638395, 62.5], [139.70000128741643, 35.68941338813936, 62.5], [139.69998296481228, 35.689410263185586, 62.5], [139.69997521645757, 35.68944047306188, 62.5], [139.69999437907393, 35.689443738968315, 62.5], [139.6999896652981, 35.68946244935612, 62.5], [139.6999653058354, 35.689559139214445, 62.5], [139.69998797441266, 35.68956300262036, 62.5], [139.7000373728972, 35.689571421588624, 62.5], [139.7000349399453, 35.68958092226071, 62.5], [139.70004919333394, 35.68958911221512, 62.5], [139.69999980643342, 35.68964616161243, 62.5], [139.69994530163015, 35.6896375224954, 62.5], [139.69991448158098, 35.68977550472831, 62.5], [139.69996454222377, 35.689784036604124, 62.5], [139.69999130076016, 35.689788465559516, 62.5], [139.6999904785345, 35.68979444514895, 62.5], [139.699979869037, 35.689871179235126, 62.5], [139.69999733108233, 35.68987277814958, 62.5], [139.70000065318644, 35.68984858447741, 62.5], [139.70002708141052, 35.68985090770231, 62.5], [139.70003461187105, 35.68979605707023, 62.5], [139.70005350635782, 35.689799198777536, 62.5], [139.7001384613995, 35.68981367761389, 62.5], [139.70015836935346, 35.6898164216948, 62.5], [139.70015365496243, 35.68987165046065, 62.5], [139.70021283198201, 35.689874965848865, 62.5], [139.70021687140024, 35.68982704092503, 62.5], [139.700234823653, 35.689829862601016, 62.5], [139.70033026800698, 35.689846366858234, 62.5], [139.70034377106163, 35.68984866814626, 62.5], [139.7003437069473, 35.68984998068, 62.5], [139.70034098006246, 35.689906828117486, 62.5], [139.70037539510992, 35.68990801980065, 62.5], [139.7003780094176, 35.68985450328665, 62.5], [139.70038859105662, 35.68985630668152, 62.5], [139.70048593005671, 35.689872895808385, 62.5], [139.70049960145064, 35.689875225766784, 62.5], [139.70049949794554, 35.68988146880319, 62.5], [139.7005037621636, 35.6898815362079, 62.5], [139.700502812929, 35.6899386346711, 62.5], [139.70056243528455, 35.68993929759263, 62.5], [139.7005632506484, 35.68988607321074, 62.5], [139.7006452049456, 35.68990004025582, 62.5], [139.70068637000458, 35.689907055780075, 62.5], [139.70070564899893, 35.68991034138293, 62.5], [139.7007031084536, 35.68993388536554, 62.5], [139.700698678876, 35.68997871791985, 62.5]]]}, "properties": {"id": "30d37b2cf3ea406fa258fcc3e66d0c59", "category": "1", "name": "2é", "ordinal": 2.0, "short_name": "2F", "source": "1", "__floor": "2F", "__z_abs": 62.5}}, {"type": "Feature", "geometry": {"type": "Polygon", "coordinates": [[[139.70006033251138, 35.69410204696978, 62.5], [139.7000290483064, 35.69434901420848, 62.5], [139.7000389730964, 35.69435070773656, 62.5], [139.70001912238786, 35.694428121794246, 62.5], [139.70002086468799, 35.69442841909531, 62.5], [139.70001498272185, 35.69445135643813, 62.5], [139.7000123735264, 35.69445091121826, 62.5], [139.7000053528175, 35.69447829061061, 62.5], [139.7000290429638, 35.694482333005595, 62.5], [139.70004063690322, 35.69443711886597, 62.5], [139.70007746202535, 35.694443402554924, 62.5], [139.7000747447036, 35.6944539996294, 62.5], [139.70013428491063, 35.6944641592872, 62.5], [139.70014062530936, 35.694439432776804, 62.5], [139.7000919106078, 35.69443112033428, 62.5], [139.7000976849091, 35.694408601549966, 62.5], [139.7001388217565, 35.69441562094523, 62.5], [139.7001379159857, 35.69441915330387, 62.5], [139.70014332872955, 35.6944200769075, 62.5], [139.70017943289764, 35.69427927624488, 62.5], [139.70029215018596, 35.694298509699536, 62.5], [139.70033182907875, 35.694150472241795, 62.5], [139.70031202327732, 35.694146939618264, 62.5], [139.70029310804767, 35.694217510204794, 62.5], [139.70024472531028, 35.69420888049588, 62.5], [139.70026364058046, 35.69413830991694, 62.5], [139.70006033251138, 35.69410204696978, 62.5]]]}, "properties": {"id": "28eb779e25134b68a7bddd1ffdc5ed17", "category": "1", "name": "2é", "ordinal": 2.0, "short_name": "2F", "source": "2", "__floor": "2F", "__z_abs": 62.5}}, {"type": "Feature", "geometry": {"type": "Polygon", "coordinates": [[[139.70017886414638, 35.695194864193546, 62.5], [139.70014549807553, 35.69518917082767, 62.5], [139.7001667367378, 35.69510634430713, 62.5], [139.70010779154046, 35.69509628626384, 62.5], [139.70011212994456, 35.69507936739856, 62.5], [139.70010177933088, 35.69507760123293, 62.5], [139.70010395146443, 35.69506913035234, 62.5], [139.70000398949387, 35.69505207340132, 62.5], [139.6999996452061, 35.695069015158865, 62.5], [139.69998241947474, 35.6950896769386, 62.5], [139.69998471342097, 35.695149473394444, 62.5], [139.69997716059825, 35.69514966620176, 62.5], [139.69997757688955, 35.695160517713184, 62.5], [139.6999347918431, 35.69515321707587, 62.5], [139.6999300883391, 35.69520182216551, 62.5], [139.69997498174578, 35.6952047130278, 62.5], [139.69996625747055, 35.695289198005014, 62.5], [139.7001670781935, 35.69530451216756, 62.5], [139.70017886414638, 35.695194864193546, 62.5]]]}, "properties": {"id": "39b9453826644aad8d5a3c973259602c", "category": "1", "name": "2é", "ordinal": 2.0, "short_name": "2F", "source": "2", "__floor": "2F", "__z_abs": 62.5}}, {"type": "Feature", "geometry": {"type": "Polygon", "coordinates": [[[139.69956364309337, 35.689354335563294, 62.5], [139.699538717957, 35.68935220376366, 62.5], [139.69953464115508, 35.689380972558936, 62.5], [139.69959040835496, 35.689385742214675, 62.5], [139.69958996419507, 35.68938919844206, 62.5], [139.6994659080753, 35.68937858813728, 62.5], [139.69945962076613, 35.68942751217048, 62.5], [139.6994950190236, 35.68943053973541, 62.5], [139.69949264593197, 35.68944900574526, 62.5], [139.6994747258553, 35.689527547244424, 62.5], [139.699507989803, 35.689541073109645, 62.5], [139.69952776597748, 35.68945450671586, 62.5], [139.69953343761802, 35.68941037316589, 62.5], [139.69949800016076, 35.689407342258924, 62.5], [139.69949848261405, 35.68940358808648, 62.5], [139.69954052500702, 35.689407183901444, 62.5], [139.69960490563034, 35.68941269023852, 62.5], [139.69961058212064, 35.68936851859151, 62.5], [139.6995623505508, 35.689364393451804, 62.5], [139.69956364309337, 35.689354335563294, 62.5]]]}, "properties": {"id": "6b22cfb0a35a4e75bcfe56abcd5077ae", "category": "1", "name": "2é", "ordinal": 2.0, "short_name": "2F", "source": "1", "__floor": "2F", "__z_abs": 62.5}}, {"type": "Feature", "geometry": {"type": "Polygon", "coordinates": [[[139.69929943438555, 35.68919998944216, 62.5], [139.69929346309513, 35.68924645375836, 62.5], [139.6992880785588, 35.68924599321679, 62.5], [139.6992834003661, 35.68928239551256, 62.5], [139.699431341795, 35.68929504891317, 62.5], [139.69942524395785, 35.68934249848113, 62.5], [139.69956364309337, 35.689354335563294, 62.5], [139.69956443661556, 35.68934816078841, 62.5], [139.69959490308048, 35.6893507665202, 62.5], [139.699604979861, 35.68927235396581, 62.5], [139.69963140815878, 35.689274614315316, 62.5], [139.6996588868342, 35.68911735834264, 62.5], [139.69947745042154, 35.68903072606037, 62.5], [139.69945267231284, 35.689213095840444, 62.5], [139.69929943438555, 35.68919998944216, 62.5]]]}, "properties": {"id": "dbe894d85d824b2a9841b41cce54d106", "category": "1", "name": "2é", "ordinal": 2.0, "short_name": "2F", "source": "1", "__floor": "2F", "__z_abs": 62.5}}, {"type": "Feature", "geometry": {"type": "Polygon", "coordinates": [[[139.7015873530181, 35.68897317309652, 62.5], [139.70158952584347, 35.68896466522499, 62.5], [139.70161795394813, 35.68894883553585, 62.5], [139.7016239014706, 35.688949822361906, 62.5], [139.70164699367632, 35.6888583599736, 62.5], [139.70162398451927, 35.68882973927368, 62.5], [139.70163805465467, 35.68877467384827, 62.5], [139.7016484320607, 35.68877643468145, 62.5], [139.7016731806967, 35.68867936151567, 62.5], [139.70166285612956, 35.68867760964825, 62.5], [139.70170722807197, 35.688503952953404, 62.5], [139.70171877979004, 35.68850591304291, 62.5], [139.7017278814494, 35.688470212795714, 62.5], [139.70171634916412, 35.68846825600361, 62.5], [139.7017461855636, 35.68835148593549, 62.5], [139.70174125704122, 35.6883505630168, 62.5], [139.70176288931376, 35.68824698900881, 62.5], [139.70162851497582, 35.68822144202771, 62.5], [139.70153103029776, 35.68820490083478, 62.5], [139.7014664287654, 35.68819393911863, 62.5], [139.70148706651463, 35.688116738450404, 62.5], [139.70133924061884, 35.688091654668554, 62.5], [139.701318644897, 35.68817247527538, 62.5], [139.7010297403435, 35.688124694680006, 62.5], [139.70070519553354, 35.688070067543315, 62.5], [139.700671188805, 35.68806428700707, 62.5], [139.70066505521197, 35.688088302728104, 62.5], [139.7006589216156, 35.68811231844868, 62.5], [139.7004382572918, 35.68807475580322, 62.5], [139.70040789499993, 35.688193802725166, 62.5], [139.70044684575956, 35.68820041232306, 62.5], [139.70062162482745, 35.6882300706097, 62.5], [139.70066984460607, 35.688238252967714, 62.5], [139.70079891855826, 35.688260155328194, 62.5], [139.70079392207694, 35.688279751900275, 62.5], [139.70085379002444, 35.688289910751635, 62.5], [139.7008349125035, 35.688363952557694, 62.5], [139.70088110602717, 35.6883717756169, 62.5], [139.7008758517977, 35.688391990854804, 62.5], [139.70096012171706, 35.68840629033036, 62.5], [139.70096815784865, 35.688374770691, 62.5], [139.70098766660993, 35.68829703123207, 62.5], [139.70103462708536, 35.6883050019422, 62.5], [139.7010385753649, 35.688289542439904, 62.5], [139.70114065265588, 35.68830724381688, 62.5], [139.70118484065233, 35.6883149064947, 62.5], [139.70126845003105, 35.6883294052194, 62.5], [139.7013520594401, 35.68834390388603, 62.5], [139.70140569159318, 35.688353204178064, 62.5], [139.70153685086368, 35.68837594825157, 62.5], [139.70157491935967, 35.688382549606104, 62.5], [139.7015619060768, 35.688433504470176, 62.5], [139.70156493468357, 35.68843401925387, 62.5], [139.70154877336398, 35.6884979652867, 62.5], [139.7015363996728, 35.688548159157136, 62.5], [139.70151469733753, 35.68863250855517, 62.5], [139.70150514418637, 35.688630893750364, 62.5], [139.70150095789793, 35.68863018341666, 62.5], [139.70149276406997, 35.688662328098935, 62.5], [139.70145017008278, 35.68865532048424, 62.5], [139.7014465224195, 35.688669627800394, 62.5], [139.70143299102378, 35.68872114773009, 62.5], [139.70143596319684, 35.68872164238378, 62.5], [139.70143301541665, 35.688733207909664, 62.5], [139.70144551433626, 35.688735236677225, 62.5], [139.70147006550263, 35.688739401135585, 62.5], [139.70148672695828, 35.688742227309355, 62.5], [139.7014801534313, 35.68876809339092, 62.5], [139.70146926452122, 35.688810939976506, 62.5], [139.7014346210905, 35.68894725750288, 62.5], [139.7015873530181, 35.68897317309652, 62.5]]]}, "properties": {"id": "c8bf470c874541ca89ff92e5785498ac", "category": "1", "name": "2é", "ordinal": 2.0, "short_name": "2F", "source": "2", "__floor": "2F", "__z_abs": 62.5}}, {"type": "Feature", "geometry": {"type": "Polygon", "coordinates": [[[139.69997716059825, 35.69514966620176, 62.5], [139.69998471342097, 35.695149473394444, 62.5], [139.69998241947474, 35.6950896769386, 62.5], [139.6999996452061, 35.695069015158865, 62.5], [139.70000398949387, 35.69505207340132, 62.5], [139.70010395146443, 35.69506913035234, 62.5], [139.70010177933088, 35.69507760123293, 62.5], [139.70011212994456, 35.69507936739856, 62.5], [139.70010779154046, 35.69509628626384, 62.5], [139.7001667367378, 35.69510634430713, 62.5], [139.70018971538875, 35.695016731978995, 62.5], [139.7001987731499, 35.694981408393645, 62.5], [139.70019979647182, 35.69497741762624, 62.5], [139.70020579290926, 35.69495403261435, 62.5], [139.70019961780403, 35.69495297893419, 62.5], [139.70020383995362, 35.69493651331765, 62.5], [139.70020053481193, 35.69493594934943, 62.5], [139.7002356711692, 35.694798923688154, 62.5], [139.70025432337326, 35.69472618315048, 62.5], [139.70034492788193, 35.69437283847585, 62.5], [139.70032908275962, 35.69437013476505, 62.5], [139.70032940641178, 35.69436887256288, 62.5], [139.70016370854825, 35.69434059883462, 62.5], [139.70014332872955, 35.6944200769075, 62.5], [139.7001379159857, 35.69441915330387, 62.5], [139.7001388217565, 35.69441562094523, 62.5], [139.7000976849091, 35.694408601549966, 62.5], [139.7000919106078, 35.69443112033428, 62.5], [139.70014062530936, 35.694439432776804, 62.5], [139.70013428491063, 35.6944641592872, 62.5], [139.7000747447036, 35.6944539996294, 62.5], [139.70007746202535, 35.694443402554924, 62.5], [139.70004063690322, 35.69443711886597, 62.5], [139.7000290429638, 35.694482333005595, 62.5], [139.6999977531582, 35.69460435700812, 62.5], [139.70001292739528, 35.69460694627608, 62.5], [139.69996722667446, 35.69478440857998, 62.5], [139.69996233078044, 35.69478357365018, 62.5], [139.69995655232015, 35.694827250156706, 62.5], [139.69996408181123, 35.69482831035365, 62.5], [139.69995825394574, 35.69485084568938, 62.5], [139.69996122239925, 35.69485135653321, 62.5], [139.69995995814318, 35.69485624521022, 62.5], [139.69997293488717, 35.69485847837476, 62.5], [139.69995006866264, 35.69494769605122, 62.5], [139.69995967751174, 35.69494947597918, 62.5], [139.6999558121217, 35.6949645500946, 62.5], [139.69997910608652, 35.69496871699158, 62.5], [139.6999347918431, 35.69515321707587, 62.5], [139.69997757688955, 35.695160517713184, 62.5], [139.69997716059825, 35.69514966620176, 62.5]]]}, "properties": {"id": "3b4f894c8114422ea50af5adf323eea6", "category": "1", "name": "2é", "ordinal": 2.0, "short_name": "2F", "source": "2", "__floor": "2F", "__z_abs": 62.5}}, {"type": "Feature", "geometry": {"type": "Polygon", "coordinates": [[[139.69999980643342, 35.68964616161243, 62.5], [139.70004919333394, 35.68958911221512, 62.5], [139.7000349399453, 35.68958092226071, 62.5], [139.7000373728972, 35.689571421588624, 62.5], [139.69998797441295, 35.68956300262041, 62.5], [139.6999701634628, 35.689641524011236, 62.5], [139.69999980643342, 35.68964616161243, 62.5]]]}, "properties": {"id": "ba007aef99184751a4dd8989e58dcbb5", "category": "1", "name": "2é", "ordinal": 2.0, "short_name": "2F", "source": "1", "__floor": "2F", "__z_abs": 62.5}}, {"type": "Feature", "geometry": {"type": "Polygon", "coordinates": [[[139.7013520594403, 35.68834390388611, 62.5], [139.70126845002812, 35.68832940521895, 62.5], [139.70118484065233, 35.68831490649478, 62.5], [139.70114065265602, 35.68830724381695, 62.5], [139.70103857536503, 35.68828954243992, 62.5], [139.7010346270854, 35.68830500194218, 62.5], [139.7009876666101, 35.68829703123208, 62.5], [139.7009681578486, 35.68837477069104, 62.5], [139.70096012171712, 35.68840629033036, 62.5], [139.70087585179772, 35.688391990854825, 62.5], [139.70088110602717, 35.688371775616986, 62.5], [139.70083491250352, 35.68836395255778, 62.5], [139.70085379002455, 35.68828991075168, 62.5], [139.70079392207697, 35.688279751900325, 62.5], [139.70079891855823, 35.688260155328294, 62.5], [139.70066984460618, 35.688238252967835, 62.5], [139.70062162482748, 35.68823007060979, 62.5], [139.70044684575964, 35.68820041232311, 62.5], [139.700407895, 35.688193802725266, 62.5], [139.7003835004773, 35.68818966318446, 62.5], [139.70037755849853, 35.68821335121447, 62.5], [139.7002971576087, 35.68853387243115, 62.5], [139.70028761315814, 35.688532252817026, 62.5], [139.7002399257551, 35.68871701319188, 62.5], [139.70023287368986, 35.688744562114834, 62.5], [139.70027504290215, 35.68875167371482, 62.5], [139.7002721185578, 35.68876318534291, 62.5], [139.70028698441251, 35.688765707949926, 62.5], [139.70029692933974, 35.68872670301607, 62.5], [139.70032043355445, 35.688730698357006, 62.5], [139.7003131757583, 35.688759115076664, 62.5], [139.70041896219266, 35.68877709701849, 62.5], [139.7004162723573, 35.68878764691203, 62.5], [139.70052489528223, 35.68880607912445, 62.5], [139.7006024372822, 35.688819259216814, 62.5], [139.70060643632291, 35.68880357395983, 62.5], [139.70062320529246, 35.688806419458444, 62.5], [139.70069244009665, 35.68881816777201, 62.5], [139.70071190473652, 35.6888214706795, 62.5], [139.7007155379922, 35.688807220432636, 62.5], [139.70074815359555, 35.68881263789643, 62.5], [139.70075158190423, 35.688799191460305, 62.5], [139.7008378572374, 35.68881383124534, 62.5], [139.7008308819319, 35.68884481282089, 62.5], [139.7010351277156, 35.68887947036524, 62.5], [139.7011349957171, 35.68889641637821, 62.5], [139.70119826319763, 35.68890715181777, 62.5], [139.70124614551753, 35.68891527662737, 62.5], [139.7012500236957, 35.68890005330468, 62.5], [139.70130505149473, 35.68890941687437, 62.5], [139.70130117681367, 35.68892461447024, 62.5], [139.70139465117313, 35.688940475361846, 62.5], [139.70139811623108, 35.68892717477388, 62.5], [139.70141502722583, 35.68893004925104, 62.5], [139.70143200912582, 35.68893293573126, 62.5], [139.70142861748116, 35.68894623880459, 62.5], [139.70143462109047, 35.688947257502946, 62.5], [139.70146926452117, 35.68881093997658, 62.5], [139.70148672695836, 35.688742227309376, 62.5], [139.70144551022997, 35.68873523598046, 62.5], [139.70143301541668, 35.68873320790976, 62.5], [139.701435963197, 35.688721642383825, 62.5], [139.70143299102392, 35.688721147730064, 62.5], [139.70144652241947, 35.68866962780044, 62.5], [139.7014501700828, 35.68865532048437, 62.5], [139.70149276406994, 35.68866232809893, 62.5], [139.70150095789802, 35.68863018341665, 62.5], [139.7015051441865, 35.688630893750485, 62.5], [139.70151469733764, 35.688632508555315, 62.5], [139.70153639967282, 35.68854815915762, 62.5], [139.70154877336404, 35.68849796528673, 62.5], [139.7015649346837, 35.68843401925386, 62.5], [139.7015619060768, 35.68843350447031, 62.5], [139.7015749193598, 35.68838254960616, 62.5], [139.7015368508636, 35.68837594825163, 62.5], [139.70140569159332, 35.688353204177986, 62.5], [139.7013520594403, 35.68834390388611, 62.5]]]}, "properties": {"id": "0185ef002c644868a9e8c7f64b7c396b", "category": "1", "name": "2é", "ordinal": 2.0, "short_name": "2F", "source": "2", "__floor": "2F", "__z_abs": 62.5}}]}