{"type": "FeatureCollection", "features": [{"type": "Feature", "geometry": {"type": "Polygon", "coordinates": [[[139.70138542717308, 35.6889840302743, 62.5], [139.70138832486523, 35.688972553406174, 62.5], [139.70137425674326, 35.68897018944907, 62.5], [139.70137135904915, 35.68898166631686, 62.5], [139.70138542717308, 35.6889840302743, 62.5]]]}, "properties": {"id": "38782f1fd43441088c7643af3d3521d1", "category": "C001", "floor_id": "7e3432205d4349f89bc6c76435bc6d8e", "source": "2", "__floor": "2out", "__z_abs": 62.5}}, {"type": "Feature", "geometry": {"type": "Polygon", "coordinates": [[[139.70087402378155, 35.68885281545735, 62.5], [139.70087112602013, 35.68886429231316, 62.5], [139.70088302978715, 35.68886629263439, 62.5], [139.70088592754695, 35.68885481577829, 62.5], [139.70087402378155, 35.68885281545735, 62.5]]]}, "properties": {"id": "b0fd578e532e43439247ba8c9d8b46ea", "category": "C001", "floor_id": "7e3432205d4349f89bc6c76435bc6d8e", "source": "2", "__floor": "2out", "__z_abs": 62.5}}, {"type": "Feature", "geometry": {"type": "Polygon", "coordinates": [[[139.70107556062783, 35.68809251604606, 62.5], [139.70107344307448, 35.68810090298387, 62.5], [139.70108372350703, 35.688102630516816, 62.5], [139.70108584105935, 35.68809424357884, 62.5], [139.70107556062783, 35.68809251604606, 62.5]]]}, "properties": {"id": "a3133ad6e9964fed91242dc897f41f74", "category": "C001", "floor_id": "7e3432205d4349f89bc6c76435bc6d8e", "source": "2", "__floor": "2out", "__z_abs": 62.5}}, {"type": "Feature", "geometry": {"type": "Polygon", "coordinates": [[[139.7011853623482, 35.688118329508534, 62.5], [139.70118681119288, 35.688112591076056, 62.5], [139.70117598968125, 35.68811077262956, 62.5], [139.7011745408358, 35.688116511061885, 62.5], [139.7011853623482, 35.688118329508534, 62.5]]]}, "properties": {"id": "57243306649c42768253f57890484cf9", "category": "C001", "floor_id": "7e3432205d4349f89bc6c76435bc6d8e", "source": "2", "__floor": "2out", "__z_abs": 62.5}}, {"type": "Feature", "geometry": {"type": "Polygon", "coordinates": [[[139.70104179386905, 35.688925228527026, 62.5], [139.70104469160827, 35.688913751667165, 62.5], [139.70103062350688, 35.68891138766995, 62.5], [139.70102772576575, 35.68892286452945, 62.5], [139.70104179386905, 35.688925228527026, 62.5]]]}, "properties": {"id": "70cc1fb04e964594aa0cd3735fd44424", "category": "C001", "floor_id": "7e3432205d4349f89bc6c76435bc6d8e", "source": "2", "__floor": "2out", "__z_abs": 62.5}}, {"type": "Feature", "geometry": {"type": "Polygon", "coordinates": [[[139.70094702695894, 35.68807091777754, 62.5], [139.7009449093927, 35.68807930471308, 62.5], [139.70095843627038, 35.688081577797014, 62.5], [139.70096055383527, 35.688073190861225, 62.5], [139.70094702695894, 35.68807091777754, 62.5]]]}, "properties": {"id": "92551f273d49459e81cbced17b5bc6c6", "category": "C001", "floor_id": "7e3432205d4349f89bc6c76435bc6d8e", "source": "2", "__floor": "2out", "__z_abs": 62.5}}, {"type": "Feature", "geometry": {"type": "Polygon", "coordinates": [[[139.70120210876235, 35.6889532259617, 62.5], [139.70120500647963, 35.68894174909799, 62.5], [139.7011909383685, 35.68893938511947, 62.5], [139.70118804064933, 35.68895086198286, 62.5], [139.70120210876235, 35.6889532259617, 62.5]]]}, "properties": {"id": "6b5685b75ea542b89a130fcfef8b4cc6", "category": "C001", "floor_id": "7e3432205d4349f89bc6c76435bc6d8e", "source": "2", "__floor": "2out", "__z_abs": 62.5}}, {"type": "Feature", "geometry": {"type": "Polygon", "coordinates": [[[139.70078568086726, 35.6880511670664, 62.5], [139.70078712973927, 35.68804542863873, 62.5], [139.7007763082459, 35.68804361015633, 62.5], [139.70077485937313, 35.68804934858385, 62.5], [139.70078568086726, 35.6880511670664, 62.5]]]}, "properties": {"id": "a157750dc64f4abb94aab47d18ae5e5f", "category": "C001", "floor_id": "7e3432205d4349f89bc6c76435bc6d8e", "source": "2", "__floor": "2out", "__z_abs": 62.5}}, {"type": "Feature", "geometry": {"type": "Polygon", "coordinates": [[[139.70095170474482, 35.68887585509606, 62.5], [139.70095415668746, 35.688866143908726, 62.5], [139.70094225291865, 35.68886414359454, 62.5], [139.70093980097465, 35.688873854781626, 62.5], [139.70095170474482, 35.68887585509606, 62.5]]]}, "properties": {"id": "52a0e2a7b7f142bfaba23f20cd6282d6", "category": "C001", "floor_id": "7e3432205d4349f89bc6c76435bc6d8e", "source": "2", "__floor": "2out", "__z_abs": 62.5}}, {"type": "Feature", "geometry": {"type": "Polygon", "coordinates": [[[139.7007396760072, 35.688842203233285, 62.5], [139.70075157976765, 35.68884420356748, 62.5], [139.70075447754544, 35.68883272671454, 62.5], [139.7007425737867, 35.68883072638063, 62.5], [139.7007396760072, 35.688842203233285, 62.5]]]}, "properties": {"id": "a51720d2047745a8a982bd4d681c4838", "category": "C001", "floor_id": "7e3432205d4349f89bc6c76435bc6d8e", "source": "2", "__floor": "2out", "__z_abs": 62.5}}]}