{"type": "FeatureCollection", "features": [{"type": "Feature", "geometry": {"type": "Polygon", "coordinates": [[[139.70146305062687, 35.692162489533985, 22.5], [139.70154294233757, 35.69213368912121, 22.5], [139.7015718648538, 35.69212772277273, 22.5], [139.7015734395235, 35.69214437817299, 22.5], [139.7016273781136, 35.69214098445852, 22.5], [139.70162501651757, 35.69211600585402, 22.5], [139.70164544997394, 35.69210304712276, 22.5], [139.70165838173995, 35.69208756854999, 22.5], [139.70166329689212, 35.69207241675758, 22.5], [139.701665333379, 35.69205595298724, 22.5], [139.7016618711183, 35.692040134231064, 22.5], [139.701715890392, 35.692018792630115, 22.5], [139.7017476563006, 35.692072508996986, 22.5], [139.70177527390237, 35.692061606779866, 22.5], [139.70174350303904, 35.69200788358232, 22.5], [139.70170596384048, 35.69194275780205, 22.5], [139.7016790024187, 35.69189645166168, 22.5], [139.7016512907545, 35.69190723413555, 22.5], [139.70164266307742, 35.691884969748905, 22.5], [139.7018098445469, 35.6907870716533, 22.5], [139.70137673648844, 35.69074388433481, 22.5], [139.7011641554005, 35.69072268678321, 22.5], [139.7011639908656, 35.6907183660045, 22.5], [139.70110649910762, 35.69071263299514, 22.5], [139.70109711887696, 35.690967931026556, 22.5], [139.70133956363827, 35.69099210707929, 22.5], [139.70132572883074, 35.691085566104896, 22.5], [139.7013162889278, 35.691148567533176, 22.5], [139.70126402860237, 35.691497348429074, 22.5], [139.7012520672212, 35.69159729655476, 22.5], [139.7010833149475, 35.69158046900785, 22.5], [139.70107394304367, 35.69164301493229, 22.5], [139.70093134793066, 35.691630180335935, 22.5], [139.70094295998814, 35.69155241969789, 22.5], [139.70094418885472, 35.69154448396447, 22.5], [139.70090930932238, 35.691540983035864, 22.5], [139.70091117437264, 35.691528411360586, 22.5], [139.700769188367, 35.691514063419575, 22.5], [139.70076595556802, 35.691535602997675, 22.5], [139.70075115189144, 35.69160421813323, 22.5], [139.70078360068177, 35.691607453952784, 22.5], [139.700716853585, 35.69176772368487, 22.5], [139.70074701581458, 35.69177073148967, 22.5], [139.70069086044685, 35.69189209528686, 22.5], [139.70096135579297, 35.691919069065094, 22.5], [139.70094918021462, 35.69199717081077, 22.5], [139.70101557272062, 35.692003641596195, 22.5], [139.7010813832932, 35.692010200320674, 22.5], [139.70109334632824, 35.69193223093247, 22.5], [139.70117413774193, 35.6919399558723, 22.5], [139.70120573513555, 35.691942977070454, 22.5], [139.70121692261722, 35.69186831384395, 22.5], [139.70124086855623, 35.69187070165135, 22.5], [139.7012423804706, 35.6918600725341, 22.5], [139.70154843911027, 35.69188841878214, 22.5], [139.70156986178472, 35.69191321633923, 22.5], [139.70158790717664, 35.691941366927516, 22.5], [139.70159962654407, 35.691969929817, 22.5], [139.7016050684585, 35.69200057312173, 22.5], [139.7016039337852, 35.692031522490254, 22.5], [139.70159991249963, 35.692047437470734, 22.5], [139.70159259326334, 35.692062550279715, 22.5], [139.70158219454865, 35.69207640981068, 22.5], [139.7015709327573, 35.69208683752207, 22.5], [139.70155348291277, 35.69209876400553, 22.5], [139.70152953190617, 35.69210893285585, 22.5], [139.70144854061604, 35.692138973497755, 22.5], [139.70146305062687, 35.692162489533985, 22.5]]]}, "properties": {"id": "8106b6dacf714439ab183c23f2df9294", "category": "1", "name": "å°ä¸1é", "ordinal": -1.0, "short_name": "B1F", "source": "1", "__floor": "B1", "__z_abs": 22.5}}, {"type": "Feature", "geometry": {"type": "Polygon", "coordinates": [[[139.69934282098066, 35.69000590756301, 22.5], [139.69938638253174, 35.68970624268242, 22.5], [139.69944987138155, 35.68964973644038, 22.5], [139.6994552205924, 35.68961303624012, 22.5], [139.6994747258553, 35.689527547244424, 22.5], [139.699519059478, 35.68954540764459, 22.5], [139.6995452581281, 35.68943078359941, 22.5], [139.69951576066492, 35.68942793059335, 22.5], [139.69942503009378, 35.68941915505087, 22.5], [139.69943123350942, 35.689376469720145, 22.5], [139.69942399733355, 35.68937576982768, 22.5], [139.69942637310942, 35.689359422254185, 22.5], [139.69941357064732, 35.68935818398211, 22.5], [139.69940604734555, 35.68940995129703, 22.5], [139.69939101835925, 35.689408497670605, 22.5], [139.6993958359194, 35.68937534842579, 22.5], [139.69924888592016, 35.68936113509665, 22.5], [139.69924406830012, 35.68939428433552, 22.5], [139.69922458628866, 35.68939239997842, 22.5], [139.69924326282407, 35.68926388991623, 22.5], [139.6992621881767, 35.68926572043166, 22.5], [139.69925492876482, 35.68931567134107, 22.5], [139.69933285674452, 35.68932320873096, 22.5], [139.6993828444895, 35.689278311555654, 22.5], [139.69940510961817, 35.68928046507711, 22.5], [139.6994130948642, 35.689225519066206, 22.5], [139.69944259614167, 35.68922837247383, 22.5], [139.69946074434168, 35.68910349516792, 22.5], [139.6994434889037, 35.68910182619717, 22.5], [139.69944642129423, 35.6890855324603, 22.5], [139.69945588395174, 35.68908644770241, 22.5], [139.69946173769532, 35.68905155674968, 22.5], [139.6994643224636, 35.6890361503548, 22.5], [139.69945504637872, 35.68901453145578, 22.5], [139.69945586697835, 35.6890127688963, 22.5], [139.69944112163398, 35.68900679349426, 22.5], [139.6994481574702, 35.688995906340764, 22.5], [139.69929497650338, 35.688931358236374, 22.5], [139.6992888429618, 35.68894104562056, 22.5], [139.69923110519343, 35.68891643123063, 22.5], [139.6992287455784, 35.68892041818548, 22.5], [139.69922619022714, 35.688919179214565, 22.5], [139.69921833147424, 35.68891887957016, 22.5], [139.69921639761915, 35.68892053445035, 22.5], [139.6992147850801, 35.688927746198374, 22.5], [139.69908484132065, 35.68896352815327, 22.5], [139.69908642520912, 35.68895262977477, 22.5], [139.699071921628, 35.6889203745922, 22.5], [139.6990607891181, 35.688919297801235, 22.5], [139.69905953520419, 35.68892792568401, 22.5], [139.69906120508082, 35.68892808720273, 22.5], [139.69905948919845, 35.68893989377916, 22.5], [139.69904557355795, 35.68893854778884, 22.5], [139.69900551387047, 35.688919016600316, 22.5], [139.69890803234006, 35.688945044776844, 22.5], [139.69885686109643, 35.68884661719442, 22.5], [139.69879796947941, 35.68881843978524, 22.5], [139.69879837558767, 35.688817935933606, 22.5], [139.69878678981584, 35.68881221044618, 22.5], [139.69878553308723, 35.68881376964782, 22.5], [139.698768987684, 35.688806054817256, 22.5], [139.69876983579172, 35.68880458425177, 22.5], [139.69877287165352, 35.68878369570046, 22.5], [139.69873038256566, 35.688779585827774, 22.5], [139.69872786231883, 35.68879822183997, 22.5], [139.69872096742398, 35.68881459277076, 22.5], [139.69870908789798, 35.68889633057373, 22.5], [139.6987001818967, 35.688895469114215, 22.5], [139.69866771104282, 35.68911888576128, 22.5], [139.6986743831404, 35.689119531139916, 22.5], [139.69866406624948, 35.68918668464719, 22.5], [139.69865794335172, 35.68918609239152, 22.5], [139.69862408629433, 35.689419045090936, 22.5], [139.69863466223896, 35.689420068080786, 22.5], [139.69862489448263, 35.68948727470487, 22.5], [139.69861431852925, 35.68948625171413, 22.5], [139.69860824666696, 35.68952802880343, 22.5], [139.69860771867866, 35.68953166159378, 22.5], [139.69858707847968, 35.68953127313952, 22.5], [139.69858241418467, 35.68955850580967, 22.5], [139.69860369276603, 35.68955936162, 22.5], [139.69855010166128, 35.68992808981247, 22.5], [139.69855789451134, 35.689928843599375, 22.5], [139.69855703652217, 35.68993474688291, 22.5], [139.69856761253402, 35.68993576987874, 22.5], [139.69856794252956, 35.689933499385035, 22.5], [139.69857350885152, 35.68993403780349, 22.5], [139.69857489483195, 35.68992450172988, 22.5], [139.6986126107537, 35.689928149903594, 22.5], [139.69861274581888, 35.68992816296812, 22.5], [139.6986134830156, 35.68994250923807, 22.5], [139.6986374182046, 35.68994482442656, 22.5], [139.69863906817247, 35.6899334719571, 22.5], [139.69868638191573, 35.68993804847784, 22.5], [139.69868473195444, 35.68994940094796, 22.5], [139.69870477072075, 35.68995133923377, 22.5], [139.69870609068752, 35.68994225725745, 22.5], [139.69877121667747, 35.6899485566626, 22.5], [139.69876989671792, 35.68995763863962, 22.5], [139.69878102936804, 35.68995871545761, 22.5], [139.6987821513326, 35.68995099577703, 22.5], [139.6988261252994, 35.68995524919762, 22.5], [139.6988252673297, 35.68996115248308, 22.5], [139.69884363620466, 35.68996292922377, 22.5], [139.69884522014613, 35.68995203085034, 22.5], [139.69887806146565, 35.689955207439915, 22.5], [139.698876213539, 35.68996792220941, 22.5], [139.69888845945735, 35.689969106698335, 22.5], [139.69889090135774, 35.68995230503837, 22.5], [139.69891038349726, 35.6899541894496, 22.5], [139.6989079416009, 35.689970991109966, 22.5], [139.6989201875202, 35.68997217559566, 22.5], [139.6989197915373, 35.68997490018927, 22.5], [139.69893983031577, 35.68997683843596, 22.5], [139.6989506043291, 35.689976499101306, 22.5], [139.69906916712284, 35.68998796698212, 22.5], [139.69906896913395, 35.689989329279186, 22.5], [139.69908010179253, 35.689990406069505, 22.5], [139.69908036577758, 35.689988589673426, 22.5], [139.6991571811287, 35.689996019498594, 22.5], [139.69915691714542, 35.68999783589485, 22.5], [139.69916804980645, 35.68999891267707, 22.5], [139.6991694357173, 35.689989376596564, 22.5], [139.6991788984783, 35.68999029186053, 22.5], [139.6991777105557, 35.689998465643924, 22.5], [139.69918772995095, 35.689999434746234, 22.5], [139.69931997666896, 35.690012225916945, 22.5], [139.69934282098066, 35.69000590756301, 22.5]]]}, "properties": {"id": "95f39ee7e2fa43baa7070fec589cf643", "category": "1", "name": "å°ä¸1é", "ordinal": -1.0, "short_name": "B1F", "source": "2", "__floor": "B1", "__z_abs": 22.5}}, {"type": "Feature", "geometry": {"type": "Polygon", "coordinates": [[[139.6987514560816, 35.69208756169047, 22.5], [139.6987387625761, 35.69203288252316, 22.5], [139.6992721098443, 35.69197985830948, 22.5], [139.69925833243474, 35.6919188424057, 22.5], [139.6992229481101, 35.69191673201953, 22.5], [139.69915529028492, 35.69191269675302, 22.5], [139.69915773402647, 35.69188542950018, 22.5], [139.6992253918287, 35.69188946476509, 22.5], [139.69925205808, 35.69189105519035, 22.5], [139.6992371137219, 35.69182487108077, 22.5], [139.69922634810587, 35.691824228997916, 22.5], [139.69913984208347, 35.69181906957215, 22.5], [139.69914231380733, 35.69179149011909, 22.5], [139.69922881980006, 35.69179664954327, 22.5], [139.69923076754287, 35.691796765710635, 22.5], [139.69921735645835, 35.6917373718752, 22.5], [139.69921750437697, 35.69173572138192, 22.5], [139.69895248306685, 35.691719914642526, 22.5], [139.69889699514465, 35.69171660508636, 22.5], [139.6987382227992, 35.69170713502677, 22.5], [139.6986827348951, 35.69170382537204, 22.5], [139.69859703081465, 35.69169871337959, 22.5], [139.69845968455513, 35.691690520956676, 22.5], [139.6983827706623, 35.69168593313145, 22.5], [139.69819114094605, 35.69167450242332, 22.5], [139.69818575365446, 35.6917346057961, 22.5], [139.69819906715782, 35.69173536323501, 22.5], [139.69820322958867, 35.69173560004645, 22.5], [139.69821345475702, 35.691736181782176, 22.5], [139.698251563854, 35.691738349901755, 22.5], [139.69824909927797, 35.691764050149516, 22.5], [139.6982112567032, 35.691761893327445, 22.5], [139.69818344981854, 35.69176030853503, 22.5], [139.69817737823587, 35.69182804605411, 22.5], [139.69819073956285, 35.69182886906634, 22.5], [139.69824257713185, 35.69183206207611, 22.5], [139.69824025031107, 35.691856325774545, 22.5], [139.69822489643502, 35.691855380033296, 22.5], [139.6982222346652, 35.69188413801486, 22.5], [139.69817261578146, 35.691881178219816, 22.5], [139.69816471410994, 35.691969332795736, 22.5], [139.6986563098577, 35.69199865585471, 22.5], [139.6986849785507, 35.69204324049769, 22.5], [139.69869721292116, 35.69209594172507, 22.5], [139.6987514560816, 35.69208756169047, 22.5]]]}, "properties": {"id": "270c8c229e9c4cb8ae85892d60d58994", "category": "1", "name": "å°ä¸1é", "ordinal": -1.0, "short_name": "B1F", "source": "1", "__floor": "B1", "__z_abs": 22.5}}, {"type": "Feature", "geometry": {"type": "Polygon", "coordinates": [[[139.69946173769532, 35.68905155674968, 22.5], [139.69945588395174, 35.68908644770241, 22.5], [139.69944642129423, 35.6890855324603, 22.5], [139.6994434889037, 35.68910182619717, 22.5], [139.69946074434168, 35.68910349516792, 22.5], [139.69944259614167, 35.68922837247383, 22.5], [139.6994620781185, 35.689230256795675, 22.5], [139.6994506053673, 35.689309271050774, 22.5], [139.69944669884757, 35.689308893207425, 22.5], [139.69943950554034, 35.689358390028545, 22.5], [139.69942725970702, 35.689357205595755, 22.5], [139.69942670307822, 35.689357151757854, 22.5], [139.69942399733355, 35.68937576982768, 22.5], [139.69943123350942, 35.689376469720145, 22.5], [139.69942503009378, 35.68941915505087, 22.5], [139.69951576066492, 35.68942793059335, 22.5], [139.69952188187352, 35.6893858105964, 22.5], [139.69948239435726, 35.6893817600686, 22.5], [139.6994899006293, 35.689330109572055, 22.5], [139.6995717250468, 35.68933802367045, 22.5], [139.69959895806042, 35.68915063199999, 22.5], [139.69951417471313, 35.68914365966442, 22.5], [139.69951536258847, 35.68913548587645, 22.5], [139.69952072732406, 35.68913600475819, 22.5], [139.69953191237872, 35.689064330392576, 22.5], [139.6995247422231, 35.689063176406854, 22.5], [139.69952562927438, 35.68905819689859, 22.5], [139.69946173769532, 35.68905155674968, 22.5]]]}, "properties": {"id": "b63aa292a5d143c4b35a32ba93ed386b", "category": "1", "name": "å°ä¸1é", "ordinal": -1.0, "short_name": "B1F", "source": "2", "__floor": "B1", "__z_abs": 22.5}}, {"type": "Feature", "geometry": {"type": "Polygon", "coordinates": [[[139.69961408525543, 35.68883323743848, 22.5], [139.69956814119706, 35.68882353015962, 22.5], [139.69955870268976, 35.68885420230411, 22.5], [139.69960479008677, 35.688864134159985, 22.5], [139.69961408525543, 35.68883323743848, 22.5]]]}, "properties": {"id": "f29b9337494a4e9db3d9a0df535e74f4", "category": "1", "name": "å°ä¸1é", "ordinal": -1.0, "short_name": "B1F", "source": "2", "__floor": "B1", "__z_abs": 22.5}}, {"type": "Feature", "geometry": {"type": "Polygon", "coordinates": [[[139.69917903825004, 35.690560382512096, 22.5], [139.69919516332746, 35.69056194216062, 22.5], [139.69919555930397, 35.69055921756638, 22.5], [139.69920557876952, 35.69056018666726, 22.5], [139.69920623872972, 35.69055564567678, 22.5], [139.69923357993713, 35.69055782968132, 22.5], [139.69924049144362, 35.69055838176864, 22.5], [139.69927748357023, 35.69026618860123, 22.5], [139.6992358340814, 35.6902608250785, 22.5], [139.69913573179224, 35.6902329352067, 22.5], [139.69914091949138, 35.690220543469, 22.5], [139.69913930387847, 35.69020749369637, 22.5], [139.69911232753415, 35.690204884467, 22.5], [139.69910656054915, 35.69020432666687, 22.5], [139.699103528143, 35.690230280859105, 22.5], [139.69901585736687, 35.69022272200842, 22.5], [139.6990151973987, 35.6902272629981, 22.5], [139.69899637739337, 35.69022544265465, 22.5], [139.69899045541294, 35.69027322051355, 22.5], [139.69898236119846, 35.69027842388082, 22.5], [139.6989002160835, 35.69027150372929, 22.5], [139.69886848354358, 35.690529884147146, 22.5], [139.6988997211888, 35.69053244511074, 22.5], [139.6988995231956, 35.69053380740736, 22.5], [139.6990054906685, 35.69054261613332, 22.5], [139.69900304025794, 35.690559476387385, 22.5], [139.69907324250246, 35.69056580608924, 22.5], [139.69907264853146, 35.690569892979994, 22.5], [139.6990965839214, 35.690572208077384, 22.5], [139.6990973098845, 35.69056721298853, 22.5], [139.6991597192248, 35.69057278888791, 22.5], [139.69917753161045, 35.69057451173867, 22.5], [139.69917903825004, 35.690560382512096, 22.5]]]}, "properties": {"id": "9112809e917e49b983b2f50985f954da", "category": "1", "name": "å°ä¸1é", "ordinal": -1.0, "short_name": "B1F", "source": "2", "__floor": "B1", "__z_abs": 22.5}}, {"type": "Feature", "geometry": {"type": "Polygon", "coordinates": [[[139.6982164721437, 35.69220594805108, 22.5], [139.69815052711272, 35.69212760877559, 22.5], [139.698214783303, 35.69213144169088, 22.5], [139.6982233824325, 35.692035505480476, 22.5], [139.69815913335094, 35.69203159411893, 22.5], [139.69816471410994, 35.691969332795736, 22.5], [139.69817261578146, 35.691881178219816, 22.5], [139.6982222346652, 35.69188413801486, 22.5], [139.69822489643502, 35.691855380033296, 22.5], [139.69824025031107, 35.691856325774545, 22.5], [139.69824257713185, 35.69183206207611, 22.5], [139.69819073956262, 35.691828869065084, 22.5], [139.69817737823587, 35.69182804605411, 22.5], [139.69818344981854, 35.69176030853503, 22.5], [139.6982112567032, 35.691761893327445, 22.5], [139.69824909927797, 35.691764050149516, 22.5], [139.698251563854, 35.691738349901755, 22.5], [139.69821345475702, 35.69173618178309, 22.5], [139.69820322958867, 35.69173560004645, 22.5], [139.69819906715782, 35.69173536323466, 22.5], [139.69818575365446, 35.6917346057961, 22.5], [139.69819114094605, 35.69167450242332, 22.5], [139.6983827706623, 35.69168593313145, 22.5], [139.69845968455513, 35.691690520956676, 22.5], [139.69859703081465, 35.69169871337959, 22.5], [139.6986827348951, 35.69170382537204, 22.5], [139.6987382227992, 35.69170713502677, 22.5], [139.69889699514465, 35.69171660508636, 22.5], [139.69895248306685, 35.691719914642526, 22.5], [139.69921750437697, 35.69173572138192, 22.5], [139.69921735645835, 35.6917373718752, 22.5], [139.69923076754287, 35.691796765710635, 22.5], [139.69922881980006, 35.69179664954327, 22.5], [139.69914231380733, 35.69179149011909, 22.5], [139.69913984208347, 35.69181906957215, 22.5], [139.69922634810587, 35.691824228997916, 22.5], [139.6992371137219, 35.69182487108077, 22.5], [139.69925205808, 35.69189105519035, 22.5], [139.6992253918287, 35.69188946476509, 22.5], [139.69915773402647, 35.69188542950018, 22.5], [139.69915529028492, 35.69191269675302, 22.5], [139.6992229481101, 35.69191673201953, 22.5], [139.69925833243474, 35.6919188424057, 22.5], [139.6992721098443, 35.69197985830948, 22.5], [139.69928451383078, 35.691977938428174, 22.5], [139.6992974423456, 35.692031313406915, 22.5], [139.6993539934267, 35.69202217644709, 22.5], [139.69934776354205, 35.691994586364224, 22.5], [139.69938541649776, 35.69198892830224, 22.5], [139.6994393391791, 35.691980825387304, 22.5], [139.6994335850984, 35.69195534259272, 22.5], [139.69944225292477, 35.69195404008371, 22.5], [139.69947854944712, 35.69194858582074, 22.5], [139.69946518745473, 35.69188941035298, 22.5], [139.69947277840754, 35.691888269663465, 22.5], [139.69951219319046, 35.69188234680325, 22.5], [139.69950538312605, 35.69185364166333, 22.5], [139.69946599741525, 35.691859860193, 22.5], [139.69944120575371, 35.69175599360192, 22.5], [139.69941385392497, 35.69164140065276, 22.5], [139.6992788535273, 35.69103461190712, 22.5], [139.69927247872775, 35.69103588873962, 22.5], [139.6992542588971, 35.691017549143794, 22.5], [139.69913714648237, 35.69099609126658, 22.5], [139.69913962569353, 35.69097514887437, 22.5], [139.69915075849033, 35.69097622565823, 22.5], [139.6991540956535, 35.69094937997892, 22.5], [139.69916035641097, 35.69095055626855, 22.5], [139.6991730605639, 35.690908767672504, 22.5], [139.69916236523216, 35.69090413159681, 22.5], [139.69915733043308, 35.69090364462226, 22.5], [139.69915687018772, 35.69090489737236, 22.5], [139.69915576128346, 35.690906203620955, 22.5], [139.6991541905478, 35.69090714313767, 22.5], [139.6991523299697, 35.690907613049426, 22.5], [139.6991503832745, 35.690907561903146, 22.5], [139.69914853489638, 35.690907156103485, 22.5], [139.69897116876427, 35.69083314359449, 22.5], [139.69896939517002, 35.69083492334721, 22.5], [139.69896667253738, 35.6908368960469, 22.5], [139.6989635900735, 35.69083851559349, 22.5], [139.69896021594104, 35.6908397352783, 22.5], [139.69895670011988, 35.69084051075792, 22.5], [139.69895305583464, 35.69084083911553, 22.5], [139.6989327475651, 35.6908394979489, 22.5], [139.69883369641377, 35.690804190313656, 22.5], [139.69882295233833, 35.69080357196332, 22.5], [139.6988242049175, 35.690780035305686, 22.5], [139.69878814042934, 35.6907772202768, 22.5], [139.69879838262955, 35.69069762651446, 22.5], [139.6988212380063, 35.69069983719942, 22.5], [139.69882289207897, 35.69068434078424, 22.5], [139.69880000394028, 35.69068258741294, 22.5], [139.69878885993808, 35.69066216924249, 22.5], [139.69879723737267, 35.69059763301829, 22.5], [139.6988133156525, 35.69057934545855, 22.5], [139.698850106044, 35.690582546443466, 22.5], [139.6988569407971, 35.69053163642058, 22.5], [139.69881959418012, 35.690528378708116, 22.5], [139.6988084501943, 35.690507960539094, 22.5], [139.6988176909972, 35.690438460721104, 22.5], [139.6988258433605, 35.690429125761455, 22.5], [139.6988177073314, 35.690428731978834, 22.5], [139.69881810889956, 35.690425539857586, 22.5], [139.6987874883531, 35.690423046143046, 22.5], [139.69878722435988, 35.6904248625384, 22.5], [139.69871962002367, 35.69042254636752, 22.5], [139.69865337496674, 35.69042014994561, 22.5], [139.69820309968156, 35.690403693411895, 22.5], [139.69821189810386, 35.690247184472184, 22.5], [139.69821982937924, 35.69021203400512, 22.5], [139.69821987810315, 35.6902110889984, 22.5], [139.69822264057314, 35.690157510341685, 22.5], [139.69822275978913, 35.69015519812528, 22.5], [139.69822455383814, 35.69012040214392, 22.5], [139.69822491578748, 35.690113382053084, 22.5], [139.6981722583979, 35.690111512718545, 22.5], [139.69816154232603, 35.690310377616065, 22.5], [139.69815616394578, 35.690414141952935, 22.5], [139.6981234759577, 35.69098369262679, 22.5], [139.69803850400262, 35.69103625696931, 22.5], [139.6974753105195, 35.69101585308521, 22.5], [139.6965428385463, 35.69098206483, 22.5], [139.69653782162038, 35.69107419736644, 22.5], [139.69741113704924, 35.69110584229298, 22.5], [139.69794258029583, 35.69112509623455, 22.5], [139.6979754817031, 35.69112666171026, 22.5], [139.69799771630895, 35.691126643485006, 22.5], [139.69801097218908, 35.69112607949739, 22.5], [139.69803559574677, 35.691123791750556, 22.5], [139.69804699254144, 35.69112229771844, 22.5], [139.69805778414457, 35.69112060853205, 22.5], [139.69807283685464, 35.69111770885222, 22.5], [139.69810391777185, 35.69110910401684, 22.5], [139.69813662211766, 35.691097366984316, 22.5], [139.69815767566183, 35.69108879058734, 22.5], [139.69820137998715, 35.691067408583585, 22.5], [139.69823269089432, 35.691048339546896, 22.5], [139.69827933615807, 35.691015799823326, 22.5], [139.69833103350868, 35.69098731421672, 22.5], [139.69838169848276, 35.69096523013588, 22.5], [139.69841212191477, 35.69095618490745, 22.5], [139.6984589550798, 35.69095072490841, 22.5], [139.69851941765273, 35.69095016288366, 22.5], [139.69855609585738, 35.69095112615916, 22.5], [139.69858837072695, 35.690952944013134, 22.5], [139.69868142724226, 35.690960002542, 22.5], [139.69869522483611, 35.69096105081547, 22.5], [139.69871453770122, 35.69096361198097, 22.5], [139.698735149172, 35.69096756528159, 22.5], [139.69877087812972, 35.69097648539479, 22.5], [139.6988202227642, 35.69099048710905, 22.5], [139.69885597910252, 35.69100265340193, 22.5], [139.69887044612688, 35.69100873521574, 22.5], [139.69888640059332, 35.6910171500396, 22.5], [139.69889880189638, 35.69102634575012, 22.5], [139.6989119348981, 35.691040892620485, 22.5], [139.69891923301418, 35.69105351721146, 22.5], [139.6989252907265, 35.69107402145897, 22.5], [139.6989269182128, 35.691099909121135, 22.5], [139.69889869670783, 35.69141505892782, 22.5], [139.6988903564876, 35.69145509506705, 22.5], [139.69886411825178, 35.691500605739634, 22.5], [139.69882705674127, 35.69153030512995, 22.5], [139.698802839201, 35.6915432445885, 22.5], [139.69877302129976, 35.69155304813011, 22.5], [139.69873207737933, 35.691555625545384, 22.5], [139.69869670017954, 35.69155521097337, 22.5], [139.69840683250902, 35.69153717451036, 22.5], [139.69837569997196, 35.691530657708874, 22.5], [139.69835191914083, 35.69151616202475, 22.5], [139.69815708803128, 35.69134345469899, 22.5], [139.6980960920597, 35.691300918479094, 22.5], [139.69803132484654, 35.691276704800764, 22.5], [139.697999986043, 35.69127152828804, 22.5], [139.6979740515726, 35.69126885973748, 22.5], [139.6978298207922, 35.69125885191447, 22.5], [139.6972651006954, 35.691238391792524, 22.5], [139.69653033048735, 35.691211766679544, 22.5], [139.6965251166971, 35.69130751392508, 22.5], [139.69798874787148, 35.69136054557896, 22.5], [139.69798810510872, 35.69136771640132, 22.5], [139.69798511005524, 35.691369858211594, 22.5], [139.69805168241567, 35.6914318116307, 22.5], [139.69804058822217, 35.691555581986435, 22.5], [139.6980584369179, 35.691556646697784, 22.5], [139.69805779415972, 35.69156381752014, 22.5], [139.69804956658572, 35.69156332672889, 22.5], [139.69804482623408, 35.69161621154313, 22.5], [139.69805306699845, 35.69161670312127, 22.5], [139.69805242423934, 35.69162387394363, 22.5], [139.69803456234342, 35.69162280844482, 22.5], [139.6980291792164, 35.69168286408012, 22.5], [139.6980492254794, 35.69168405988074, 22.5], [139.6980166855966, 35.692047082737645, 22.5], [139.6979493575608, 35.69204306646889, 22.5], [139.6979348951595, 35.692204409942626, 22.5], [139.69817426689747, 35.69221868883323, 22.5], [139.69818071931138, 35.69221507420336, 22.5], [139.69818695593506, 35.692222482983645, 22.5], [139.6982164721437, 35.69220594805108, 22.5]]]}, "properties": {"id": "859bb5624f764227bb929811b38d93fb", "category": "1", "name": "å°ä¸1é", "ordinal": -1.0, "short_name": "B1F", "source": "2", "__floor": "B1", "__z_abs": 22.5}}, {"type": "Feature", "geometry": {"type": "Polygon", "coordinates": [[[139.69960016858434, 35.68869563916576, 22.5], [139.6996487366325, 35.688706162319725, 22.5], [139.69963126209862, 35.6886797667768, 22.5], [139.69963367669868, 35.6886736344554, 22.5], [139.69972802291235, 35.688713070556865, 22.5], [139.69981723749427, 35.68849145826253, 22.5], [139.69974623362822, 35.68847123682875, 22.5], [139.69974800678582, 35.68846680350643, 22.5], [139.69971758763668, 35.688435311476134, 22.5], [139.6996756515824, 35.6884248086626, 22.5], [139.6996691528631, 35.68843845505236, 22.5], [139.6996186408137, 35.688424820333175, 22.5], [139.6995691922042, 35.6885466051498, 22.5], [139.69958451161193, 35.68855091483517, 22.5], [139.69956059558936, 35.688609867930154, 22.5], [139.69959609443995, 35.68861880506136, 22.5], [139.69960867790482, 35.68858798940284, 22.5], [139.69962752650144, 35.688592834811686, 22.5], [139.69959435561165, 35.68868126246406, 22.5], [139.69960016858434, 35.68869563916576, 22.5]]]}, "properties": {"id": "6fff52a7e8ee416ab9fb0584b843b839", "category": "1", "name": "å°ä¸1é", "ordinal": -1.0, "short_name": "B1F", "source": "2", "__floor": "B1", "__z_abs": 22.5}}, {"type": "Feature", "geometry": {"type": "Polygon", "coordinates": [[[139.6994620781185, 35.689230256795675, 22.5], [139.6994130948642, 35.689225519066206, 22.5], [139.69940510961817, 35.68928046507711, 22.5], [139.6993828444895, 35.689278311555654, 22.5], [139.69933285674452, 35.68932320873096, 22.5], [139.69925492876482, 35.68931567134107, 22.5], [139.6992621881767, 35.68926572043166, 22.5], [139.69924326282407, 35.68926388991623, 22.5], [139.69922458628866, 35.68939239997842, 22.5], [139.69924406830012, 35.68939428433552, 22.5], [139.69924888592016, 35.68936113509665, 22.5], [139.6993958359194, 35.68937534842579, 22.5], [139.69939101835925, 35.689408497670605, 22.5], [139.69940604734555, 35.68940995129703, 22.5], [139.69941357064732, 35.68935818398211, 22.5], [139.69942637310942, 35.689359422254185, 22.5], [139.69942670307822, 35.689357151757854, 22.5], [139.69943950554034, 35.689358390028545, 22.5], [139.69944669884757, 35.689308893207425, 22.5], [139.6994506053673, 35.689309271050774, 22.5], [139.6994620781185, 35.689230256795675, 22.5]]]}, "properties": {"id": "e2b5ff29baf04ae3ba6275b3f48d994c", "category": "1", "name": "å°ä¸1é", "ordinal": -1.0, "short_name": "B1F", "source": "2", "__floor": "B1", "__z_abs": 22.5}}, {"type": "Feature", "geometry": {"type": "Polygon", "coordinates": [[[139.69976426423347, 35.69039202202179, 22.5], [139.69977504362174, 35.69031731841379, 22.5], [139.69982328248287, 35.69032241106627, 22.5], [139.69982789929333, 35.69029277007003, 22.5], [139.69982065895343, 35.690292047988194, 22.5], [139.69982935236882, 35.69023255073456, 22.5], [139.69976849864082, 35.69022643498299, 22.5], [139.69977699371913, 35.69017102781327, 22.5], [139.69976177108927, 35.69016950964529, 22.5], [139.69976303435178, 35.69016107999948, 22.5], [139.6997434444532, 35.690159125232256, 22.5], [139.69975082010072, 35.69011308199331, 22.5], [139.69978634385456, 35.68990749419209, 22.5], [139.69989402341054, 35.6899039285346, 22.5], [139.6998978032477, 35.68988211006413, 22.5], [139.69983681954878, 35.689877618456805, 22.5], [139.69985213769215, 35.68970248224166, 22.5], [139.69949754870353, 35.689639521095394, 22.5], [139.69942436817115, 35.68995969718672, 22.5], [139.6994264809722, 35.69000220247176, 22.5], [139.69940993546237, 35.69013282400939, 22.5], [139.6994817692654, 35.690138053553326, 22.5], [139.69944934698145, 35.69037487459468, 22.5], [139.6994989497924, 35.69041361700362, 22.5], [139.69949393255698, 35.690448141671396, 22.5], [139.69965622473603, 35.69046394272195, 22.5], [139.69965999211038, 35.690438802777024, 22.5], [139.699755855344, 35.6904478789381, 22.5], [139.69976426423347, 35.69039202202179, 22.5]]]}, "properties": {"id": "535413561a504a2181b3735cbdc3ee83", "category": "1", "name": "å°ä¸1é", "ordinal": -1.0, "short_name": "B1F", "source": "1", "__floor": "B1", "__z_abs": 22.5}}, {"type": "Feature", "geometry": {"type": "Polygon", "coordinates": [[[139.69896491612275, 35.68839687941523, 22.5], [139.69890572830835, 35.688378901810545, 22.5], [139.69886878306824, 35.68839081851942, 22.5], [139.69881124900232, 35.6883720524786, 22.5], [139.6988146672828, 35.68836552294419, 22.5], [139.69882476380658, 35.68834623674969, 22.5], [139.69886149431622, 35.688360335206504, 22.5], [139.6988876964866, 35.688317659995015, 22.5], [139.69884777983654, 35.688302271913216, 22.5], [139.69886325774232, 35.68827270624595, 22.5], [139.69876477864184, 35.68823388990852, 22.5], [139.69872264404196, 35.68830511201208, 22.5], [139.69879786836606, 35.68833500321553, 22.5], [139.698763072844, 35.68839783815841, 22.5], [139.69879343869033, 35.68840607337877, 22.5], [139.69886210424494, 35.688424695449086, 22.5], [139.69893902687127, 35.68844845563027, 22.5], [139.69896491612275, 35.68839687941523, 22.5]]]}, "properties": {"id": "3d4d948dfd0f4928859abffce2a3b20f", "category": "1", "name": "å°ä¸1é", "ordinal": -1.0, "short_name": "B1F", "source": "2", "__floor": "B1", "__z_abs": 22.5}}, {"type": "Feature", "geometry": {"type": "Polygon", "coordinates": [[[139.69954376297076, 35.691649429435635, 22.5], [139.69954156344988, 35.69164021804679, 22.5], [139.699556819526, 35.69163774311148, 22.5], [139.69955933844412, 35.69164855082411, 22.5], [139.69962408917468, 35.691638156575735, 22.5], [139.6996214846099, 35.69162743793246, 22.5], [139.69963655527792, 35.69162494418395, 22.5], [139.69963925800724, 35.6916357625204, 22.5], [139.69970473446816, 35.691625136961704, 22.5], [139.6997022883895, 35.69161505554271, 22.5], [139.6997158058173, 35.691612868302684, 22.5], [139.69971674585648, 35.691616651084935, 22.5], [139.69973014554023, 35.69161399099122, 22.5], [139.69971165615203, 35.691418011968246, 22.5], [139.6997014273874, 35.69121594011861, 22.5], [139.6996639025986, 35.69109291923082, 22.5], [139.69965458854142, 35.69105448518922, 22.5], [139.69966947322865, 35.69105197321168, 22.5], [139.69966180544714, 35.691020159201486, 22.5], [139.69964694346, 35.691022519738254, 22.5], [139.69963541864112, 35.690974950113166, 22.5], [139.69964579701457, 35.690949700817846, 22.5], [139.69970169162107, 35.6905674617253, 22.5], [139.6997829741479, 35.690574957833306, 22.5], [139.69981098563784, 35.69039683543326, 22.5], [139.69976426423347, 35.69039202202179, 22.5], [139.699755855344, 35.6904478789381, 22.5], [139.69965999211038, 35.690438802777024, 22.5], [139.69965622473603, 35.69046394272195, 22.5], [139.69949393255698, 35.690448141671396, 22.5], [139.6994896954562, 35.690477298042225, 22.5], [139.69945683767506, 35.69047811722374, 22.5], [139.69941511446913, 35.69080793133915, 22.5], [139.6994027245466, 35.69080692237829, 22.5], [139.6993253696906, 35.69080043706223, 22.5], [139.69931785011065, 35.690859307571195, 22.5], [139.69934958091778, 35.69086216594263, 22.5], [139.699347740723, 35.69087923644279, 22.5], [139.6993935744934, 35.69089011623535, 22.5], [139.69939646964312, 35.69087796323493, 22.5], [139.69940186257517, 35.69083676374551, 22.5], [139.69943927937715, 35.69083973941741, 22.5], [139.699416836339, 35.691018191610056, 22.5], [139.69937048109253, 35.691026703994275, 22.5], [139.69936528290245, 35.69100710524319, 22.5], [139.6993669327896, 35.69099575276558, 22.5], [139.69934571447, 35.690994161012284, 22.5], [139.69931081273046, 35.69095855155345, 22.5], [139.69927107872792, 35.69099891475221, 22.5], [139.69927088073985, 35.691000277049355, 22.5], [139.6992788535273, 35.69103461190706, 22.5], [139.69941717967686, 35.69165548088178, 22.5], [139.6994615575092, 35.69164853210553, 22.5], [139.6994648759738, 35.691662850679975, 22.5], [139.69954376297076, 35.691649429435635, 22.5]]]}, "properties": {"id": "be0c630c1b924aaf83bf482c184cbf42", "category": "1", "name": "å°ä¸1é", "ordinal": -1.0, "short_name": "B1F", "source": "1", "__floor": "B1", "__z_abs": 22.5}}, {"type": "Feature", "geometry": {"type": "Polygon", "coordinates": [[[139.69910656054915, 35.69020432666687, 22.5], [139.69911232753415, 35.690204884467, 22.5], [139.69911339981508, 35.69019628506428, 22.5], [139.69911680955346, 35.69016893987343, 22.5], [139.6991435939922, 35.690171070058916, 22.5], [139.6991468391356, 35.69016816056156, 22.5], [139.69919417633506, 35.690122086078254, 22.5], [139.69920268034693, 35.69012821454408, 22.5], [139.69921360561048, 35.69011797905234, 22.5], [139.69925014103833, 35.690121512834786, 22.5], [139.69924697325823, 35.69014330959185, 22.5], [139.69925089836784, 35.69014737309441, 22.5], [139.69926195765078, 35.690148442768546, 22.5], [139.69927391636136, 35.69006118683468, 22.5], [139.6992591164059, 35.69005975535552, 22.5], [139.69924371701782, 35.6900439909443, 22.5], [139.69923611375538, 35.69004325554078, 22.5], [139.6991821203178, 35.690038033167916, 22.5], [139.69918772995095, 35.689999434746234, 22.5], [139.6991777105557, 35.689998465643924, 22.5], [139.6991788984783, 35.68999029186053, 22.5], [139.6991694357173, 35.689989376596564, 22.5], [139.69916804980645, 35.68999891267707, 22.5], [139.69915691714542, 35.68999783589485, 22.5], [139.6991571811287, 35.689996019498594, 22.5], [139.69908036577758, 35.689988589673426, 22.5], [139.69908010179253, 35.689990406069505, 22.5], [139.69906896913395, 35.689989329279186, 22.5], [139.69906916712284, 35.68998796698212, 22.5], [139.6989506043291, 35.689976499101306, 22.5], [139.69893983031577, 35.68997683843596, 22.5], [139.6989197915373, 35.68997490018927, 22.5], [139.6989201875202, 35.68997217559566, 22.5], [139.6989079416009, 35.689970991109966, 22.5], [139.69891038349726, 35.6899541894496, 22.5], [139.69889090135774, 35.68995230503837, 22.5], [139.69888845945735, 35.689969106698335, 22.5], [139.698876213539, 35.68996792220941, 22.5], [139.69887806146565, 35.689955207439915, 22.5], [139.69884522014613, 35.68995203085034, 22.5], [139.69884363620466, 35.68996292922377, 22.5], [139.6988252673297, 35.68996115248308, 22.5], [139.6988261252994, 35.68995524919762, 22.5], [139.6987821513326, 35.68995099577703, 22.5], [139.69878102936804, 35.68995871545761, 22.5], [139.69876989671792, 35.68995763863962, 22.5], [139.69877121667747, 35.6899485566626, 22.5], [139.69870609068752, 35.68994225725745, 22.5], [139.69870477072075, 35.68995133923377, 22.5], [139.69868473195444, 35.68994940094796, 22.5], [139.69868638191573, 35.68993804847784, 22.5], [139.69863906817247, 35.6899334719571, 22.5], [139.6986374182046, 35.68994482442656, 22.5], [139.6986134830156, 35.68994250923807, 22.5], [139.69861274581888, 35.68992816296812, 22.5], [139.69857489483195, 35.68992450172988, 22.5], [139.69857350885152, 35.68993403780349, 22.5], [139.69856794252956, 35.689933499385035, 22.5], [139.69856761253402, 35.68993576987874, 22.5], [139.69855703652217, 35.68993474688291, 22.5], [139.69849854351003, 35.6899255306816, 22.5], [139.69849142232613, 35.689974526789214, 22.5], [139.69854997460658, 35.689983335446975, 22.5], [139.69854898461773, 35.689990146927826, 22.5], [139.69855956063674, 35.68999116992437, 22.5], [139.6985586366478, 35.68999752730657, 22.5], [139.69859092134166, 35.69000065013255, 22.5], [139.69859184532805, 35.6899942927501, 22.5], [139.6987060398014, 35.69000718038425, 22.5], [139.6987720167012, 35.690011720159234, 22.5], [139.69883895617969, 35.69001843293564, 22.5], [139.69886903100414, 35.69002143515868, 22.5], [139.69893243864286, 35.6900276975173, 22.5], [139.69894586383444, 35.690028535581796, 22.5], [139.6990605302716, 35.69003962659034, 22.5], [139.6990588803612, 35.690050979065504, 22.5], [139.6990499742278, 35.69005011763173, 22.5], [139.69904746636118, 35.69006737339371, 22.5], [139.6990167705576, 35.69006440437822, 22.5], [139.69900026897668, 35.69019404577558, 22.5], [139.69899637739337, 35.69022544265465, 22.5], [139.6990151973987, 35.6902272629981, 22.5], [139.69901585736687, 35.69022272200842, 22.5], [139.699103528143, 35.690230280859105, 22.5], [139.69910656054915, 35.69020432666687, 22.5]]]}, "properties": {"id": "4ae4ee5e2c954015b8ac9e819c3c9be3", "category": "1", "name": "å°ä¸1é", "ordinal": -1.0, "short_name": "B1F", "source": "2", "__floor": "B1", "__z_abs": 22.5}}, {"type": "Feature", "geometry": {"type": "Polygon", "coordinates": [[[139.6992788535273, 35.69103461190706, 22.5], [139.69927088073985, 35.691000277049355, 22.5], [139.69927107872792, 35.69099891475221, 22.5], [139.69926663674013, 35.69099848511998, 22.5], [139.69927226734413, 35.690951770487324, 22.5], [139.69917306056385, 35.69090876767243, 22.5], [139.699160356411, 35.6909505562686, 22.5], [139.69915409565354, 35.690949379978775, 22.5], [139.69915075849016, 35.69097622565822, 22.5], [139.6991396256936, 35.69097514887428, 22.5], [139.69913714648243, 35.69099609126649, 22.5], [139.69925425889716, 35.69101754914387, 22.5], [139.69927247872775, 35.691035888739556, 22.5], [139.6992788535273, 35.69103461190706, 22.5]]]}, "properties": {"id": "8c421e25ec5f4e16aa2d8822b087682b", "category": "1", "name": "å°ä¸1é", "ordinal": -1.0, "short_name": "B1F", "source": "2", "__floor": "B1", "__z_abs": 22.5}}, {"type": "Feature", "geometry": {"type": "Polygon", "coordinates": [[[139.699416836339, 35.691018191610056, 22.5], [139.69943927937715, 35.69083973941741, 22.5], [139.69940186257517, 35.69083676374551, 22.5], [139.69939646964312, 35.69087796323493, 22.5], [139.6993935744934, 35.69089011623535, 22.5], [139.699347740723, 35.69087923644279, 22.5], [139.69934958091778, 35.69086216594263, 22.5], [139.69931785011065, 35.690859307571195, 22.5], [139.6993199947815, 35.69088760441986, 22.5], [139.69931081273046, 35.69095855155345, 22.5], [139.69934571447, 35.690994161012284, 22.5], [139.6993669327896, 35.69099575276558, 22.5], [139.69936528290245, 35.69100710524319, 22.5], [139.69937048109253, 35.691026703994275, 22.5], [139.699416836339, 35.691018191610056, 22.5]]]}, "properties": {"id": "f44bc2fcc9c249d5aa5e6f036fe4f706", "category": "1", "name": "å°ä¸1é", "ordinal": -1.0, "short_name": "B1F", "source": "1", "__floor": "B1", "__z_abs": 22.5}}, {"type": "Feature", "geometry": {"type": "Polygon", "coordinates": [[[139.6993253696906, 35.69080043706223, 22.5], [139.69940993546237, 35.69013282400939, 22.5], [139.6994264809722, 35.69000220247176, 22.5], [139.69942436817115, 35.68995969718672, 22.5], [139.69949754870353, 35.689639521095394, 22.5], [139.699519059478, 35.68954540764459, 22.5], [139.6994747258553, 35.689527547244424, 22.5], [139.6994552205924, 35.68961303624012, 22.5], [139.69944987138155, 35.68964973644038, 22.5], [139.69938638253174, 35.68970624268242, 22.5], [139.69934282098066, 35.69000590756301, 22.5], [139.69931997666896, 35.690012225916945, 22.5], [139.69918772995095, 35.689999434746234, 22.5], [139.6991821203178, 35.690038033167916, 22.5], [139.69923611375538, 35.69004325554078, 22.5], [139.69924371701782, 35.6900439909443, 22.5], [139.6992591164059, 35.69005975535552, 22.5], [139.69927391636136, 35.69006118683468, 22.5], [139.69926195765078, 35.690148442768546, 22.5], [139.69925715163592, 35.69018387070442, 22.5], [139.6992881836761, 35.690186484668004, 22.5], [139.69927748357023, 35.69026618860123, 22.5], [139.69924049144362, 35.69055838176864, 22.5], [139.69922707077745, 35.69066448857622, 22.5], [139.69920337981475, 35.690662492983826, 22.5], [139.69919800286038, 35.6907049747349, 22.5], [139.6991924567684, 35.690748792744735, 22.5], [139.69917108605011, 35.69074702966034, 22.5], [139.6991632931146, 35.69074627591303, 22.5], [139.69915718411093, 35.69079219375184, 22.5], [139.69916497705086, 35.69079294749955, 22.5], [139.69920938297267, 35.69079665114366, 22.5], [139.69920772624135, 35.690809515293495, 22.5], [139.69920579328675, 35.69082452425058, 22.5], [139.69924190676642, 35.69082801719325, 22.5], [139.69929071411383, 35.690832737885614, 22.5], [139.69931242303284, 35.69083483758606, 22.5], [139.69932087131227, 35.69083565470792, 22.5], [139.6993253696906, 35.69080043706223, 22.5]]]}, "properties": {"id": "aa3a651b4ce14aaab73e8fa327002cb3", "category": "1", "name": "å°ä¸1é", "ordinal": -1.0, "short_name": "B1F", "source": "2", "__floor": "B1", "__z_abs": 22.5}}, {"type": "Feature", "geometry": {"type": "Polygon", "coordinates": [[[139.69927748357023, 35.69026618860123, 22.5], [139.6992881836761, 35.690186484668004, 22.5], [139.69925715163592, 35.69018387070442, 22.5], [139.69926195765078, 35.690148442768546, 22.5], [139.6992536815386, 35.690147642287876, 22.5], [139.69925089836784, 35.69014737309441, 22.5], [139.69924697325823, 35.69014330959185, 22.5], [139.69925014103833, 35.690121512834786, 22.5], [139.69921360561048, 35.69011797905234, 22.5], [139.69920268034693, 35.69012821454408, 22.5], [139.69919417633506, 35.690122086078254, 22.5], [139.6991468391356, 35.69016816056156, 22.5], [139.6991435939922, 35.690171070058916, 22.5], [139.69911680955346, 35.69016893987343, 22.5], [139.69911339981508, 35.69019628506428, 22.5], [139.69911232753415, 35.690204884467, 22.5], [139.69913930387847, 35.69020749369637, 22.5], [139.69914091949138, 35.690220543469, 22.5], [139.69913573179224, 35.6902329352067, 22.5], [139.6992358340814, 35.6902608250785, 22.5], [139.69927748357023, 35.69026618860123, 22.5]]]}, "properties": {"id": "5a37b18eeae54cc6ae1d906f4b74cdfb", "category": "1", "name": "å°ä¸1é", "ordinal": -1.0, "short_name": "B1F", "source": "1", "__floor": "B1", "__z_abs": 22.5}}, {"type": "Feature", "geometry": {"type": "Polygon", "coordinates": [[[139.69909180246285, 35.692847436120516, 22.5], [139.69902591818845, 35.69284409758006, 22.5], [139.69902239269425, 35.69288779314967, 22.5], [139.6990525056416, 35.69288940998807, 22.5], [139.6990542110799, 35.69286827240647, 22.5], [139.6990883055829, 35.69287010301519, 22.5], [139.69909180246285, 35.692847436120516, 22.5]]]}, "properties": {"id": "f786d42ca4034ffaa10e97f46c1f2987", "category": "1", "name": "å°ä¸1é", "ordinal": -1.0, "short_name": "B1F", "source": "1", "__floor": "B1", "__z_abs": 22.5}}, {"type": "Feature", "geometry": {"type": "Polygon", "coordinates": [[[139.70050007080118, 35.691120818619176, 22.5], [139.70077804933328, 35.69114807821614, 22.5], [139.70076202766282, 35.691255000926155, 22.5], [139.7008886871994, 35.691267788892496, 22.5], [139.70092587081092, 35.691024173529804, 22.5], [139.700954006351, 35.69091185100355, 22.5], [139.7009770913679, 35.69085712674393, 22.5], [139.70100249367852, 35.690837833414434, 22.5], [139.70102004156803, 35.69083958328467, 22.5], [139.7010272949496, 35.690790965910786, 22.5], [139.70102843972907, 35.69079108006777, 22.5], [139.70102884820275, 35.69078835399121, 22.5], [139.7010457418934, 35.69079003862226, 22.5], [139.70104935000595, 35.69076595871531, 22.5], [139.70103351547473, 35.6907643790862, 22.5], [139.7010425270258, 35.69070625374239, 22.5], [139.70101016789278, 35.690703026898184, 22.5], [139.70100760597165, 35.69070000477058, 22.5], [139.70105586425802, 35.69052128840684, 22.5], [139.70108049893713, 35.69042352642624, 22.5], [139.70101056184816, 35.69041123411305, 22.5], [139.70101186877795, 35.69040623036203, 22.5], [139.70095943119375, 35.690398704318696, 22.5], [139.70100934902038, 35.69019961448755, 22.5], [139.70095961188346, 35.69019665813438, 22.5], [139.7009812537435, 35.69007897588836, 22.5], [139.70093565746566, 35.69007347857948, 22.5], [139.7009060055387, 35.69024257918504, 22.5], [139.70072806124037, 35.69022453709732, 22.5], [139.70073441471283, 35.69018058479488, 22.5], [139.70073832581105, 35.69018084765141, 22.5], [139.70076960078345, 35.68987283237773, 22.5], [139.70077519708835, 35.689860632481725, 22.5], [139.70077883646837, 35.68982502765453, 22.5], [139.7007749423482, 35.689812035048604, 22.5], [139.7007898711043, 35.68962031649038, 22.5], [139.70078344023156, 35.689544493130214, 22.5], [139.7007878985314, 35.689495456411755, 22.5], [139.70079338366023, 35.689477711965, 22.5], [139.70080989904403, 35.689303361935096, 22.5], [139.70096354685435, 35.68925120551345, 22.5], [139.70099885316708, 35.68925376912759, 22.5], [139.7010072484598, 35.68916560184507, 22.5], [139.701017214844, 35.689065589625926, 22.5], [139.70098053690728, 35.689063172787435, 22.5], [139.7009706343898, 35.689163189193536, 22.5], [139.70096626147446, 35.689202872819, 22.5], [139.7009552917878, 35.68920956509259, 22.5], [139.70082634916582, 35.689232200325925, 22.5], [139.70082338386248, 35.68924983236057, 22.5], [139.70071351330608, 35.68924411334146, 22.5], [139.7007049470701, 35.6893360876942, 22.5], [139.70070711865617, 35.68935428829143, 22.5], [139.7006966150473, 35.689467139629585, 22.5], [139.70073601233787, 35.68946953144972, 22.5], [139.70074568092377, 35.68962128440675, 22.5], [139.70072700542653, 35.68980879165747, 22.5], [139.7007134760406, 35.689821122655815, 22.5], [139.70071015839528, 35.689855837506556, 22.5], [139.7007211068992, 35.68986953360223, 22.5], [139.70069225521445, 35.69017776400578, 22.5], [139.70067536345437, 35.69028797984134, 22.5], [139.70070372531936, 35.69033017972568, 22.5], [139.7006674933322, 35.690327927872545, 22.5], [139.70065754268006, 35.69042577067174, 22.5], [139.70062969618996, 35.690422993727616, 22.5], [139.70052591599998, 35.69039004907886, 22.5], [139.70052356245836, 35.69038689385913, 22.5], [139.70051886687824, 35.69034775078498, 22.5], [139.70053058579097, 35.690229992075125, 22.5], [139.70049198748706, 35.690227435705744, 22.5], [139.700480268518, 35.69034519441176, 22.5], [139.7004700626058, 35.69036418953666, 22.5], [139.70046284307998, 35.69036961784918, 22.5], [139.70034443036994, 35.69033121752168, 22.5], [139.7003497271112, 35.69027497407924, 22.5], [139.70031238883809, 35.69027295773868, 22.5], [139.700307824496, 35.69031630672573, 22.5], [139.7003046019459, 35.69031786922989, 22.5], [139.70017527340505, 35.69027561315533, 22.5], [139.70017129045982, 35.690270758399514, 22.5], [139.70017043491225, 35.69026744515604, 22.5], [139.70017637888807, 35.69020751814234, 22.5], [139.7001228679538, 35.69020343080019, 22.5], [139.70011843941754, 35.6902473508469, 22.5], [139.70011572402782, 35.69025143377866, 22.5], [139.70011208327546, 35.690254709081884, 22.5], [139.69998821006607, 35.690213560364654, 22.5], [139.69998436746775, 35.69020978428429, 22.5], [139.6999837611353, 35.69020247984083, 22.5], [139.69998881131045, 35.690147477010136, 22.5], [139.69993833821073, 35.690144303511644, 22.5], [139.69993407428365, 35.6901877694203, 22.5], [139.6999186431532, 35.690186384025886, 22.5], [139.69992081984452, 35.69016431336545, 22.5], [139.6998982437937, 35.69016283037584, 22.5], [139.6998985841985, 35.69016055877679, 22.5], [139.6999021339558, 35.690160759090546, 22.5], [139.6999034605269, 35.6901481334006, 22.5], [139.69988796186712, 35.690147202532636, 22.5], [139.6998866576326, 35.69015967659076, 22.5], [139.6998903705199, 35.690160046877004, 22.5], [139.69989016251967, 35.690162333663366, 22.5], [139.69988125948515, 35.690161751343645, 22.5], [139.69988112329995, 35.690162660137304, 22.5], [139.6998400055085, 35.690159174263, 22.5], [139.69984552032128, 35.69012237282026, 22.5], [139.69975082010072, 35.69011308199331, 22.5], [139.6997434444532, 35.690159125232256, 22.5], [139.69976303435178, 35.69016107999948, 22.5], [139.69976177108927, 35.69016950964529, 22.5], [139.69977699371913, 35.69017102781327, 22.5], [139.69976850160398, 35.69022643844536, 22.5], [139.69982935236882, 35.69023255073456, 22.5], [139.69982065881482, 35.69029204891323, 22.5], [139.69982789929333, 35.69029277007003, 22.5], [139.69982328248287, 35.69032241106627, 22.5], [139.69977504362174, 35.69031731841379, 22.5], [139.69976426423347, 35.69039202202179, 22.5], [139.69981098563784, 35.69039683543326, 22.5], [139.69990979741996, 35.69040732625131, 22.5], [139.6999833211894, 35.690431446365885, 22.5], [139.69997667204322, 35.690493439880946, 22.5], [139.69988983293575, 35.69048880732008, 22.5], [139.69988179501675, 35.69060187861077, 22.5], [139.69989975204257, 35.69060289723923, 22.5], [139.69989923725325, 35.69060851141381, 22.5], [139.6999359419759, 35.69061063573547, 22.5], [139.69994087756612, 35.69055696579206, 22.5], [139.7000303225854, 35.69056519481486, 22.5], [139.70003476159738, 35.69049785145513, 22.5], [139.70006772026713, 35.69050083728839, 22.5], [139.70007640788265, 35.69049278241883, 22.5], [139.70007836854026, 35.69047288289939, 22.5], [139.70027970828303, 35.69053866359691, 22.5], [139.70028239047988, 35.69054105492745, 22.5], [139.70028336622985, 35.69054508586673, 22.5], [139.70028196482377, 35.69055967916296, 22.5], [139.70027538664073, 35.690557512096284, 22.5], [139.70026546566842, 35.69066452442667, 22.5], [139.70029307075077, 35.690666155197555, 22.5], [139.70030016505493, 35.69059427687041, 22.5], [139.7003241458709, 35.690558374999505, 22.5], [139.70033337019424, 35.6905559134347, 22.5], [139.70057626729385, 35.69063357900843, 22.5], [139.70063630846252, 35.69063915336759, 22.5], [139.70063390292938, 35.69065520693895, 22.5], [139.70062989862257, 35.69069561891443, 22.5], [139.70067067652687, 35.69069818108479, 22.5], [139.70067464513824, 35.690657748714955, 22.5], [139.70067677876338, 35.690643189184655, 22.5], [139.70069441496085, 35.69064494791359, 22.5], [139.7006849227651, 35.690713324199955, 22.5], [139.70065873194235, 35.690922062624416, 22.5], [139.70066894244246, 35.690923080841245, 22.5], [139.70065508763923, 35.69101555775359, 22.5], [139.70063211050132, 35.69101347747223, 22.5], [139.70063696276415, 35.69096207892809, 22.5], [139.70060831996958, 35.69096027938567, 22.5], [139.70060319611676, 35.69101455459243, 22.5], [139.7004601457781, 35.691001845235796, 22.5], [139.70045481452487, 35.69099971719379, 22.5], [139.70045194670658, 35.690994447358804, 22.5], [139.70045536886872, 35.69095823656348, 22.5], [139.70043457118302, 35.69095688840447, 22.5], [139.70044027920673, 35.69090132225836, 22.5], [139.70041240823895, 35.6908994497965, 22.5], [139.70040350199037, 35.69098817577162, 22.5], [139.70040072913994, 35.69099286322465, 22.5], [139.70039385623244, 35.69099503610013, 22.5], [139.7002739194041, 35.690982830051155, 22.5], [139.70026885751759, 35.69098140318855, 22.5], [139.7002657227295, 35.69097827803244, 22.5], [139.70026500664576, 35.69097440945559, 22.5], [139.70027305785766, 35.6908842167036, 22.5], [139.70024547224048, 35.690882407499096, 22.5], [139.7002369293707, 35.69097064219673, 22.5], [139.70023481106554, 35.690975481072954, 22.5], [139.7002284980135, 35.69097842745313, 22.5], [139.70004599346572, 35.69095979234072, 22.5], [139.70006079650778, 35.69085306793352, 22.5], [139.70008831646467, 35.69085367568919, 22.5], [139.7000887036936, 35.690842006445244, 22.5], [139.70010747283834, 35.690842639178264, 22.5], [139.70011203765762, 35.690744341177435, 22.5], [139.6998769173694, 35.690719874048675, 22.5], [139.69987150983968, 35.690850704712815, 22.5], [139.6999251228949, 35.69085240954608, 22.5], [139.69991928520335, 35.690974387811565, 22.5], [139.6998536201571, 35.690975150172406, 22.5], [139.69985613887206, 35.69107750632151, 22.5], [139.69987040611855, 35.691093143050544, 22.5], [139.69987433199046, 35.69116414027263, 22.5], [139.69993087247883, 35.69116226736913, 22.5], [139.6999309503326, 35.69116396657203, 22.5], [139.69997224261962, 35.69116778416691, 22.5], [139.69997001853395, 35.691182625895756, 22.5], [139.70004796670102, 35.691190552101304, 22.5], [139.70004499353016, 35.69121039273195, 22.5], [139.70013222422088, 35.69121924553487, 22.5], [139.70013516307426, 35.69119923540269, 22.5], [139.70027162347384, 35.691213165088975, 22.5], [139.70027398366398, 35.69119741471462, 22.5], [139.70028031144867, 35.691198013486186, 22.5], [139.70028925784712, 35.691137596436505, 22.5], [139.70033935705263, 35.6911421431107, 22.5], [139.70034682337936, 35.6910923173487, 22.5], [139.70040662758407, 35.69109823873162, 22.5], [139.7004064082733, 35.69110101897852, 22.5], [139.70043647116475, 35.691102640609586, 22.5], [139.70043657595428, 35.69110126788856, 22.5], [139.70050202252176, 35.69110779447805, 22.5], [139.70050007080118, 35.691120818619176, 22.5]]]}, "properties": {"id": "023d63ed28ac4b9b855cb1364f2c8b25", "category": "1", "name": "å°ä¸1é", "ordinal": -1.0, "short_name": "B1F", "source": "1", "__floor": "B1", "__z_abs": 22.5}}, {"type": "Feature", "geometry": {"type": "Polygon", "coordinates": [[[139.69910185527917, 35.68849875053832, 22.5], [139.6991377307502, 35.68841406271668, 22.5], [139.69901594221014, 35.6882812399389, 22.5], [139.698990648585, 35.688351510668916, 22.5], [139.69890572830835, 35.688378901810545, 22.5], [139.69896491612275, 35.68839687941523, 22.5], [139.69893902687127, 35.68844845563027, 22.5], [139.6989456470077, 35.68845050048263, 22.5], [139.69910185527917, 35.68849875053832, 22.5]]]}, "properties": {"id": "ac09fcb2fda3465d9809c6cefaa3dc96", "category": "1", "name": "å°ä¸1é", "ordinal": -1.0, "short_name": "B1F", "source": "2", "__floor": "B1", "__z_abs": 22.5}}, {"type": "Feature", "geometry": {"type": "Polygon", "coordinates": [[[139.69945683767506, 35.69047811722374, 22.5], [139.6994896954562, 35.690477298042225, 22.5], [139.69949393255698, 35.690448141671396, 22.5], [139.6994989497924, 35.69041361700362, 22.5], [139.69944934698145, 35.69037487459468, 22.5], [139.6994817692654, 35.690138053553326, 22.5], [139.69940993546237, 35.69013282400939, 22.5], [139.69940470999035, 35.690174077358186, 22.5], [139.69939427370693, 35.69025646818466, 22.5], [139.69937547720923, 35.69040485955642, 22.5], [139.6993253696906, 35.69080043706223, 22.5], [139.6994027245466, 35.69080692237829, 22.5], [139.69941511446913, 35.69080793133915, 22.5], [139.69945683767506, 35.69047811722374, 22.5]]]}, "properties": {"id": "b6b43c7c742240f7810421598cec06e7", "category": "1", "name": "å°ä¸1é", "ordinal": -1.0, "short_name": "B1F", "source": "1", "__floor": "B1", "__z_abs": 22.5}}, {"type": "Feature", "geometry": {"type": "Polygon", "coordinates": [[[139.69874814162867, 35.68869752573828, 22.5], [139.69875135112994, 35.688671558709515, 22.5], [139.69873792616778, 35.68867072062364, 22.5], [139.6987324346334, 35.68866190074995, 22.5], [139.69868507155553, 35.688644767277516, 22.5], [139.69871223919785, 35.68859501922098, 22.5], [139.6986939079918, 35.68858910172906, 22.5], [139.6983544157679, 35.68845495644254, 22.5], [139.6983177980317, 35.68852048679054, 22.5], [139.69860756060112, 35.6886258040528, 22.5], [139.69859694851755, 35.68864649295303, 22.5], [139.69874814162867, 35.68869752573828, 22.5]]]}, "properties": {"id": "bab9a2b5c6ec4ea68de9e525c9f78313", "category": "1", "name": "å°ä¸1é", "ordinal": -1.0, "short_name": "B1F", "source": "2", "__floor": "B1", "__z_abs": 22.5}}, {"type": "Feature", "geometry": {"type": "Polygon", "coordinates": [[[139.69886848354358, 35.690529884147146, 22.5], [139.6989002160835, 35.69027150372929, 22.5], [139.69898236119846, 35.69027842388082, 22.5], [139.69899045541294, 35.69027322051355, 22.5], [139.69899637739337, 35.69022544265465, 22.5], [139.69900026897668, 35.69019404577558, 22.5], [139.6990167705576, 35.69006440437822, 22.5], [139.69904746636118, 35.69006737339371, 22.5], [139.6990499742278, 35.69005011763173, 22.5], [139.6990588803612, 35.690050979065504, 22.5], [139.6990605302716, 35.69003962659034, 22.5], [139.69894586383444, 35.690028535581796, 22.5], [139.69893243864286, 35.6900276975173, 22.5], [139.69891682665056, 35.69002615562592, 22.5], [139.69886647332987, 35.69042331825445, 22.5], [139.69883294318723, 35.690420996018624, 22.5], [139.69881769099723, 35.69043846072098, 22.5], [139.6988084501942, 35.69050796053904, 22.5], [139.6988195941801, 35.6905283787081, 22.5], [139.69886808755612, 35.690532608740305, 22.5], [139.69886848354358, 35.690529884147146, 22.5]]]}, "properties": {"id": "23c47b7deb14413ca430ac69caa4a0f2", "category": "1", "name": "å°ä¸1é", "ordinal": -1.0, "short_name": "B1F", "source": "2", "__floor": "B1", "__z_abs": 22.5}}, {"type": "Feature", "geometry": {"type": "Polygon", "coordinates": [[[139.6988329431873, 35.690420996018695, 22.5], [139.69886647332987, 35.69042331825443, 22.5], [139.69891682266473, 35.69002618706537, 22.5], [139.69891682660364, 35.69002615599721, 22.5], [139.69886903100416, 35.69002143515877, 22.5], [139.69883895617977, 35.690018432935744, 22.5], [139.69877201670124, 35.69001172015925, 22.5], [139.69870603980155, 35.69000718038431, 22.5], [139.6985918453281, 35.689994292750036, 22.5], [139.69859092134175, 35.69000065013262, 22.5], [139.69855863664793, 35.68999752730666, 22.5], [139.6985595606368, 35.689991169924504, 22.5], [139.6985489846178, 35.68999014692787, 22.5], [139.6985337745176, 35.69009479776116, 22.5], [139.6985030890305, 35.690123391864574, 22.5], [139.69822491578748, 35.690113382053084, 22.5], [139.69822455383814, 35.69012040214392, 22.5], [139.69822264057314, 35.690157510341685, 22.5], [139.69821987810315, 35.6902110889984, 22.5], [139.69821982937924, 35.69021203400512, 22.5], [139.69821189810386, 35.690247184472184, 22.5], [139.69820309968156, 35.690403693411895, 22.5], [139.69865337496674, 35.69042014994561, 22.5], [139.69871962002367, 35.69042254636752, 22.5], [139.69878722435988, 35.6904248625384, 22.5], [139.6987874883531, 35.690423046143046, 22.5], [139.69881810889956, 35.690425539857586, 22.5], [139.6988177073314, 35.690428731978834, 22.5], [139.6988258433605, 35.690429125761455, 22.5], [139.6988329431873, 35.690420996018695, 22.5]]]}, "properties": {"id": "bd71951de0994139b5f3254c6d04584d", "category": "1", "name": "å°ä¸1é", "ordinal": -1.0, "short_name": "B1F", "source": "2", "__floor": "B1", "__z_abs": 22.5}}, {"type": "Feature", "geometry": {"type": "Polygon", "coordinates": [[[139.69924815885804, 35.692750602974904, 22.5], [139.69923537117018, 35.692848584739124, 22.5], [139.6992000828967, 35.69284485947764, 22.5], [139.69920170949365, 35.69283226704686, 22.5], [139.6991897810102, 35.69283092190084, 22.5], [139.69919132260145, 35.69282098192917, 22.5], [139.6991445197085, 35.69281576382587, 22.5], [139.69913904099838, 35.692849829806846, 22.5], [139.69909180246285, 35.692847436120516, 22.5], [139.6990883055829, 35.69287010301519, 22.5], [139.69922148326827, 35.69287725352382, 22.5], [139.69922177497938, 35.69287591408147, 22.5], [139.6992329035187, 35.69287614522761, 22.5], [139.69923255346566, 35.69287775255861, 22.5], [139.69926910628874, 35.692879457703036, 22.5], [139.69927012619155, 35.69281411197727, 22.5], [139.69926234116508, 35.69281298369009, 22.5], [139.69927012020048, 35.69275300495275, 22.5], [139.69924815885804, 35.692750602974904, 22.5]]]}, "properties": {"id": "6a3b06571a7a4f0d819039ac40d731f8", "category": "1", "name": "å°ä¸1é", "ordinal": -1.0, "short_name": "B1F", "source": "2", "__floor": "B1", "__z_abs": 22.5}}, {"type": "Feature", "geometry": {"type": "Polygon", "coordinates": [[[139.6997333461033, 35.691008700630384, 22.5], [139.6996618054312, 35.691020159137366, 22.5], [139.69966947322865, 35.69105197321168, 22.5], [139.69967413650818, 35.691051227521044, 22.5], [139.69968077194542, 35.69107879815797, 22.5], [139.69974662534298, 35.69106825056768, 22.5], [139.69974000109798, 35.69104072652904, 22.5], [139.6997409202392, 35.691040548319506, 22.5], [139.6997333461033, 35.691008700630384, 22.5]]]}, "properties": {"id": "6a253a65e4d745b69f2faefd84a615ab", "category": "1", "name": "å°ä¸1é", "ordinal": -1.0, "short_name": "B1F", "source": "1", "__floor": "B1", "__z_abs": 22.5}}, {"type": "Feature", "geometry": {"type": "Polygon", "coordinates": [[[139.69931081273046, 35.69095855155345, 22.5], [139.6993199947815, 35.69088760441986, 22.5], [139.69931785011065, 35.690859307571195, 22.5], [139.69932087131227, 35.69083565470792, 22.5], [139.69931242303284, 35.69083483758606, 22.5], [139.69929071411383, 35.690832737885614, 22.5], [139.69924190676642, 35.69082801719325, 22.5], [139.69920579328675, 35.69082452425058, 22.5], [139.69920772624135, 35.690809515293495, 22.5], [139.69920938297267, 35.69079665114366, 22.5], [139.69916497705086, 35.69079294749955, 22.5], [139.69915718411093, 35.69079219375184, 22.5], [139.6991632931146, 35.69074627591303, 22.5], [139.69917108605011, 35.69074702966034, 22.5], [139.6991924567684, 35.690748792744735, 22.5], [139.69919800286038, 35.6907049747349, 22.5], [139.69920337981475, 35.690662492983826, 22.5], [139.69922707077745, 35.69066448857622, 22.5], [139.69924049144362, 35.69055838176864, 22.5], [139.69920623872972, 35.69055564567678, 22.5], [139.69920557876952, 35.69056018666726, 22.5], [139.69919555930397, 35.69055921756638, 22.5], [139.69919516332746, 35.69056194216062, 22.5], [139.69917903825004, 35.690560382512096, 22.5], [139.69917753161045, 35.69057451173867, 22.5], [139.6991597192248, 35.69057278888791, 22.5], [139.6990973098845, 35.69056721298853, 22.5], [139.6990965839214, 35.690572208077384, 22.5], [139.69907264853146, 35.690569892979994, 22.5], [139.69907324250246, 35.69056580608924, 22.5], [139.69900304025794, 35.690559476387385, 22.5], [139.6990054906685, 35.69054261613332, 22.5], [139.6988995231956, 35.69053380740736, 22.5], [139.6988997211888, 35.69053244511074, 22.5], [139.69886848354358, 35.690529884147146, 22.5], [139.69886808755612, 35.690532608740305, 22.5], [139.6988569407971, 35.69053163642064, 22.5], [139.69885010604398, 35.69058254644343, 22.5], [139.69881331565253, 35.69057934545857, 22.5], [139.69879723737267, 35.69059763301833, 22.5], [139.69878885993808, 35.69066216924245, 22.5], [139.69880000394028, 35.690682587412844, 22.5], [139.69882289207897, 35.69068434078427, 22.5], [139.69882123800625, 35.69069983719931, 22.5], [139.69879838262952, 35.690697626514385, 22.5], [139.69878814042934, 35.69077722027675, 22.5], [139.69882420491749, 35.69078003530575, 22.5], [139.69882295233825, 35.690803571963215, 22.5], [139.69883369641363, 35.69080419031352, 22.5], [139.69893274756504, 35.69083949794887, 22.5], [139.6989530558345, 35.69084083911543, 22.5], [139.69895670011974, 35.6908405107579, 22.5], [139.698960215941, 35.69083973527827, 22.5], [139.69896359007353, 35.69083851559349, 22.5], [139.69896667253727, 35.690836896046775, 22.5], [139.69896939517005, 35.690834923347225, 22.5], [139.69897116876416, 35.6908331435945, 22.5], [139.69914853489632, 35.690907156103464, 22.5], [139.6991503832744, 35.69090756190312, 22.5], [139.69915232996968, 35.69090761304952, 22.5], [139.69915419054777, 35.69090714313767, 22.5], [139.6991557612834, 35.69090620362093, 22.5], [139.69915687018775, 35.69090489737234, 22.5], [139.69915733043305, 35.690903644622296, 22.5], [139.69916236523204, 35.69090413159683, 22.5], [139.69917306056385, 35.69090876767243, 22.5], [139.69927226734413, 35.690951770487324, 22.5], [139.69926663674013, 35.69099848511998, 22.5], [139.69927107872792, 35.69099891475221, 22.5], [139.69931081273046, 35.69095855155345, 22.5]]]}, "properties": {"id": "46801abeffc442438503d3c2f5d92325", "category": "1", "name": "å°ä¸1é", "ordinal": -1.0, "short_name": "B1F", "source": "2", "__floor": "B1", "__z_abs": 22.5}}, {"type": "Feature", "geometry": {"type": "Polygon", "coordinates": [[[139.6969294284461, 35.68768644929684, 22.5], [139.69688955488343, 35.68767099638855, 22.5], [139.6968924238186, 35.68766646535869, 22.5], [139.69684989922183, 35.687649078966814, 22.5], [139.6968511132273, 35.68764716163846, 22.5], [139.6968600035535, 35.68763312078046, 22.5], [139.69681244836252, 35.68761385577084, 22.5], [139.6967649452319, 35.68769189977984, 22.5], [139.69716910952985, 35.68786386122205, 22.5], [139.6972122527063, 35.68779627862666, 22.5], [139.6969294284461, 35.68768644929684, 22.5]]]}, "properties": {"id": "3be2bca9b4ec43a29de63ccf1ccd781e", "category": "1", "name": "å°ä¸1é", "ordinal": -1.0, "short_name": "B1F", "source": "2", "__floor": "B1", "__z_abs": 22.5}}, {"type": "Feature", "geometry": {"type": "Polygon", "coordinates": [[[139.69952814863524, 35.689044054331916, 22.5], [139.6994975223269, 35.68895140937634, 22.5], [139.6995739491436, 35.68896664788579, 22.5], [139.69960479008677, 35.688864134159985, 22.5], [139.69955870268976, 35.68885420230411, 22.5], [139.69954013300222, 35.688914547806384, 22.5], [139.69950576818837, 35.68890680436989, 22.5], [139.699364689857, 35.68887501501769, 22.5], [139.69920326583153, 35.68883223311639, 22.5], [139.69916912320048, 35.688736725502984, 22.5], [139.69902982018453, 35.68869881696013, 22.5], [139.6990360671949, 35.688681600001715, 22.5], [139.69891119085483, 35.68864434894568, 22.5], [139.69888046928313, 35.68857715187439, 22.5], [139.69880724728017, 35.688554937505366, 22.5], [139.69883727981198, 35.68849199345459, 22.5], [139.69883086432927, 35.688489530971154, 22.5], [139.69886210424494, 35.688424695449086, 22.5], [139.69875748590064, 35.68839632297784, 22.5], [139.69763090284178, 35.687958851533246, 22.5], [139.6972122527063, 35.68779627862666, 22.5], [139.69716910952985, 35.68786386122205, 22.5], [139.6967649452319, 35.68769189977984, 22.5], [139.69681244836252, 35.68761385577084, 22.5], [139.6968600035535, 35.68763312078046, 22.5], [139.6968511132273, 35.68764716163846, 22.5], [139.69684989922183, 35.687649078966814, 22.5], [139.6968924238186, 35.68766646535869, 22.5], [139.69688955488343, 35.68767099638855, 22.5], [139.6969294284461, 35.68768644929684, 22.5], [139.69698417161956, 35.68760681103852, 22.5], [139.6968141915268, 35.68751807039808, 22.5], [139.69682104924993, 35.68750584030501, 22.5], [139.69687520316305, 35.6875289286397, 22.5], [139.69689424582174, 35.68749965773296, 22.5], [139.6968355144181, 35.68747489660956, 22.5], [139.69686814492113, 35.6874233049619, 22.5], [139.69680205083526, 35.68739578858993, 22.5], [139.69673926443346, 35.6874937836079, 22.5], [139.69669608491543, 35.68751731876805, 22.5], [139.69666540822368, 35.68756458409086, 22.5], [139.69660829432263, 35.68754051510075, 22.5], [139.6965695678303, 35.6875998328882, 22.5], [139.6966249982149, 35.687623636810194, 22.5], [139.696622800305, 35.687627108040324, 22.5], [139.69662440414135, 35.68762772369065, 22.5], [139.69658428511616, 35.68769015197532, 22.5], [139.69672564254836, 35.68775127424669, 22.5], [139.69663136578873, 35.687898240779546, 22.5], [139.6966180215385, 35.68811429816718, 22.5], [139.69665519798414, 35.68811699341826, 22.5], [139.69667099271675, 35.68795180680338, 22.5], [139.69678290647502, 35.68777727907073, 22.5], [139.69810486853163, 35.68835005884994, 22.5], [139.69801129821857, 35.68850227869646, 22.5], [139.69783101547935, 35.688431356664914, 22.5], [139.69781588484219, 35.68845695485639, 22.5], [139.6978340471659, 35.68846409981229, 22.5], [139.6978158206034, 35.68849493571438, 22.5], [139.69784702315073, 35.688507210612485, 22.5], [139.6978207209812, 35.688551708898714, 22.5], [139.69788049647258, 35.688575224194416, 22.5], [139.69792502515241, 35.68849988997954, 22.5], [139.69802685101018, 35.68853994751147, 22.5], [139.69813543548634, 35.68836330263254, 22.5], [139.6983544157679, 35.68845495644254, 22.5], [139.6986939079918, 35.68858910172906, 22.5], [139.69871223919785, 35.68859501922098, 22.5], [139.69868507155553, 35.688644767277516, 22.5], [139.6987324346334, 35.68866190074995, 22.5], [139.69873792616778, 35.68867072062364, 22.5], [139.69875135112994, 35.688671558709515, 22.5], [139.69874814162867, 35.68869752573828, 22.5], [139.69874177077816, 35.68869537536605, 22.5], [139.69873400926016, 35.68875276815151, 22.5], [139.69873038256566, 35.688779585827774, 22.5], [139.69877287165352, 35.68878369570046, 22.5], [139.69876983579172, 35.68880458425177, 22.5], [139.698768987684, 35.688806054817256, 22.5], [139.69878553308723, 35.68881376964782, 22.5], [139.69878678981584, 35.68881221044618, 22.5], [139.69879837558767, 35.688817935933606, 22.5], [139.69879796947941, 35.68881843978524, 22.5], [139.69885686109643, 35.68884661719442, 22.5], [139.69890803234006, 35.688945044776844, 22.5], [139.69900551387047, 35.688919016600316, 22.5], [139.69904557355795, 35.68893854778884, 22.5], [139.69905948919845, 35.68893989377916, 22.5], [139.69906120508082, 35.68892808720273, 22.5], [139.69905953520419, 35.68892792568401, 22.5], [139.6990607891181, 35.688919297801235, 22.5], [139.699071921628, 35.6889203745922, 22.5], [139.69908642520912, 35.68895262977477, 22.5], [139.69908484132065, 35.68896352815327, 22.5], [139.6992147850801, 35.688927746198374, 22.5], [139.69921639761915, 35.68892053445035, 22.5], [139.69921833147424, 35.68891887957016, 22.5], [139.69922619022714, 35.688919179214565, 22.5], [139.6992287455784, 35.68892041818548, 22.5], [139.69923110519343, 35.68891643123063, 22.5], [139.6992888429618, 35.68894104562056, 22.5], [139.69929497650338, 35.688931358236374, 22.5], [139.6994481574702, 35.688995906340764, 22.5], [139.69944112163398, 35.68900679349426, 22.5], [139.69945586697835, 35.6890127688963, 22.5], [139.69945504637872, 35.68901453145578, 22.5], [139.6994643224636, 35.6890361503548, 22.5], [139.69946173769532, 35.68905155674968, 22.5], [139.69952562927438, 35.68905819689859, 22.5], [139.69952814863524, 35.689044054331916, 22.5]]]}, "properties": {"id": "ed12f876ef78481398065c0d63c27503", "category": "1", "name": "å°ä¸1é", "ordinal": -1.0, "short_name": "B1F", "source": "2", "__floor": "B1", "__z_abs": 22.5}}, {"type": "Feature", "geometry": {"type": "Polygon", "coordinates": [[[139.7013990264577, 35.6921529584971, 22.5], [139.70144854061604, 35.692138973497755, 22.5], [139.70152953190617, 35.69210893285585, 22.5], [139.70155348291277, 35.69209876400553, 22.5], [139.7015709327573, 35.69208683752207, 22.5], [139.70158219454865, 35.69207640981068, 22.5], [139.70159259326334, 35.692062550279715, 22.5], [139.70159991249963, 35.692047437470734, 22.5], [139.7016039337852, 35.692031522490254, 22.5], [139.7016050684585, 35.69200057312173, 22.5], [139.70159962654407, 35.691969929817, 22.5], [139.70158790717664, 35.691941366927516, 22.5], [139.70156986178472, 35.69191321633923, 22.5], [139.70154843911027, 35.69188841878214, 22.5], [139.7012423804706, 35.6918600725341, 22.5], [139.70124086855623, 35.69187070165135, 22.5], [139.70121692261722, 35.69186831384395, 22.5], [139.70120573513555, 35.691942977070454, 22.5], [139.70117413774193, 35.6919399558723, 22.5], [139.70109334632824, 35.69193223093247, 22.5], [139.70108138329314, 35.69201020032107, 22.5], [139.70106125882316, 35.69214136172009, 22.5], [139.7012068104704, 35.69215016223326, 22.5], [139.70125965823672, 35.69215191254004, 22.5], [139.70136297549965, 35.69215325045973, 22.5], [139.7013990264577, 35.6921529584971, 22.5]]]}, "properties": {"id": "2695c9ca9d744c86ab9ed48f72541b37", "category": "1", "name": "å°ä¸1é", "ordinal": -1.0, "short_name": "B1F", "source": "1", "__floor": "B1", "__z_abs": 22.5}}, {"type": "Feature", "geometry": {"type": "Polygon", "coordinates": [[[139.69981105424665, 35.691600425044996, 22.5], [139.6997901031586, 35.691429936243246, 22.5], [139.699807471737, 35.691427413908315, 22.5], [139.69980360445342, 35.69141119633298, 22.5], [139.6998016593414, 35.69140303936959, 22.5], [139.6998001049368, 35.69119995803985, 22.5], [139.69986208000574, 35.69118999925716, 22.5], [139.69995820840217, 35.69119982654022, 22.5], [139.69996092192812, 35.69118171870861, 22.5], [139.69997001853395, 35.691182625895756, 22.5], [139.69997224261962, 35.69116778416691, 22.5], [139.6999309503326, 35.69116396657203, 22.5], [139.69993087247883, 35.69116226736913, 22.5], [139.69987433199046, 35.69116414027263, 22.5], [139.6998703875838, 35.69109306849179, 22.5], [139.69985613887206, 35.69107750632151, 22.5], [139.69985438974842, 35.691004934724056, 22.5], [139.69977139725432, 35.6910357000859, 22.5], [139.69974000109798, 35.69104072652904, 22.5], [139.69974662534298, 35.69106825056768, 22.5], [139.69968077194542, 35.69107879815797, 22.5], [139.69967413650818, 35.691051227521044, 22.5], [139.69965458854142, 35.69105448518922, 22.5], [139.6996639025986, 35.69109291923082, 22.5], [139.6997014273874, 35.69121594011861, 22.5], [139.69971165615203, 35.691418011968246, 22.5], [139.69973014554023, 35.69161399099122, 22.5], [139.69981105424665, 35.691600425044996, 22.5]]]}, "properties": {"id": "8ddb424adb854b01b1f00580bbb3332a", "category": "1", "name": "å°ä¸1é", "ordinal": -1.0, "short_name": "B1F", "source": "1", "__floor": "B1", "__z_abs": 22.5}}, {"type": "Feature", "geometry": {"type": "Polygon", "coordinates": [[[139.69947384608176, 35.688803606977494, 22.5], [139.69968687568414, 35.68884861690526, 22.5], [139.6997226742519, 35.68872214893554, 22.5], [139.699549817054, 35.68868478285151, 22.5], [139.69956979251702, 35.68862501027799, 22.5], [139.69917106377562, 35.68852330313475, 22.5], [139.69916666839623, 35.688524774840175, 22.5], [139.6990989397305, 35.68850562551842, 22.5], [139.69910185527917, 35.68849875053832, 22.5], [139.6989456470077, 35.68845050048263, 22.5], [139.69886210424494, 35.688424695449086, 22.5], [139.69883086432927, 35.688489530971154, 22.5], [139.69883727981198, 35.68849199345459, 22.5], [139.69880724728017, 35.688554937505366, 22.5], [139.69888046928313, 35.68857715187439, 22.5], [139.69891119085483, 35.68864434894568, 22.5], [139.6990360671949, 35.688681600001715, 22.5], [139.69902982018453, 35.68869881696013, 22.5], [139.69916912320048, 35.688736725502984, 22.5], [139.69920326583153, 35.68883223311639, 22.5], [139.699364689857, 35.68887501501769, 22.5], [139.69950576818837, 35.68890680436989, 22.5], [139.69947384608176, 35.688803606977494, 22.5]]]}, "properties": {"id": "ab1a233d5e944a5cb804e62a9ff14f4a", "category": "1", "name": "å°ä¸1é", "ordinal": -1.0, "short_name": "B1F", "source": "2", "__floor": "B1", "__z_abs": 22.5}}, {"type": "Feature", "geometry": {"type": "Polygon", "coordinates": [[[139.7010833149475, 35.69158046900785, 22.5], [139.7012520672212, 35.691597296554754, 22.5], [139.70126402860237, 35.691497348429074, 22.5], [139.70127371723973, 35.69143268753581, 22.5], [139.7013162889278, 35.691148567533176, 22.5], [139.70132572883074, 35.691085566104896, 22.5], [139.70133956363827, 35.69099210707929, 22.5], [139.70109711887696, 35.690967931026556, 22.5], [139.70110649910762, 35.69071263299514, 22.5], [139.7011639908656, 35.6907183660045, 22.5], [139.7011641554005, 35.69072268678321, 22.5], [139.70118364217558, 35.69072462992623, 22.5], [139.70116847473562, 35.69059338669726, 22.5], [139.7010464541334, 35.69055613726938, 22.5], [139.70100760597165, 35.69070000477058, 22.5], [139.70101016789278, 35.690703026898184, 22.5], [139.70104252656859, 35.690706253696796, 22.5], [139.70103351547473, 35.6907643790862, 22.5], [139.70104935000595, 35.69076595871531, 22.5], [139.7010457418934, 35.69079003862226, 22.5], [139.70102884820275, 35.69078835399121, 22.5], [139.70102843972907, 35.69079108006777, 22.5], [139.7010272949496, 35.690790965910786, 22.5], [139.70102004156803, 35.69083958328467, 22.5], [139.70100249367852, 35.690837833414434, 22.5], [139.7009770913679, 35.69085712674393, 22.5], [139.700954006351, 35.69091185100355, 22.5], [139.70092587081092, 35.691024173529804, 22.5], [139.7008886871994, 35.691267788892496, 22.5], [139.70076202766282, 35.691255000926155, 22.5], [139.70077804933328, 35.69114807821614, 22.5], [139.70050007080118, 35.691120818619176, 22.5], [139.70050202252176, 35.69110779447805, 22.5], [139.70043657595428, 35.69110126788856, 22.5], [139.70043647116475, 35.691102640609586, 22.5], [139.7004064082733, 35.69110101897852, 22.5], [139.7004066322279, 35.691098239185784, 22.5], [139.70034682337936, 35.6910923173487, 22.5], [139.70033935705263, 35.6911421431107, 22.5], [139.70028925784712, 35.691137596436505, 22.5], [139.70028031144867, 35.691198013486186, 22.5], [139.70027398366398, 35.69119741471462, 22.5], [139.70027162347384, 35.691213165088975, 22.5], [139.70013516307426, 35.69119923540269, 22.5], [139.70013222422088, 35.69121924553487, 22.5], [139.70004499353016, 35.69121039273195, 22.5], [139.7000468529048, 35.69119044211574, 22.5], [139.69996092192812, 35.69118171870861, 22.5], [139.69995820840217, 35.69119982654022, 22.5], [139.69986208000574, 35.69118999925716, 22.5], [139.6998001049368, 35.69119995803985, 22.5], [139.6998016593414, 35.69140303936959, 22.5], [139.69980357901719, 35.69141119811997, 22.5], [139.69987277985135, 35.691419033567286, 22.5], [139.69987213411662, 35.69142341048599, 22.5], [139.700769188367, 35.691514063419575, 22.5], [139.70091117437264, 35.691528411360586, 22.5], [139.70090930911857, 35.691540984409755, 22.5], [139.70094418885472, 35.69154448396447, 22.5], [139.70094295998814, 35.69155241969789, 22.5], [139.70093134793066, 35.691630180335935, 22.5], [139.70107382033996, 35.69164305121278, 22.5], [139.7010833149475, 35.69158046900785, 22.5]]]}, "properties": {"id": "804eea1f76e24a35ab7e34f12a5585ea", "category": "1", "name": "å°ä¸1é", "ordinal": -1.0, "short_name": "B1F", "source": "1", "__floor": "B1", "__z_abs": 22.5}}]}