{"type": "FeatureCollection", "features": [{"type": "Feature", "geometry": {"type": "Polygon", "coordinates": [[[139.70113531174982, 35.68849966127442, 82.5], [139.7011327261, 35.68850990216747, 82.5], [139.7011452791149, 35.688512011569834, 82.5], [139.70114786476321, 35.68850177067652, 82.5], [139.70113531174982, 35.68849966127442, 82.5]]]}, "properties": {"id": "53c4c252515241c8a558429bf4e45877", "category": "C001", "floor_id": "6097dc940957462a87b579e85d30204c", "source": "2", "__floor": "4out", "__z_abs": 82.5, "__source_file": "ShinjukuTerminal_4out_Fixture.3d.geojson"}}, {"type": "Feature", "geometry": {"type": "Polygon", "coordinates": [[[139.70109385308666, 35.688663871115025, 82.5], [139.70109126742614, 35.688674112006886, 82.5], [139.70110382046562, 35.68867622141355, 82.5], [139.7011064061246, 35.688665980521435, 82.5], [139.70109385308666, 35.688663871115025, 82.5]]]}, "properties": {"id": "41d8368c3ab04c458020ac70e7a0bace", "category": "C001", "floor_id": "6097dc940957462a87b579e85d30204c", "source": "2", "__floor": "4out", "__z_abs": 82.5, "__source_file": "ShinjukuTerminal_4out_Fixture.3d.geojson"}}, {"type": "Feature", "geometry": {"type": "Polygon", "coordinates": [[[139.7011139142231, 35.688584415917084, 82.5], [139.70111132856778, 35.688594656809514, 82.5], [139.70112388159535, 35.68859676621409, 82.5], [139.70112646724917, 35.68858652532139, 82.5], [139.7011139142231, 35.688584415917084, 82.5]]]}, "properties": {"id": "6ae8d3f4b44a4efd963977fd10584cb2", "category": "C001", "floor_id": "6097dc940957462a87b579e85d30204c", "source": "2", "__floor": "4out", "__z_abs": 82.5, "__source_file": "ShinjukuTerminal_4out_Fixture.3d.geojson"}}, {"type": "Feature", "geometry": {"type": "Polygon", "coordinates": [[[139.70107379191015, 35.68874332630849, 82.5], [139.70107120624448, 35.688753567199775, 82.5], [139.7010837592959, 35.68875567660854, 82.5], [139.70108634496, 35.688745435716996, 82.5], [139.70107379191015, 35.68874332630849, 82.5]]]}, "properties": {"id": "b98c133702584de9afcec6e1bbf70fc5", "category": "C001", "floor_id": "6097dc940957462a87b579e85d30204c", "source": "2", "__floor": "4out", "__z_abs": 82.5, "__source_file": "ShinjukuTerminal_4out_Fixture.3d.geojson"}}, {"type": "Feature", "geometry": {"type": "Polygon", "coordinates": [[[139.70106493154043, 35.68878334257727, 82.5], [139.70106281396747, 35.68879172951388, 82.5], [139.70107309448835, 35.68879345704773, 82.5], [139.70107521206032, 35.68878507011095, 82.5], [139.70106493154043, 35.68878334257727, 82.5]]]}, "properties": {"id": "8234faa2e86940aaafb2fd409f9c4a05", "category": "C001", "floor_id": "6097dc940957462a87b579e85d30204c", "source": "2", "__floor": "4out", "__z_abs": 82.5, "__source_file": "ShinjukuTerminal_4out_Fixture.3d.geojson"}}, {"type": "Feature", "geometry": {"type": "Polygon", "coordinates": [[[139.701185719014, 35.68886334718911, 82.5], [139.70129613859535, 35.68842601058236, 82.5], [139.70129659681072, 35.688423920185755, 82.5], [139.70129692029366, 35.688421813096284, 82.5], [139.70129710816207, 35.688419695069854, 82.5], [139.70129715989617, 35.68841757193138, 82.5], [139.70129707535614, 35.688415449493846, 82.5], [139.70129685477366, 35.68841333357449, 82.5], [139.70129649875298, 35.6884112299731, 82.5], [139.70129600827, 35.68840914445525, 82.5], [139.70129538466938, 35.68840708273734, 82.5], [139.70129462966054, 35.68840505047052, 82.5], [139.7012937453121, 35.68840305322493, 82.5], [139.70129273404905, 35.68840109647482, 82.5], [139.7012915986154, 35.68839918557899, 82.5], [139.70129034223203, 35.68839732579346, 82.5], [139.70128896817914, 35.68839552218816, 82.5], [139.70128748033244, 35.68839377972495, 82.5], [139.7012858827427, 35.688392103175374, 82.5], [139.70128417978833, 35.68839049713455, 82.5], [139.70128237613756, 35.68838896600465, 82.5], [139.7012804767337, 35.68838751398255, 82.5], [139.70127848678294, 35.68838614504767, 82.5], [139.70127641173985, 35.688384862952546, 82.5], [139.7012742572913, 35.68838367121111, 82.5], [139.70127202934316, 35.688382573089825, 82.5], [139.7012697340018, 35.68838157159888, 82.5], [139.70126737755868, 35.68838066948297, 82.5], [139.70126496647254, 35.68837986921466, 82.5], [139.70126250735223, 35.688379172987766, 82.5], [139.70126000693756, 35.68837858271024, 82.5], [139.70125747203474, 35.688378099992235, 82.5], [139.70112732640428, 35.688356228629345, 82.5], [139.70107411831907, 35.688367285359845, 82.5], [139.7009447155192, 35.68832540514586, 82.5], [139.70089114126688, 35.68833653788414, 82.5], [139.7007617381895, 35.68829465733643, 82.5], [139.70070816441603, 35.68830578989298, 82.5], [139.70057875675434, 35.68826390784278, 82.5], [139.70057343424787, 35.688263013422784, 82.5], [139.70057466223784, 35.68826095295316, 82.5], [139.70057601217877, 35.68825894389903, 82.5], [139.70057748084537, 35.688256991061166, 82.5], [139.70057906472846, 35.68825509910488, 82.5], [139.70058076004398, 35.688253272550696, 82.5], [139.70058256274103, 35.688251515762886, 82.5], [139.700585142053, 35.68824927598922, 82.5], [139.70058895118507, 35.68824644456555, 82.5], [139.7005907575748, 35.68824526751598, 82.5], [139.70059302781408, 35.68824391884584, 82.5], [139.70059537612383, 35.688242662290634, 82.5], [139.7005977968936, 35.6882415008526, 82.5], [139.70060028433886, 35.68824043730672, 82.5], [139.70060283251667, 35.68823947419412, 82.5], [139.70060543533907, 35.688238613816, 82.5], [139.70060808658695, 35.688237858227865, 82.5], [139.70061077992568, 35.68823720923541, 82.5], [139.70061350892013, 35.688236668388924, 82.5], [139.70061626705, 35.68823623698057, 82.5], [139.70061904772547, 35.68823591604138, 82.5], [139.70062191260695, 35.68823570262026, 82.5], [139.70062465009983, 35.6882356083716, 82.5], [139.7006274584129, 35.688235622376055, 82.5], [139.7006302625323, 35.688235748317936, 82.5], [139.7006330557581, 35.6882359858966, 82.5], [139.70063583141655, 35.688236334544115, 82.5], [139.70063728753257, 35.68823656314686, 82.5], [139.70063640086516, 35.68824009571523, 82.5], [139.70117787669255, 35.68833108638853, 82.5], [139.70117877943767, 35.688327510901445, 82.5], [139.701190250271, 35.6883294384545, 82.5], [139.70120272283543, 35.688280038517576, 82.5], [139.70119233414255, 35.688278292806956, 82.5], [139.70060876625678, 35.68818114920214, 82.5], [139.70060710073517, 35.68818086921169, 82.5], [139.70060088739262, 35.68817982509171, 82.5], [139.7005999500742, 35.688178663666804, 82.5], [139.70051435357095, 35.68816427954289, 82.5], [139.70051472133434, 35.68816282182752, 82.5], [139.7005112397593, 35.68816223676362, 82.5], [139.70051118293543, 35.68816467795381, 82.5], [139.70049961211544, 35.68816665920235, 82.5], [139.70048828391464, 35.688169420179406, 82.5], [139.70047727713393, 35.688172941679284, 82.5], [139.7004666683397, 35.68817719920537, 82.5], [139.70045653132865, 35.688182163141676, 82.5], [139.70044693661623, 35.688187798957756, 82.5], [139.7004379509459, 35.688194067449444, 82.5], [139.70042963682374, 35.6882009250121, 82.5], [139.70042205208483, 35.68820832394266, 82.5], [139.7004152494908, 35.68821621277249, 82.5], [139.70041251068392, 35.68821530151621, 82.5], [139.70041075705205, 35.68822210737534, 82.5], [139.70041238380657, 35.688222380745685, 82.5], [139.70041237368298, 35.6882224208407, 82.5], [139.7004126568811, 35.68822299122388, 82.5], [139.7004348072535, 35.68826760375697, 82.5], [139.70037506431117, 35.68837018534214, 82.5], [139.70038871022064, 35.68841389201384, 82.5], [139.70033737378276, 35.68851946015968, 82.5], [139.70035101970666, 35.68856316686623, 82.5], [139.700299681999, 35.68866873730468, 82.5], [139.70029748755599, 35.68867742836534, 82.5], [139.70029762910042, 35.68867753769581, 82.5], [139.7004228453692, 35.68877405423956, 82.5], [139.70047605412537, 35.68876299773382, 82.5], [139.70060545768274, 35.68880487854608, 82.5], [139.70065903186412, 35.68879374602449, 82.5], [139.70078843399415, 35.68883562613098, 82.5], [139.700842009967, 35.68882449315481, 82.5], [139.70097142423208, 35.68886637694476, 82.5], [139.70104307019164, 35.68887841632352, 82.5], [139.70104250192446, 35.68888066701771, 82.5], [139.70112876404778, 35.688895162433596, 82.5], [139.70112885537935, 35.688895174911465, 82.5], [139.70112894673912, 35.68889518725058, 82.5], [139.70113154029048, 35.68889547852319, 82.5], [139.70113414903994, 35.68889565801993, 82.5], [139.7011367657542, 35.688895725243356, 82.5], [139.7011393832148, 35.68889568001282, 82.5], [139.7011419940552, 35.68889552243559, 82.5], [139.70114459114575, 35.688895252966915, 82.5], [139.7011471672496, 35.68889487234782, 82.5], [139.70114971522366, 35.688894381633474, 82.5], [139.7011522280037, 35.688893782184664, 82.5], [139.701154698623, 35.6888930756632, 82.5], [139.70115712023107, 35.68889226402803, 82.5], [139.70115948611408, 35.68889134952951, 82.5], [139.70116178971205, 35.68889033470339, 82.5], [139.70116402463827, 35.688889222363116, 82.5], [139.70116618469604, 35.688888015592795, 82.5], [139.7011682638963, 35.68888671773874, 82.5], [139.70117025647448, 35.688885332398684, 82.5], [139.70117215690573, 35.688883863414276, 82.5], [139.7011739599211, 35.688882314858176, 82.5], [139.70117566052147, 35.68888069102377, 82.5], [139.70117725399132, 35.68887899641362, 82.5], [139.70117873591312, 35.68887723572584, 82.5], [139.70118010212468, 35.68887541383356, 82.5], [139.7011813489978, 35.68887353581488, 82.5], [139.70118247291555, 35.68887160685, 82.5], [139.70118347081507, 35.68886963229596, 82.5], [139.7011843399298, 35.68886761762752, 82.5], [139.70118507784957, 35.68886556843063, 82.5], [139.70118568252883, 35.68886349038678, 82.5], [139.7011857008506, 35.68886341880136, 82.5], [139.701185719014, 35.68886334718911, 82.5]], [[139.7010583386043, 35.688794497847425, 82.5], [139.70105840679742, 35.68879371854479, 82.5], [139.70105855859936, 35.68879294713662, 82.5], [139.70114144569084, 35.6884646602241, 82.5], [139.7011416799296, 35.68846390266191, 82.5], [139.70114199479656, 35.68846316480398, 82.5], [139.70114238785914, 35.688462452349484, 82.5], [139.70114285608213, 35.688461770801325, 82.5], [139.70114339584802, 35.68846112542428, 82.5], [139.70114400298837, 35.68846052120307, 82.5], [139.70114467281326, 35.688459962804586, 82.5], [139.7011454001488, 35.688459454542, 82.5], [139.70114617937736, 35.688459000341425, 82.5], [139.70114700447948, 35.688458603710785, 82.5], [139.70114786908277, 35.68845826771394, 82.5], [139.7011487665086, 35.68845799494596, 82.5], [139.70114968982512, 35.68845778751387, 82.5], [139.70115063190053, 35.688457647020016, 82.5], [139.70115158545843, 35.68845757454909, 82.5], [139.70115254313328, 35.68845757066157, 82.5], [139.7011534975279, 35.68845763538684, 82.5], [139.70115444127077, 35.688457768225305, 82.5], [139.70115536707192, 35.688457968150885, 82.5], [139.70115626778056, 35.68845823361909, 82.5], [139.70115713643986, 35.68845856257974, 82.5], [139.70115796633968, 35.68845895249183, 82.5], [139.70115875107024, 35.68845940034356, 82.5], [139.70115948456987, 35.68845990267579, 82.5], [139.70116016117333, 35.688460455608435, 82.5], [139.70116077565444, 35.68846105487057, 82.5], [139.70116132326655, 35.68846169583338, 82.5], [139.70116179977992, 35.6884623735462, 82.5], [139.70116220151442, 35.68846308277426, 82.5], [139.7011625253665, 35.68846381803928, 82.5], [139.70116276883505, 35.6884645736622, 82.5], [139.70116293003923, 35.68846534380651, 82.5], [139.70116820339183, 35.68849952619996, 82.5], [139.7011000279141, 35.68876954598693, 82.5], [139.70107862519376, 35.688799245956204, 82.5], [139.70107810402726, 35.68879990142244, 82.5], [139.70107751432874, 35.68880051702672, 82.5], [139.70107686065364, 35.68880108801409, 82.5], [139.70107614805067, 35.68880160997418, 82.5], [139.701075382024, 35.68880207887571, 82.5], [139.70107456849018, 35.68880249109651, 82.5], [139.70107371373308, 35.68880284345289, 82.5], [139.70107282435504, 35.688803133223246, 82.5], [139.701071907225, 35.688803358169366, 82.5], [139.7010709694273, 35.688803516553605, 82.5], [139.70107001820543, 35.68880360715292, 82.5], [139.70106906090632, 35.68880362926734, 82.5], [139.70106810492416, 35.68880358272588, 82.5], [139.70106715764314, 35.68880346788853, 82.5], [139.70106622637957, 35.68880328564177, 82.5], [139.70106531832676, 35.6888030373936, 82.5], [139.7010644404986, 35.68880272506118, 82.5], [139.70106359967554, 35.68880235105746, 82.5], [139.70106280235154, 35.688801918270656, 82.5], [139.70106205468494, 35.68880143004378, 82.5], [139.70106136245147, 35.68880089014817, 82.5], [139.70106073099748, 35.68880030275352, 82.5], [139.70106016520003, 35.688799672396954, 82.5], [139.70105966942992, 35.68879900394745, 82.5], [139.701059247516, 35.688798302568046, 82.5], [139.70105890271702, 35.688797573676084, 82.5], [139.70105863769663, 35.688796822901736, 82.5], [139.70105845450144, 35.688796056043486, 82.5], [139.70105835454672, 35.68879527902487, 82.5], [139.7010583386043, 35.688794497847425, 82.5]], [[139.70093474424664, 35.68855794851976, 82.5], [139.70092912691302, 35.688580244331376, 82.5], [139.70068550325243, 35.68853938862412, 82.5], [139.70066108882065, 35.68853387880358, 82.5], [139.70063736361521, 35.688526637233394, 82.5], [139.70061451180322, 35.688517720126185, 82.5], [139.70056971598444, 35.688496601857594, 82.5], [139.70057183745973, 35.68849692892826, 82.5], [139.70080985127584, 35.6885369617853, 82.5], [139.70093474424664, 35.68855794851976, 82.5]]]}, "properties": {"id": "6097dc940957462a87b579e85d30204c", "category": "2", "name": "4é", "ordinal": 4.0, "short_name": "4F", "source": "2", "__floor": "4out", "__z_abs": 82.5, "__source_file": "ShinjukuTerminal_4out_Floor.3d.geojson"}}, {"type": "Feature", "geometry": {"type": "Polygon", "coordinates": [[[139.7010613624514, 35.68880089014804, 82.5], [139.70106205468497, 35.688801430043796, 82.5], [139.70106280235126, 35.688801918270585, 82.5], [139.7010635996753, 35.68880235105734, 82.5], [139.70106444049864, 35.68880272506125, 82.5], [139.7010653183268, 35.688803037393534, 82.5], [139.70106622637948, 35.68880328564175, 82.5], [139.7010671576429, 35.688803467888434, 82.5], [139.70106810492405, 35.6888035827259, 82.5], [139.70106906090618, 35.688803629267206, 82.5], [139.70107001820531, 35.688803607152835, 82.5], [139.70107096942732, 35.68880351655358, 82.5], [139.701071907225, 35.688803358169245, 82.5], [139.70107282435492, 35.68880313322319, 82.5], [139.7010737137331, 35.68880284345287, 82.5], [139.70107456849013, 35.68880249109647, 82.5], [139.70107538202384, 35.68880207887557, 82.5], [139.70107614805056, 35.688801609974156, 82.5], [139.7010768606536, 35.68880108801395, 82.5], [139.70107751432872, 35.68880051702662, 82.5], [139.70107810402712, 35.68879990142239, 82.5], [139.70107862519382, 35.688799245956176, 82.5], [139.7011000279139, 35.68876954598697, 82.5], [139.70116820339172, 35.688499526199834, 82.5], [139.70116293003906, 35.68846534380643, 82.5], [139.7011627688349, 35.68846457366216, 82.5], [139.70116252536647, 35.68846381803924, 82.5], [139.70116220151434, 35.68846308277416, 82.5], [139.70116179977995, 35.68846237354615, 82.5], [139.70116132326638, 35.68846169583337, 82.5], [139.70116077565422, 35.688461054870494, 82.5], [139.7011601611733, 35.68846045560838, 82.5], [139.7011594845699, 35.68845990267577, 82.5], [139.70115875107012, 35.68845940034357, 82.5], [139.70115796633965, 35.68845895249182, 82.5], [139.70115713643972, 35.68845856257975, 82.5], [139.7011562677806, 35.688458233619095, 82.5], [139.7011553670719, 35.688457968150765, 82.5], [139.70115444127066, 35.68845776822525, 82.5], [139.70115349752794, 35.68845763538679, 82.5], [139.70115254313325, 35.688457570661434, 82.5], [139.7011515854584, 35.68845757454914, 82.5], [139.70115063190053, 35.68845764701988, 82.5], [139.701149689825, 35.688457787513876, 82.5], [139.70114876650845, 35.68845799494594, 82.5], [139.70114786908275, 35.68845826771385, 82.5], [139.7011470044795, 35.68845860371073, 82.5], [139.70114617937713, 35.688459000341325, 82.5], [139.70114540014873, 35.688459454542, 82.5], [139.70114467281311, 35.688459962804515, 82.5], [139.70114400298831, 35.68846052120297, 82.5], [139.70114339584802, 35.6884611254243, 82.5], [139.7011428560819, 35.68846177080141, 82.5], [139.70114238785916, 35.68846245234939, 82.5], [139.7011419947964, 35.688463164803885, 82.5], [139.70114167992958, 35.68846390266187, 82.5], [139.7011414456908, 35.68846466022405, 82.5], [139.70105855859933, 35.68879294713653, 82.5], [139.7010584067974, 35.6887937185448, 82.5], [139.7010583386043, 35.688794497847326, 82.5], [139.7010583545467, 35.68879527902479, 82.5], [139.70105845450144, 35.68879605604344, 82.5], [139.70105863769658, 35.68879682290161, 82.5], [139.70105890271705, 35.68879757367613, 82.5], [139.70105924751587, 35.68879830256806, 82.5], [139.7010596694298, 35.688799003947466, 82.5], [139.7010601652001, 35.68879967239695, 82.5], [139.70106073099734, 35.688800302753414, 82.5], [139.7010613624514, 35.68880089014804, 82.5]], [[139.7011327261, 35.68850990216745, 82.5], [139.70113531174982, 35.68849966127442, 82.5], [139.70114786476321, 35.68850177067652, 82.5], [139.7011452791149, 35.68851201156984, 82.5], [139.7011327261, 35.68850990216745, 82.5]], [[139.70111132856778, 35.68859465680951, 82.5], [139.7011139142231, 35.688584415917084, 82.5], [139.70112646724917, 35.68858652532139, 82.5], [139.70112388159535, 35.68859676621408, 82.5], [139.70111132856778, 35.68859465680951, 82.5]], [[139.7010912674261, 35.688674112006886, 82.5], [139.70109385308666, 35.688663871115025, 82.5], [139.7011064061246, 35.688665980521435, 82.5], [139.7011038147457, 35.68867622770963, 82.5], [139.7010912674261, 35.688674112006886, 82.5]], [[139.70107120624448, 35.688753567199775, 82.5], [139.70107379191015, 35.68874332630849, 82.5], [139.70108634496, 35.688745435716996, 82.5], [139.70108375929593, 35.688755676608544, 82.5], [139.70107120624448, 35.688753567199775, 82.5]], [[139.70106493154043, 35.688783342577274, 82.5], [139.70107521206032, 35.68878507011096, 82.5], [139.70107309448835, 35.688793457047716, 82.5], [139.7010628139675, 35.6887917295139, 82.5], [139.70106493154043, 35.688783342577274, 82.5]]]}, "properties": {"id": "a97f2f4dd5474787b41eac722704b3c9", "category": "B026", "floor_id": "6097dc940957462a87b579e85d30204c", "name": null, "restricted": "1", "suite": null, "nonpublic": "2", "toll": "3", "source": "2", "__floor": "4out", "__z_abs": 82.5, "__source_file": "ShinjukuTerminal_4out_Space.3d.geojson"}}, {"type": "Feature", "geometry": {"type": "Polygon", "coordinates": [[[139.70080985127572, 35.68853696178536, 82.5], [139.70056971598433, 35.68849660185754, 82.5], [139.700614511803, 35.68851772012624, 82.5], [139.70063736361533, 35.68852663723328, 82.5], [139.70066108882077, 35.68853387880347, 82.5], [139.70068550325232, 35.68853938862401, 82.5], [139.70092912691314, 35.68858024433143, 82.5], [139.70093474424652, 35.688557948519644, 82.5], [139.70080985127572, 35.68853696178536, 82.5]]]}, "properties": {"id": "63a1031d5a5d4351afcc2405be2290a7", "category": "B019", "floor_id": "6097dc940957462a87b579e85d30204c", "name": null, "restricted": "2", "suite": null, "nonpublic": "2", "toll": "3", "source": "2", "__floor": "4out", "__z_abs": 82.5, "__source_file": "ShinjukuTerminal_4out_Space.3d.geojson"}}, {"type": "Feature", "geometry": {"type": "Polygon", "coordinates": [[[139.701185719014, 35.68886334718934, 82.5], [139.70129613859535, 35.68842601058259, 82.5], [139.70129659681095, 35.688423920185926, 82.5], [139.70129692029366, 35.688421813096284, 82.5], [139.70129710816207, 35.688419695070024, 82.5], [139.70129715989617, 35.68841757193155, 82.5], [139.70129707535648, 35.688415449493846, 82.5], [139.70129685477366, 35.68841333357466, 82.5], [139.70129649875287, 35.6884112299731, 82.5], [139.70129600827033, 35.68840914445542, 82.5], [139.7012953846696, 35.68840708273751, 82.5], [139.70129462966042, 35.68840505047069, 82.5], [139.70129374531234, 35.68840305322493, 82.5], [139.70129273404893, 35.68840109647482, 82.5], [139.7012915986154, 35.688399185579215, 82.5], [139.70129034223203, 35.68839732579363, 82.5], [139.70128896817914, 35.68839552218816, 82.5], [139.70128748033244, 35.68839377972512, 82.5], [139.7012858827427, 35.688392103175545, 82.5], [139.70128417978867, 35.68839049713472, 82.5], [139.70128237613756, 35.68838896600482, 82.5], [139.70128047673393, 35.68838751398255, 82.5], [139.70127848678294, 35.68838614504767, 82.5], [139.70127641173974, 35.688384862952546, 82.5], [139.7012742572913, 35.688383671211284, 82.5], [139.70127202934316, 35.68838257309005, 82.5], [139.7012697340018, 35.68838157159905, 82.5], [139.70126737755902, 35.68838066948297, 82.5], [139.70126496647276, 35.688379869214884, 82.5], [139.70126250735223, 35.688379172987766, 82.5], [139.70126000693756, 35.68837858271024, 82.5], [139.70125747203497, 35.688378099992406, 82.5], [139.70112732640428, 35.68835622862957, 82.5], [139.7010741183193, 35.688367285360016, 82.5], [139.7009447155192, 35.68832540514586, 82.5], [139.70089114126688, 35.68833653788431, 82.5], [139.70076173818939, 35.6882946573366, 82.5], [139.70070816441614, 35.68830578989298, 82.5], [139.70057875675423, 35.68826390784278, 82.5], [139.70057343424787, 35.688263013422784, 82.5], [139.70057466223784, 35.68826095295316, 82.5], [139.70057601217877, 35.68825894389926, 82.5], [139.70057748084537, 35.688256991061166, 82.5], [139.70057906472857, 35.68825509910488, 82.5], [139.70058076004398, 35.68825327255087, 82.5], [139.70058256274103, 35.688251515762886, 82.5], [139.700585142053, 35.68824927598939, 82.5], [139.70058895118507, 35.68824644456555, 82.5], [139.70059075757501, 35.68824526751621, 82.5], [139.7005930278142, 35.68824391884601, 82.5], [139.70059537612383, 35.688242662290634, 82.5], [139.70059779689348, 35.68824150085277, 82.5], [139.70060028433875, 35.68824043730689, 82.5], [139.70060283251667, 35.68823947419429, 82.5], [139.70060543533907, 35.688238613816, 82.5], [139.70060808658695, 35.68823785822809, 82.5], [139.70061077992568, 35.68823720923558, 82.5], [139.70061350892013, 35.688236668388924, 82.5], [139.70061626705024, 35.68823623698074, 82.5], [139.70061904772558, 35.68823591604138, 82.5], [139.70062191260695, 35.68823570262026, 82.5], [139.70062465009983, 35.6882356083716, 82.5], [139.700627458413, 35.688235622376055, 82.5], [139.7006302625325, 35.68823574831811, 82.5], [139.7006330557581, 35.6882359858966, 82.5], [139.70063583141655, 35.688236334544115, 82.5], [139.70063728753257, 35.68823656314686, 82.5], [139.70063640086505, 35.68824009571523, 82.5], [139.70117787669255, 35.68833108638853, 82.5], [139.70117877943767, 35.688327510901615, 82.5], [139.7011902502711, 35.6883294384545, 82.5], [139.70120272283566, 35.688280038517746, 82.5], [139.70119233414255, 35.68827829280713, 82.5], [139.700608766257, 35.68818114920231, 82.5], [139.7006071007354, 35.68818086921169, 82.5], [139.70060088739285, 35.68817982509171, 82.5], [139.7005999500742, 35.688178663666804, 82.5], [139.70051435357118, 35.68816427954289, 82.5], [139.70051472133457, 35.68816282182752, 82.5], [139.70051123975952, 35.68816223676379, 82.5], [139.70051118293566, 35.68816467795398, 82.5], [139.70049961211555, 35.68816665920235, 82.5], [139.70048828391452, 35.68816942017958, 82.5], [139.70047727713404, 35.688172941679284, 82.5], [139.7004666683399, 35.68817719920554, 82.5], [139.70045653132865, 35.688182163141846, 82.5], [139.70044693661646, 35.688187798957756, 82.5], [139.7004379509459, 35.688194067449615, 82.5], [139.70042963682374, 35.6882009250121, 82.5], [139.70042205208506, 35.68820832394283, 82.5], [139.70041524949102, 35.68821621277266, 82.5], [139.70041247820132, 35.68821529070868, 82.5], [139.7004107570524, 35.68822210737551, 82.5], [139.70041238380657, 35.688222380745856, 82.5], [139.70041237368298, 35.68822242084087, 82.5], [139.70041265688133, 35.68822299122388, 82.5], [139.7004348072537, 35.68826760375714, 82.5], [139.7003750643114, 35.68837018534231, 82.5], [139.70038871022064, 35.68841389201384, 82.5], [139.700337373783, 35.68851946015968, 82.5], [139.70035101970677, 35.6885631668664, 82.5], [139.70029968199924, 35.68866873730468, 82.5], [139.7002974875562, 35.68867742836551, 82.5], [139.70029762910053, 35.68867753769604, 82.5], [139.70029746683576, 35.68867751042802, 82.5], [139.70033847382342, 35.688709086615404, 82.5], [139.70042251151187, 35.688773998136526, 82.5], [139.70042284536942, 35.68877405423973, 82.5], [139.7004760541256, 35.68876299773399, 82.5], [139.70060545768297, 35.68880487854608, 82.5], [139.70065903186412, 35.68879374602466, 82.5], [139.70078843399415, 35.68883562613115, 82.5], [139.700842009967, 35.68882449315504, 82.5], [139.70097142423208, 35.688866376944986, 82.5], [139.70104307019153, 35.68887841632369, 82.5], [139.70104250192446, 35.688880667017884, 82.5], [139.70112876404812, 35.68889516243382, 82.5], [139.70112885537935, 35.688895174911636, 82.5], [139.70112894673912, 35.68889518725058, 82.5], [139.7011315402906, 35.688895478523364, 82.5], [139.70113414903994, 35.6888956580201, 82.5], [139.7011367657542, 35.688895725243356, 82.5], [139.70113938321504, 35.68889568001305, 82.5], [139.70114199405543, 35.68889552243576, 82.5], [139.70114459114598, 35.688895252967086, 82.5], [139.7011471672496, 35.68889487234799, 82.5], [139.70114971522366, 35.688894381633474, 82.5], [139.70115222800382, 35.688893782184664, 82.5], [139.701154698623, 35.6888930756632, 82.5], [139.7011571202313, 35.68889226402803, 82.5], [139.70115948611408, 35.68889134952968, 82.5], [139.70116178971205, 35.68889033470339, 82.5], [139.7011640246385, 35.688889222363116, 82.5], [139.70116618469604, 35.688888015592966, 82.5], [139.70116826389653, 35.68888671773874, 82.5], [139.7011702564747, 35.688885332398854, 82.5], [139.70117215690573, 35.6888838634145, 82.5], [139.7011739599211, 35.688882314858176, 82.5], [139.70117566052136, 35.68888069102394, 82.5], [139.70117725399132, 35.68887899641362, 82.5], [139.70117873591335, 35.68887723572601, 82.5], [139.70118010212502, 35.68887541383373, 82.5], [139.70118134899803, 35.688873535815105, 82.5], [139.70118247291555, 35.68887160685, 82.5], [139.70118347081518, 35.68886963229596, 82.5], [139.7011843399298, 35.68886761762752, 82.5], [139.7011850778497, 35.68886556843063, 82.5], [139.70118568252883, 35.68886349038695, 82.5], [139.7011857008506, 35.68886341880136, 82.5], [139.701185719014, 35.68886334718934, 82.5]], [[139.70105833860453, 35.688794497847425, 82.5], [139.70105840679764, 35.68879371854496, 82.5], [139.70105855859958, 35.68879294713662, 82.5], [139.70114144569106, 35.68846466022427, 82.5], [139.70114167992983, 35.68846390266208, 82.5], [139.70114199479656, 35.68846316480398, 82.5], [139.70114238785936, 35.688462452349484, 82.5], [139.70114285608201, 35.68846177080155, 82.5], [139.70114339584825, 35.68846112542445, 82.5], [139.70114400298837, 35.68846052120307, 82.5], [139.70114467281326, 35.68845996280476, 82.5], [139.70114540014902, 35.68845945454217, 82.5], [139.70114617937725, 35.688459000341425, 82.5], [139.7011470044797, 35.688458603710956, 82.5], [139.70114786908277, 35.68845826771394, 82.5], [139.7011487665086, 35.68845799494619, 82.5], [139.70114968982512, 35.68845778751404, 82.5], [139.70115063190076, 35.688457647020016, 82.5], [139.70115158545866, 35.68845757454932, 82.5], [139.7011525431335, 35.68845757066157, 82.5], [139.70115349752814, 35.68845763538684, 82.5], [139.70115444127077, 35.688457768225476, 82.5], [139.70115536707226, 35.688457968150885, 82.5], [139.7011562677808, 35.68845823361926, 82.5], [139.70115713643986, 35.68845856257991, 82.5], [139.7011579663399, 35.688458952492056, 82.5], [139.70115875107024, 35.68845940034373, 82.5], [139.7011594845701, 35.68845990267596, 82.5], [139.70116016117356, 35.688460455608606, 82.5], [139.70116077565433, 35.68846105487074, 82.5], [139.70116132326655, 35.68846169583361, 82.5], [139.70116179978015, 35.6884623735462, 82.5], [139.70116220151442, 35.68846308277426, 82.5], [139.70116252536684, 35.68846381803928, 82.5], [139.70116276883505, 35.6884645736622, 82.5], [139.70116293003923, 35.68846534380651, 82.5], [139.70116820339183, 35.68849952619996, 82.5], [139.70110002791398, 35.68876954598716, 82.5], [139.701078625194, 35.688799245956375, 82.5], [139.70107810402726, 35.68879990142244, 82.5], [139.70107751432874, 35.68880051702672, 82.5], [139.70107686065364, 35.68880108801409, 82.5], [139.70107614805067, 35.68880160997435, 82.5], [139.701075382024, 35.68880207887571, 82.5], [139.7010745684904, 35.68880249109651, 82.5], [139.70107371373342, 35.68880284345306, 82.5], [139.70107282435504, 35.688803133223416, 82.5], [139.70107190722524, 35.688803358169366, 82.5], [139.70107096942752, 35.688803516553776, 82.5], [139.70107001820543, 35.68880360715292, 82.5], [139.70106906090632, 35.68880362926734, 82.5], [139.70106810492416, 35.68880358272605, 82.5], [139.70106715764302, 35.68880346788853, 82.5], [139.70106622637957, 35.68880328564194, 82.5], [139.7010653183271, 35.68880303739377, 82.5], [139.70106444049873, 35.68880272506135, 82.5], [139.70106359967542, 35.68880235105746, 82.5], [139.70106280235143, 35.688801918270826, 82.5], [139.70106205468505, 35.68880143004395, 82.5], [139.70106136245147, 35.68880089014817, 82.5], [139.70106073099748, 35.68880030275352, 82.5], [139.70106016520003, 35.688799672397124, 82.5], [139.70105966942992, 35.68879900394762, 82.5], [139.701059247516, 35.68879830256827, 82.5], [139.70105890271736, 35.688797573676254, 82.5], [139.70105863769686, 35.688796822901736, 82.5], [139.70105845450144, 35.688796056043486, 82.5], [139.70105835454672, 35.68879527902487, 82.5], [139.70105833860453, 35.688794497847425, 82.5]], [[139.70080985127584, 35.68853696178547, 82.5], [139.70093474424664, 35.68855794851976, 82.5], [139.700935186592, 35.688556175982626, 82.5], [139.70101936296385, 35.68857041412201, 82.5], [139.70100911149768, 35.68861099401573, 82.5], [139.70100736326856, 35.68861665574087, 82.5], [139.7010050168309, 35.68862217161808, 82.5], [139.70100209004192, 35.68862749966752, 82.5], [139.70099860517655, 35.688632599340224, 82.5], [139.70099458875666, 35.68863743182396, 82.5], [139.70099007134922, 35.6886419603411, 82.5], [139.70098508733474, 35.68864615042634, 82.5], [139.70097967464437, 35.68864997019074, 82.5], [139.7009738744723, 35.68865339056356, 82.5], [139.700967730961, 35.68865638551358, 82.5], [139.70096129086653, 35.68865893224762, 82.5], [139.70095460320204, 35.68866101138309, 82.5], [139.70094771886465, 35.68866260709666, 82.5], [139.70094069024856, 35.68866370724402, 82.5], [139.7009335708459, 35.68866430345224, 82.5], [139.7009264148396, 35.68866439118386, 82.5], [139.7009192766916, 35.688663969771255, 82.5], [139.70091221072744, 35.688663042421524, 82.5], [139.70050852613235, 35.68859520606543, 82.5], [139.7005053264861, 35.688594548561696, 82.5], [139.70050220921019, 35.688593666171016, 82.5], [139.70049919800476, 35.68859256560194, 82.5], [139.7004963157633, 35.68859125522221, 82.5], [139.7004935843986, 35.68858974499403, 82.5], [139.7004910246768, 35.68858804639933, 82.5], [139.70048865605895, 35.6885861723523, 82.5], [139.70048649655314, 35.68858413710086, 82.5], [139.70048456257723, 35.688581956118526, 82.5], [139.70048286883537, 35.68857964598686, 82.5], [139.70048142820428, 35.688577224269295, 82.5], [139.70048025163692, 35.68857470937769, 82.5], [139.70047934807826, 35.68857212043213, 82.5], [139.70047872439795, 35.68856947711561, 82.5], [139.70054836101758, 35.6885811791862, 82.5], [139.70054816085064, 35.68858197195618, 82.5], [139.70091318602374, 35.688643311816804, 82.5], [139.7009136318312, 35.68864154614653, 82.5], [139.70092912691325, 35.68858024433155, 82.5], [139.70068550325243, 35.68853938862412, 82.5], [139.70066108882088, 35.68853387880358, 82.5], [139.70063736361544, 35.688526637233394, 82.5], [139.7006145118031, 35.688517720126356, 82.5], [139.70056971598444, 35.688496601857594, 82.5], [139.70054243717266, 35.688481491014215, 82.5], [139.70054225877766, 35.68848154677778, 82.5], [139.70053986074709, 35.68847999289699, 82.5], [139.70053763407736, 35.68847827767456, 82.5], [139.70053559502685, 35.68847641363408, 82.5], [139.70053375848363, 35.68847441438567, 82.5], [139.70053213785684, 35.68847229452723, 82.5], [139.70053074498026, 35.68847006953689, 82.5], [139.7005295900234, 35.688467755660156, 82.5], [139.7005286814192, 35.68846536979214, 82.5], [139.700528025802, 35.68846292935319, 82.5], [139.70052762795854, 35.6884604521623, 82.5], [139.70052749079412, 35.68845795630648, 82.5], [139.70052761530985, 35.688455460009436, 82.5], [139.7005280005967, 35.688452981497676, 82.5], [139.7005280716936, 35.688452652668786, 82.5], [139.7005281473888, 35.68845232452384, 82.5], [139.70052822767286, 35.68845199710552, 82.5], [139.7005282765765, 35.68845180342083, 82.5], [139.70053228721292, 35.68843591911451, 82.5], [139.70053409277784, 35.6884300673741, 82.5], [139.70053651666262, 35.6884243664112, 82.5], [139.70053954044363, 35.68841885951207, 82.5], [139.70054314110314, 35.68841358859754, 82.5], [139.70054729123046, 35.68840859379134, 82.5], [139.70055195923408, 35.688403913116304, 82.5], [139.70055710957934, 35.68839958220309, 82.5], [139.7005627030593, 35.68839563402048, 82.5], [139.70056869709424, 35.6883920986233, 82.5], [139.70057504605563, 35.68838900292428, 82.5], [139.7005817016128, 35.68838637048941, 82.5], [139.70058861310122, 35.68838422135735, 82.5], [139.70059572790774, 35.688382571888155, 82.5], [139.7006029918723, 35.68838143463802, 82.5], [139.7006103496983, 35.68838081826459, 82.5], [139.70061774537612, 35.68838072745956, 82.5], [139.70062512260654, 35.688381162914254, 82.5], [139.70063242523167, 35.68838212131379, 82.5], [139.70067930999755, 35.68839000001486, 82.5], [139.70069068898601, 35.68839233850639, 82.5], [139.70070177485934, 35.68839547714492, 82.5], [139.70071248325485, 35.68839939204565, 82.5], [139.70072273268158, 35.68840405341632, 82.5], [139.70073244514117, 35.68840942578379, 82.5], [139.70074154672182, 35.68841546826445, 82.5], [139.7007499681606, 35.688422134875, 82.5], [139.70075764537023, 35.688429374882844, 82.5], [139.70076451992725, 35.6884371331912, 82.5], [139.70077053951536, 35.68844535075982, 82.5], [139.70077565832605, 35.68845396505259, 82.5], [139.70077983740464, 35.68846291051494, 82.5], [139.70080985127584, 35.68853696178547, 82.5]]]}, "properties": {"id": "65c183525d444fb2b2dced440709e508", "category": "B019", "floor_id": "6097dc940957462a87b579e85d30204c", "name": null, "restricted": "2", "suite": null, "nonpublic": "2", "toll": "3", "source": "2", "__floor": "4out", "__z_abs": 82.5, "__source_file": "ShinjukuTerminal_4out_Space.3d.geojson"}}, {"type": "Feature", "geometry": {"type": "Polygon", "coordinates": [[[139.70033847382348, 35.68870908661516, 82.5], [139.70029746683568, 35.68867751042775, 82.5], [139.70029221651413, 35.68867662812983, 82.5], [139.70029185602903, 35.688678293161146, 82.5], [139.70029178116067, 35.68867883759197, 82.5], [139.70029164837183, 35.688679980398426, 82.5], [139.70029161459817, 35.68868062252807, 82.5], [139.7002915961042, 35.688681685042546, 82.5], [139.70029161722942, 35.6886823488252, 82.5], [139.70029170327834, 35.68868340909229, 82.5], [139.70029177785202, 35.688684048950755, 82.5], [139.7002919831506, 35.688685184591996, 82.5], [139.70029209254713, 35.688685725119946, 82.5], [139.70029255845284, 35.68868737264806, 82.5], [139.70031816727797, 35.68875032055199, 82.5], [139.7003188999804, 35.688751889126536, 82.5], [139.7003191651333, 35.688752366861195, 82.5], [139.70031979328084, 35.688753424056, 82.5], [139.70032013525335, 35.68875394087564, 82.5], [139.70032087395478, 35.688754949385, 82.5], [139.70032121802635, 35.6887553923648, 82.5], [139.7003224233998, 35.68875675278388, 82.5], [139.70032376952523, 35.688758022321046, 82.5], [139.7003242189727, 35.68875839726053, 82.5], [139.70032525245773, 35.68875921543121, 82.5], [139.70032579047881, 35.68875960566466, 82.5], [139.70032690743886, 35.688760347238635, 82.5], [139.70032741647518, 35.68876066749956, 82.5], [139.700329119499, 35.68876160954817, 82.5], [139.70033091668458, 35.68876242692276, 82.5], [139.70033149621725, 35.688762653844364, 82.5], [139.70033281038548, 35.68876313430697, 82.5], [139.70033347956166, 35.68876335088619, 82.5], [139.7003348400589, 35.68876373608007, 82.5], [139.70033545266332, 35.688763894993954, 82.5], [139.7003374479271, 35.688764305047094, 82.5], [139.70034875140186, 35.68876620454908, 82.5], [139.70034986595283, 35.688761790378656, 82.5], [139.70042251151176, 35.68877399813637, 82.5], [139.70033847382348, 35.68870908661516, 82.5]]]}, "properties": {"id": "213c0f09943d48e08a2c655b8e35c5fc", "category": "B019", "floor_id": "6097dc940957462a87b579e85d30204c", "name": null, "restricted": "2", "suite": null, "nonpublic": "2", "toll": "3", "source": "2", "__floor": "4out", "__z_abs": 82.5, "__source_file": "ShinjukuTerminal_4out_Space.3d.geojson"}}, {"type": "Feature", "geometry": {"type": "Polygon", "coordinates": [[[139.7004780452573, 35.6881566585666, 82.5], [139.700473762885, 35.688156096520814, 82.5], [139.7004694367636, 35.68815584110302, 82.5], [139.7004650998174, 35.68815589425708, 82.5], [139.70046078505314, 35.688156255578505, 82.5], [139.70045652530877, 35.688156922317376, 82.5], [139.70045235300347, 35.688157889399434, 82.5], [139.7004482998909, 35.68815914946462, 82.5], [139.7004443968177, 35.688160692923084, 82.5], [139.70044067348857, 35.688162508028185, 82.5], [139.70043715824028, 35.68816458096591, 82.5], [139.70043387782601, 35.68816689595996, 82.5], [139.70043085721161, 35.68816943539184, 82.5], [139.7004281193858, 35.68817217993499, 82.5], [139.70042568518514, 35.68817510870178, 82.5], [139.7004235731353, 35.688178199402536, 82.5], [139.70042179931045, 35.68818142851519, 82.5], [139.70042037721032, 35.68818477146426, 82.5], [139.7004193176581, 35.68818820280789, 82.5], [139.70041247820126, 35.68821529070854, 82.5], [139.7004152494908, 35.68821621277257, 82.5], [139.70042205208478, 35.68820832394265, 82.5], [139.70042963682357, 35.68820092501206, 82.5], [139.70043795094577, 35.68819406744946, 82.5], [139.70044693661626, 35.68818779895762, 82.5], [139.70045653132857, 35.6881821631416, 82.5], [139.70046666833963, 35.68817719920538, 82.5], [139.70047727713396, 35.688172941679206, 82.5], [139.70048828391447, 35.6881694201794, 82.5], [139.70049961211544, 35.68816665920229, 82.5], [139.70051118293543, 35.68816467795378, 82.5], [139.70051123975915, 35.688162236763816, 82.5], [139.7004780452573, 35.6881566585666, 82.5]]]}, "properties": {"id": "6af98abb465742c6ab5c96dbb1ccf47b", "category": "B019", "floor_id": "6097dc940957462a87b579e85d30204c", "name": null, "restricted": "2", "suite": null, "nonpublic": "2", "toll": "3", "source": "2", "__floor": "4out", "__z_abs": 82.5, "__source_file": "ShinjukuTerminal_4out_Space.3d.geojson"}}, {"type": "Feature", "geometry": {"type": "Polygon", "coordinates": [[[139.70075764537026, 35.68842937488268, 82.5], [139.70074996816052, 35.68842213487484, 82.5], [139.70074154672176, 35.68841546826424, 82.5], [139.70073244514103, 35.688409425783576, 82.5], [139.70072273268147, 35.68840405341619, 82.5], [139.70071248325476, 35.68839939204559, 82.5], [139.70070177485937, 35.68839547714478, 82.5], [139.7006906889859, 35.68839233850625, 82.5], [139.70067930999747, 35.68839000001478, 82.5], [139.70063242523142, 35.68838212131362, 82.5], [139.70062512260634, 35.688381162914006, 82.5], [139.7006177453759, 35.68838072745938, 82.5], [139.70061034969814, 35.688380818264456, 82.5], [139.7006029918721, 35.688381434637975, 82.5], [139.70059572790748, 35.688382571888006, 82.5], [139.70058861310096, 35.68838422135715, 82.5], [139.7005817016127, 35.688386370489305, 82.5], [139.7005750460555, 35.68838900292425, 82.5], [139.70056869709396, 35.68839209862319, 82.5], [139.70056270305898, 35.688395634020374, 82.5], [139.70055710957908, 35.68839958220292, 82.5], [139.700551959234, 35.688403913116225, 82.5], [139.7005472912304, 35.68840859379119, 82.5], [139.70054314110277, 35.688413588597314, 82.5], [139.7005395404435, 35.68841885951198, 82.5], [139.70053651666234, 35.68842436641099, 82.5], [139.70053409277776, 35.688430067373886, 82.5], [139.7005322872128, 35.688435919114426, 82.5], [139.70052827657622, 35.68845180342071, 82.5], [139.70052822767275, 35.68845199710533, 82.5], [139.70052814738872, 35.688452324523716, 82.5], [139.70052807169344, 35.68845265266875, 82.5], [139.7005280005966, 35.68845298149753, 82.5], [139.7005276153098, 35.688455460009244, 82.5], [139.7005274907941, 35.688457956306316, 82.5], [139.7005276279585, 35.68846045216209, 82.5], [139.7005280258019, 35.6884629293531, 82.5], [139.70052868141906, 35.68846536979195, 82.5], [139.70052959002328, 35.68846775566003, 82.5], [139.70053074498009, 35.68847006953672, 82.5], [139.70053213785678, 35.68847229452711, 82.5], [139.7005337584835, 35.688474414385546, 82.5], [139.70053559502668, 35.68847641363387, 82.5], [139.70053763407725, 35.68847827767436, 82.5], [139.7005398607468, 35.68847999289691, 82.5], [139.70054225877752, 35.68848154677767, 82.5], [139.70054243717252, 35.68848149101406, 82.5], [139.70056971598422, 35.688496601857494, 82.5], [139.70080985127566, 35.68853696178532, 82.5], [139.70077983740433, 35.68846291051475, 82.5], [139.70077565832585, 35.688453965052425, 82.5], [139.7007705395154, 35.68844535075963, 82.5], [139.70076451992705, 35.6884371331911, 82.5], [139.70075764537026, 35.68842937488268, 82.5]]]}, "properties": {"id": "d75511b8ca3646baba2dd62a2a552da6", "category": "B019", "floor_id": "6097dc940957462a87b579e85d30204c", "name": null, "restricted": "2", "suite": null, "nonpublic": "2", "toll": "3", "source": "2", "__floor": "4out", "__z_abs": 82.5, "__source_file": "ShinjukuTerminal_4out_Space.3d.geojson"}}, {"type": "Feature", "geometry": {"type": "Polygon", "coordinates": [[[139.7009477188645, 35.68866260709658, 82.5], [139.70095460320186, 35.688661011382976, 82.5], [139.70096129086642, 35.68865893224745, 82.5], [139.70096773096085, 35.68865638551353, 82.5], [139.70097387447214, 35.68865339056343, 82.5], [139.70097967464432, 35.68864997019058, 82.5], [139.7009850873346, 35.688646150426145, 82.5], [139.70099007134908, 35.68864196034087, 82.5], [139.7009945887564, 35.6886374318239, 82.5], [139.70099860517638, 35.68863259934005, 82.5], [139.70100209004178, 35.688627499667476, 82.5], [139.70100501683066, 35.68862217161783, 82.5], [139.70100736326847, 35.68861665574079, 82.5], [139.70100911149754, 35.68861099401558, 82.5], [139.70101936296356, 35.68857041412192, 82.5], [139.70093518659192, 35.6885561759825, 82.5], [139.70093474424652, 35.68855794851967, 82.5], [139.70092912691297, 35.688580244331405, 82.5], [139.70091363183107, 35.68864154614637, 82.5], [139.70091318602368, 35.68864331181672, 82.5], [139.70054816085045, 35.68858197195601, 82.5], [139.7005483610175, 35.688581179186016, 82.5], [139.70047872439784, 35.68856947711547, 82.5], [139.70047934807815, 35.6885721204319, 82.5], [139.70048025163678, 35.68857470937753, 82.5], [139.7004814282042, 35.6885772242692, 82.5], [139.70048286883528, 35.68857964598674, 82.5], [139.70048456257723, 35.688581956118384, 82.5], [139.70048649655297, 35.68858413710068, 82.5], [139.70048865605884, 35.68858617235213, 82.5], [139.70049102467675, 35.688588046399154, 82.5], [139.7004935843985, 35.688589744993806, 82.5], [139.7004963157631, 35.688591255222015, 82.5], [139.70049919800465, 35.68859256560185, 82.5], [139.7005022092101, 35.688593666170796, 82.5], [139.7005053264859, 35.68859454856145, 82.5], [139.70050852613207, 35.6885952060652, 82.5], [139.70091221072727, 35.6886630424213, 82.5], [139.70091927669145, 35.68866396977107, 82.5], [139.70092641483947, 35.68866439118374, 82.5], [139.7009335708457, 35.688664303452136, 82.5], [139.7009406902484, 35.688663707243904, 82.5], [139.7009477188645, 35.68866260709658, 82.5]]]}, "properties": {"id": "88668bfd4384412ba72a21ef79ea3fa8", "category": "B019", "floor_id": "6097dc940957462a87b579e85d30204c", "name": null, "restricted": "2", "suite": null, "nonpublic": "2", "toll": "3", "source": "2", "__floor": "4out", "__z_abs": 82.5, "__source_file": "ShinjukuTerminal_4out_Space.3d.geojson"}}]}