{"type": "FeatureCollection", "features": [{"type": "Feature", "geometry": {"type": "Polygon", "coordinates": [[[139.6986933282402, 35.68905137029063, 37.5], [139.6987261691845, 35.68905454692129, 37.5], [139.6987405615517, 35.6889555193949, 37.5], [139.698707804038, 35.688951768994954, 37.5], [139.6986933282402, 35.68905137029063, 37.5]]]}, "properties": {"id": "981f95ffbe234f729909df927e7985a0", "category": "2", "name": "ã°ã©ã³ãã¬ãã«", "ordinal": 0.0, "short_name": "1Få±å¤", "source": "2", "__floor": "0F", "__z_abs": 37.5}}, {"type": "Feature", "geometry": {"type": "Polygon", "coordinates": [[[139.699366427219, 35.69203684426272, 37.5], [139.69939995958106, 35.692144102325656, 37.5], [139.69942724727696, 35.69213970486877, 37.5], [139.69939597515764, 35.69203203062404, 37.5], [139.699366427219, 35.69203684426272, 37.5]]]}, "properties": {"id": "3713e89da00a4e6dbf1f193e2e634592", "category": "2", "name": "ã°ã©ã³ãã¬ãã«", "ordinal": 0.0, "short_name": "1Få±å¤", "source": "1", "__floor": "0F", "__z_abs": 37.5}}, {"type": "Feature", "geometry": {"type": "Polygon", "coordinates": [[[139.69902239269427, 35.692887793149744, 37.5], [139.69905250564153, 35.692889409988034, 37.5], [139.6990542110798, 35.6928682724065, 37.5], [139.69902409814043, 35.69286665556864, 37.5], [139.69902239269427, 35.692887793149744, 37.5]]]}, "properties": {"id": "81e6b7ec392b4729a8c0b6b6b92c7c78", "category": "2", "name": "ã°ã©ã³ãã¬ãã«", "ordinal": 0.0, "short_name": "1Få±å¤", "source": "2", "__floor": "0F", "__z_abs": 37.5}}, {"type": "Feature", "geometry": {"type": "Polygon", "coordinates": [[[139.70107020526962, 35.693479126457014, 37.5], [139.7010768151373, 35.69350565857876, 37.5], [139.7011280952936, 35.69349715701821, 37.5], [139.70112148540966, 35.693470624899135, 37.5], [139.70107020526962, 35.693479126457014, 37.5]]]}, "properties": {"id": "42c7870c402240a2a4c9d8015ad8b217", "category": "2", "name": "ã°ã©ã³ãã¬ãã«", "ordinal": 0.0, "short_name": "1Få±å¤", "source": "2", "__floor": "0F", "__z_abs": 37.5}}, {"type": "Feature", "geometry": {"type": "Polygon", "coordinates": [[[139.69681164285004, 35.68744880542474, 37.5], [139.6968435200128, 35.687462239078926, 37.5], [139.69686814492113, 35.6874233049619, 37.5], [139.69680205083526, 35.68739578858993, 37.5], [139.69676926190743, 35.68744696453932, 37.5], [139.69680070789028, 35.68746022217825, 37.5], [139.69681687437196, 35.68743360092678, 37.5], [139.69682063865355, 35.68743488607219, 37.5], [139.69681164285004, 35.68744880542474, 37.5]]]}, "properties": {"id": "c6e9e12891d84cfca818280a2341e3c4", "category": "2", "name": "ã°ã©ã³ãã¬ãã«", "ordinal": 0.0, "short_name": "1Få±å¤", "source": "1", "__floor": "0F", "__z_abs": 37.5}}, {"type": "Feature", "geometry": {"type": "Polygon", "coordinates": [[[139.69666512287623, 35.68801319564743, 37.5], [139.69662443164236, 35.688010606097656, 37.5], [139.6966180215385, 35.68811429816718, 37.5], [139.69665519798414, 35.68811699341826, 37.5], [139.69666512287623, 35.68801319564743, 37.5]]]}, "properties": {"id": "0cadd442fcf548b4b5c9135ce42d8e18", "category": "2", "name": "ã°ã©ã³ãã¬ãã«", "ordinal": 0.0, "short_name": "1Få±å¤", "source": "1", "__floor": "0F", "__z_abs": 37.5}}, {"type": "Feature", "geometry": {"type": "Polygon", "coordinates": [[[139.7015398038684, 35.69341370604284, 37.5], [139.70158388577377, 35.693403902992195, 37.5], [139.70157515666963, 35.6933777817135, 37.5], [139.70153107477753, 35.69338758476101, 37.5], [139.7015398038684, 35.69341370604284, 37.5]]]}, "properties": {"id": "18c0c6c47b24410982ccf10b38831611", "category": "2", "name": "ã°ã©ã³ãã¬ãã«", "ordinal": 0.0, "short_name": "1Få±å¤", "source": "2", "__floor": "0F", "__z_abs": 37.5}}, {"type": "Feature", "geometry": {"type": "Polygon", "coordinates": [[[139.6989213879808, 35.69022204804041, 37.5], [139.69895927642636, 35.69022588038652, 37.5], [139.6989646385442, 35.690190599454404, 37.5], [139.69892610462696, 35.69018779324904, 37.5], [139.6989213879808, 35.69022204804041, 37.5]]]}, "properties": {"id": "50d0d6f525604001b3e8fed300835d6a", "category": "2", "name": "ã°ã©ã³ãã¬ãã«", "ordinal": 0.0, "short_name": "1Få±å¤", "source": "1", "__floor": "0F", "__z_abs": 37.5}}, {"type": "Feature", "geometry": {"type": "Polygon", "coordinates": [[[139.70121631771633, 35.6937517288988, 37.5], [139.70116585137805, 35.69376301561186, 37.5], [139.7011746267675, 35.69378912657572, 37.5], [139.7012250931209, 35.6937778398589, 37.5], [139.70121631771633, 35.6937517288988, 37.5]]]}, "properties": {"id": "b71c671769d64489b6aea8f0f95caa99", "category": "2", "name": "ã°ã©ã³ãã¬ãã«", "ordinal": 0.0, "short_name": "1Få±å¤", "source": "2", "__floor": "0F", "__z_abs": 37.5}}, {"type": "Feature", "geometry": {"type": "Polygon", "coordinates": [[[139.70219092721402, 35.69229549994855, 37.5], [139.70221192448673, 35.69233132483828, 37.5], [139.70224186674477, 35.69231964597435, 37.5], [139.70222086946194, 35.692283821089624, 37.5], [139.70219092721402, 35.69229549994855, 37.5]]]}, "properties": {"id": "1800e7c47570445286f8c6efab49b508", "category": "2", "name": "ã°ã©ã³ãã¬ãã«", "ordinal": 0.0, "short_name": "1Få±å¤", "source": "2", "__floor": "0F", "__z_abs": 37.5}}, {"type": "Feature", "geometry": {"type": "Polygon", "coordinates": [[[139.69874738038195, 35.692247532002966, 37.5], [139.69874539713564, 35.69223744377568, 37.5], [139.69874341388984, 35.692227355548376, 37.5], [139.69864194329338, 35.69224110650643, 37.5], [139.69864399570253, 35.69225118536093, 37.5], [139.69864604811227, 35.692261264215375, 37.5], [139.69874738038195, 35.692247532002966, 37.5]]]}, "properties": {"id": "a2c6fd4c97764a93b85e912a2b91c881", "category": "2", "name": "ã°ã©ã³ãã¬ãã«", "ordinal": 0.0, "short_name": "1Få±å¤", "source": "1", "__floor": "0F", "__z_abs": 37.5}}, {"type": "Feature", "geometry": {"type": "Polygon", "coordinates": [[[139.70322937964966, 35.69328325010434, 37.5], [139.70317962723186, 35.69329647823173, 37.5], [139.7031899120035, 35.69332221997097, 37.5], [139.70323966443564, 35.693308991839494, 37.5], [139.70322937964966, 35.69328325010434, 37.5]]]}, "properties": {"id": "ad54f1dcafcd4a6986139a5b8f968c35", "category": "2", "name": "ã°ã©ã³ãã¬ãã«", "ordinal": 0.0, "short_name": "1Få±å¤", "source": "2", "__floor": "0F", "__z_abs": 37.5}}, {"type": "Feature", "geometry": {"type": "Polygon", "coordinates": [[[139.701673229451, 35.693677613839135, 37.5], [139.70172369566458, 35.693666326912926, 37.5], [139.70171492010954, 35.69364021598825, 37.5], [139.70166477399283, 35.69365143132367, 37.5], [139.701673229451, 35.693677613839135, 37.5]]]}, "properties": {"id": "9fe75a0f69ea4a4cb1e9f545224ebdc2", "category": "2", "name": "ã°ã©ã³ãã¬ãã«", "ordinal": 0.0, "short_name": "1Få±å¤", "source": "2", "__floor": "0F", "__z_abs": 37.5}}, {"type": "Feature", "geometry": {"type": "Polygon", "coordinates": [[[139.6990864201723, 35.691908589143566, 37.5], [139.69915529028495, 35.691912696753, 37.5], [139.6991577340265, 35.6918854295001, 37.5], [139.69908886393713, 35.69188132189209, 37.5], [139.6990864201723, 35.691908589143566, 37.5]]]}, "properties": {"id": "5b9a5f7a09594808a38028855e90cdaf", "category": "2", "name": "ã°ã©ã³ãã¬ãã«", "ordinal": 0.0, "short_name": "1Få±å¤", "source": "1", "__floor": "0F", "__z_abs": 37.5}}, {"type": "Feature", "geometry": {"type": "Polygon", "coordinates": [[[139.70148903626867, 35.69212395318364, 37.5], [139.70144854061604, 35.692138973497755, 37.5], [139.70146305062687, 35.692162489533985, 37.5], [139.70150299648938, 35.69214808933426, 37.5], [139.70148903626867, 35.69212395318364, 37.5]]]}, "properties": {"id": "b4023e7fa821444ca93e8069c62076bb", "category": "2", "name": "ã°ã©ã³ãã¬ãã«", "ordinal": 0.0, "short_name": "1Få±å¤", "source": "1", "__floor": "0F", "__z_abs": 37.5}}, {"type": "Feature", "geometry": {"type": "Polygon", "coordinates": [[[139.69932012057757, 35.691023570384026, 37.5], [139.69931751142525, 35.691012589257774, 37.5], [139.69935325633304, 35.691006596938266, 37.5], [139.6993622428403, 35.69097468864661, 37.5], [139.6993911462798, 35.690872061345594, 37.5], [139.69941285790588, 35.69079487560474, 37.5], [139.69943556981508, 35.69062235874472, 37.5], [139.69940112612767, 35.690619167792, 37.5], [139.69936668244304, 35.69061597682942, 37.5], [139.69933176533542, 35.69086680743662, 37.5], [139.69931940878553, 35.690869253657254, 37.5], [139.69930745613945, 35.69096004327488, 37.5], [139.69926013625332, 35.69095048229822, 37.5], [139.69924399722314, 35.69095582499279, 37.5], [139.69926512744047, 35.691031712830764, 37.5], [139.69932012057757, 35.691023570384026, 37.5]]]}, "properties": {"id": "a2f6146ebb8b42c19da5de5596f060dd", "category": "2", "name": "ã°ã©ã³ãã¬ãã«", "ordinal": 0.0, "short_name": "1Få±å¤", "source": "1", "__floor": "0F", "__z_abs": 37.5}}, {"type": "Feature", "geometry": {"type": "Polygon", "coordinates": [[[139.701260626973, 35.69081899856162, 37.5], [139.70125794931036, 35.690836869119416, 37.5], [139.7012820829466, 35.69083927566557, 37.5], [139.70128476060407, 35.690821405107414, 37.5], [139.701260626973, 35.69081899856162, 37.5]]]}, "properties": {"id": "a25af2dc8b354717b00eab0668356f1ba25af2dc8b354717b00eab0668356f1b", "category": "2", "name": "ã°ã©ã³ãã¬ãã«", "ordinal": 0.0, "short_name": "1Få±å¤", "source": "1", "__floor": "0F", "__z_abs": 37.5}}, {"type": "Feature", "geometry": {"type": "Polygon", "coordinates": [[[139.70033182907875, 35.694150472241795, 37.5], [139.70031202327732, 35.694146939618264, 37.5], [139.70029310804767, 35.694217510204794, 37.5], [139.7003129138657, 35.69422104283144, 37.5], [139.70033182907875, 35.694150472241795, 37.5]]]}, "properties": {"id": "6775064755c54f25867d73659f38b037", "category": "2", "name": "ã°ã©ã³ãã¬ãã«", "ordinal": 0.0, "short_name": "1Få±å¤", "source": "1", "__floor": "0F", "__z_abs": 37.5}}, {"type": "Feature", "geometry": {"type": "Polygon", "coordinates": [[[139.7002234008267, 35.69406415232124, 37.5], [139.70022882676332, 35.694036892439065, 37.5], [139.70017717437702, 35.69403005081758, 37.5], [139.7001717484906, 35.694057310706405, 37.5], [139.7002234008267, 35.69406415232124, 37.5]]]}, "properties": {"id": "c90af6b4f26644ed8b28ef337e229b71", "category": "2", "name": "ã°ã©ã³ãã¬ãã«", "ordinal": 0.0, "short_name": "1Få±å¤", "source": "1", "__floor": "0F", "__z_abs": 37.5}}, {"type": "Feature", "geometry": {"type": "Polygon", "coordinates": [[[139.70221628288073, 35.69251868841235, 37.5], [139.70218634054447, 35.692530367269505, 37.5], [139.7022073378762, 35.69256619215889, 37.5], [139.7022372802229, 35.69255451329655, 37.5], [139.70221628288073, 35.69251868841235, 37.5]]]}, "properties": {"id": "9c36885ef54a4406b9b53d1ef5c54277", "category": "2", "name": "ã°ã©ã³ãã¬ãã«", "ordinal": 0.0, "short_name": "1Få±å¤", "source": "2", "__floor": "0F", "__z_abs": 37.5}}, {"type": "Feature", "geometry": {"type": "Polygon", "coordinates": [[[139.7017157094529, 35.69101117974843, 37.5], [139.70174179822283, 35.69101367659446, 37.5], [139.7017553722763, 35.69090759780009, 37.5], [139.70172904251484, 35.69090553127945, 37.5], [139.7017157094529, 35.69101117974843, 37.5]]]}, "properties": {"id": "38737b3c319a4b7a89b389acb308010b", "category": "2", "name": "ã°ã©ã³ãã¬ãã«", "ordinal": 0.0, "short_name": "1Få±å¤", "source": "1", "__floor": "0F", "__z_abs": 37.5}}, {"type": "Feature", "geometry": {"type": "Polygon", "coordinates": [[[139.70246037814047, 35.69293515245425, 37.5], [139.7024304356836, 35.692946831371096, 37.5], [139.70245143323325, 35.69298265621574, 37.5], [139.70248137570024, 35.69297097729389, 37.5], [139.70246037814047, 35.69293515245425, 37.5]]]}, "properties": {"id": "bbf17a40b25d4e2e8e7f37a77f8bafc6", "category": "2", "name": "ã°ã©ã³ãã¬ãã«", "ordinal": 0.0, "short_name": "1Få±å¤", "source": "2", "__floor": "0F", "__z_abs": 37.5}}, {"type": "Feature", "geometry": {"type": "Polygon", "coordinates": [[[139.6988417581875, 35.69023754788011, 37.5], [139.69881100502198, 35.69023440317962, 37.5], [139.69879429487003, 35.69036844660191, 37.5], [139.69882497581446, 35.69037095374399, 37.5], [139.6988417581875, 35.69023754788011, 37.5]]]}, "properties": {"id": "98bc34afa39c47c79a92c9263976919e", "category": "2", "name": "ã°ã©ã³ãã¬ãã«", "ordinal": 0.0, "short_name": "1Få±å¤", "source": "1", "__floor": "0F", "__z_abs": 37.5}}, {"type": "Feature", "geometry": {"type": "Polygon", "coordinates": [[[139.70217444993682, 35.69353743958821, 37.5], [139.70218322563062, 35.69356355048017, 37.5], [139.70222622315032, 35.69355393374235, 37.5], [139.70221744744356, 35.69352782285341, 37.5], [139.70217444993682, 35.69353743958821, 37.5]]]}, "properties": {"id": "a468264e061d4ea588b90a48915e83e1", "category": "2", "name": "ã°ã©ã³ãã¬ãã«", "ordinal": 0.0, "short_name": "1Få±å¤", "source": "2", "__floor": "0F", "__z_abs": 37.5}}, {"type": "Feature", "geometry": {"type": "Polygon", "coordinates": [[[139.70082367180044, 35.69352046163442, 37.5], [139.7007901292826, 35.69352602244578, 37.5], [139.7007624483566, 35.69352877427354, 37.5], [139.7007664636701, 35.69355564988938, 37.5], [139.7007954499952, 35.69355276828866, 37.5], [139.70083020897846, 35.69354700580715, 37.5], [139.70082367180044, 35.69352046163442, 37.5]]]}, "properties": {"id": "b0e95890af634297b1db130372246796", "category": "2", "name": "ã°ã©ã³ãã¬ãã«", "ordinal": 0.0, "short_name": "1Få±å¤", "source": "2", "__floor": "0F", "__z_abs": 37.5}}, {"type": "Feature", "geometry": {"type": "Polygon", "coordinates": [[[139.69857569194176, 35.69007985366364, 37.5], [139.69854354392578, 35.69006518916199, 37.5], [139.6984517673485, 35.690155647758885, 37.5], [139.6984839153838, 35.69017031228463, 37.5], [139.69857569194176, 35.69007985366364, 37.5]]]}, "properties": {"id": "9d26c8d42f704b0ca467158f531bb21b", "category": "2", "name": "ã°ã©ã³ãã¬ãã«", "ordinal": 0.0, "short_name": "1Få±å¤", "source": "1", "__floor": "0F", "__z_abs": 37.5}}, {"type": "Feature", "geometry": {"type": "Polygon", "coordinates": [[[139.7004676179223, 35.6933913645364, 37.5], [139.70044148667785, 35.69340805644333, 37.5], [139.7004675437969, 35.69343605747537, 37.5], [139.7004937407819, 35.69341857904265, 37.5], [139.7004676179223, 35.6933913645364, 37.5]]]}, "properties": {"id": "400ea6141c9044d4bbda261e1688f579", "category": "2", "name": "ã°ã©ã³ãã¬ãã«", "ordinal": 0.0, "short_name": "1Få±å¤", "source": "2", "__floor": "0F", "__z_abs": 37.5}}, {"type": "Feature", "geometry": {"type": "Polygon", "coordinates": [[[139.70119917886137, 35.690812871086145, 37.5], [139.7011965011851, 35.69083074164237, 37.5], [139.7012206748039, 35.690833152188404, 37.5], [139.70122331248874, 35.690815277644184, 37.5], [139.70119917886137, 35.690812871086145, 37.5]]]}, "properties": {"id": "ca5fcafd4eb6401b97d2cdb9697717b5", "category": "2", "name": "ã°ã©ã³ãã¬ãã«", "ordinal": 0.0, "short_name": "1Få±å¤", "source": "1", "__floor": "0F", "__z_abs": 37.5}}, {"type": "Feature", "geometry": {"type": "Polygon", "coordinates": [[[139.70187492371332, 35.68913663892065, 37.5], [139.7018782822256, 35.689122337285895, 37.5], [139.70188693071137, 35.689084776151205, 37.5], [139.70167398974226, 35.689052144680936, 37.5], [139.7016653411603, 35.68908970580034, 37.5], [139.70166196497794, 35.68910313561036, 37.5], [139.70165901789818, 35.68911716794452, 37.5], [139.70187195903387, 35.68914979944126, 37.5], [139.70187492371332, 35.68913663892065, 37.5]]]}, "properties": {"id": "8e37d93960a54f18bb8d7088251e0688", "category": "2", "name": "ã°ã©ã³ãã¬ãã«", "ordinal": 0.0, "short_name": "1Få±å¤", "source": "1", "__floor": "0F", "__z_abs": 37.5}}, {"type": "Feature", "geometry": {"type": "Polygon", "coordinates": [[[139.69791521699887, 35.69234131915059, 37.5], [139.69793261360627, 35.6923545897042, 37.5], [139.6980327156966, 35.692273403551745, 37.5], [139.69801122576968, 35.692261396406195, 37.5], [139.69791521699887, 35.69234131915059, 37.5]]]}, "properties": {"id": "cdf16557dcba4f33abcfeff498f3b902", "category": "2", "name": "ã°ã©ã³ãã¬ãã«", "ordinal": 0.0, "short_name": "1Få±å¤", "source": "1", "__floor": "0F", "__z_abs": 37.5}}, {"type": "Feature", "geometry": {"type": "Polygon", "coordinates": [[[139.69904996757413, 35.69159677923128, 37.5], [139.6989639654342, 35.69159164970405, 37.5], [139.69896586911912, 35.69157040888043, 37.5], [139.69892889552185, 35.69156820360716, 37.5], [139.69892699182597, 35.69158944444346, 37.5], [139.69892457735406, 35.69161638434016, 37.5], [139.69904761379496, 35.69162304238808, 37.5], [139.69904996757413, 35.69159677923128, 37.5]]]}, "properties": {"id": "335e0b1b589b464db72c4eeea6ce5559", "category": "2", "name": "ã°ã©ã³ãã¬ãã«", "ordinal": 0.0, "short_name": "1Få±å¤", "source": "1", "__floor": "0F", "__z_abs": 37.5}}, {"type": "Feature", "geometry": {"type": "Polygon", "coordinates": [[[139.69816281457867, 35.69094449550253, 37.5], [139.69819572207732, 35.690946137839916, 37.5], [139.6982047345073, 35.69085129381129, 37.5], [139.698171868486, 35.69084921539118, 37.5], [139.69816281457867, 35.69094449550253, 37.5]]]}, "properties": {"id": "356aa63f4faf4ab79afb5ca6eb1adf74", "category": "2", "name": "ã°ã©ã³ãã¬ãã«", "ordinal": 0.0, "short_name": "1Få±å¤", "source": "1", "__floor": "0F", "__z_abs": 37.5}}, {"type": "Feature", "geometry": {"type": "Polygon", "coordinates": [[[139.69921016312296, 35.694223088090084, 37.5], [139.6992153844092, 35.69420924428884, 37.5], [139.69906743086923, 35.6941721108072, 37.5], [139.69906192520756, 35.69418565989435, 37.5], [139.69921016312296, 35.694223088090084, 37.5]]]}, "properties": {"id": "344e08de69344f0698cc2cdc8cd76117", "category": "2", "name": "ã°ã©ã³ãã¬ãã«", "ordinal": 0.0, "short_name": "1Få±å¤", "source": "2", "__floor": "0F", "__z_abs": 37.5}}, {"type": "Feature", "geometry": {"type": "Polygon", "coordinates": [[[139.6988595180983, 35.689904142195296, 37.5], [139.69888991923347, 35.689916027729616, 37.5], [139.6988977760608, 35.68989569991539, 37.5], [139.6989060865585, 35.68982016709747, 37.5], [139.6988733812434, 35.689816858961535, 37.5], [139.69886565666138, 35.689887066226206, 37.5], [139.6988595180983, 35.689904142195296, 37.5]]]}, "properties": {"id": "ae7e6adfdbbd42c7828e3bef1d69e543", "category": "2", "name": "ã°ã©ã³ãã¬ãã«", "ordinal": 0.0, "short_name": "1Få±å¤", "source": "2", "__floor": "0F", "__z_abs": 37.5}}, {"type": "Feature", "geometry": {"type": "Polygon", "coordinates": [[[139.70234422876752, 35.69249429223214, 37.5], [139.7023150350168, 35.692505679149, 37.5], [139.7023346007594, 35.692539061411814, 37.5], [139.70236379451967, 35.69252767449017, 37.5], [139.70234422876752, 35.69249429223214, 37.5]]]}, "properties": {"id": "11fa9ed9929d4775b40d9265c770210d", "category": "2", "name": "ã°ã©ã³ãã¬ãã«", "ordinal": 0.0, "short_name": "1Få±å¤", "source": "2", "__floor": "0F", "__z_abs": 37.5}}, {"type": "Feature", "geometry": {"type": "Polygon", "coordinates": [[[139.69881007140106, 35.692239036279304, 37.5], [139.6988854753043, 35.69222881769304, 37.5], [139.69888137042682, 35.69220865999201, 37.5], [139.698805966542, 35.692218878575794, 37.5], [139.69881007140106, 35.692239036279304, 37.5]]]}, "properties": {"id": "360676a5b98f46d880ebc2b63b4f7f60", "category": "2", "name": "ã°ã©ã³ãã¬ãã«", "ordinal": 0.0, "short_name": "1Få±å¤", "source": "1", "__floor": "0F", "__z_abs": 37.5}}, {"type": "Feature", "geometry": {"type": "Polygon", "coordinates": [[[139.70181230934287, 35.68918037052115, 37.5], [139.7018434744338, 35.68918514629814, 37.5], [139.7018498588304, 35.6891574183817, 37.5], [139.70181869374989, 35.689152642606345, 37.5], [139.70181230934287, 35.68918037052115, 37.5]]]}, "properties": {"id": "e192311f49a14906af29efb86160f2e7", "category": "2", "name": "ã°ã©ã³ãã¬ãã«", "ordinal": 0.0, "short_name": "1Få±å¤", "source": "1", "__floor": "0F", "__z_abs": 37.5}}, {"type": "Feature", "geometry": {"type": "Polygon", "coordinates": [[[139.70085458123685, 35.69383309801752, 37.5], [139.70081265034787, 35.6938424756479, 37.5], [139.7008214256307, 35.693868586636995, 37.5], [139.70086335653218, 35.69385920900362, 37.5], [139.70085458123685, 35.69383309801752, 37.5]]]}, "properties": {"id": "0542dfbbf5d042fabc4899e3b89729f4", "category": "2", "name": "ã°ã©ã³ãã¬ãã«", "ordinal": 0.0, "short_name": "1Få±å¤", "source": "2", "__floor": "0F", "__z_abs": 37.5}}, {"type": "Feature", "geometry": {"type": "Polygon", "coordinates": [[[139.70241038404674, 35.69319204264695, 37.5], [139.7023598981849, 35.693203270227556, 37.5], [139.70236867391225, 35.6932293811348, 37.5], [139.7024191597892, 35.69321815355061, 37.5], [139.70241038404674, 35.69319204264695, 37.5]]]}, "properties": {"id": "9270328a2f2a48f9947731ff39ad19d0", "category": "2", "name": "ã°ã©ã³ãã¬ãã«", "ordinal": 0.0, "short_name": "1Få±å¤", "source": "2", "__floor": "0F", "__z_abs": 37.5}}, {"type": "Feature", "geometry": {"type": "Polygon", "coordinates": [[[139.70253177432846, 35.692814273251265, 37.5], [139.7025018319273, 35.69282595218607, 37.5], [139.70252139782576, 35.69285933441694, 37.5], [139.7025513402366, 35.69284765547728, 37.5], [139.70253177432846, 35.692814273251265, 37.5]]]}, "properties": {"id": "9518654c6cc74810b0006ba2c75be367", "category": "2", "name": "ã°ã©ã³ãã¬ãã«", "ordinal": 0.0, "short_name": "1Få±å¤", "source": "2", "__floor": "0F", "__z_abs": 37.5}}, {"type": "Feature", "geometry": {"type": "Polygon", "coordinates": [[[139.7016969254579, 35.689520995142914, 37.5], [139.70170208170188, 35.689501697552174, 37.5], [139.7015521325077, 35.68947499670093, 37.5], [139.70154617126283, 35.68949667068686, 37.5], [139.70153089533505, 35.68955186279919, 37.5], [139.70168294436598, 35.68957639562076, 37.5], [139.7016969254579, 35.689520995142914, 37.5]]]}, "properties": {"id": "cb3e506f3a62497aa70bc4307a62479e", "category": "2", "name": "ã°ã©ã³ãã¬ãã«", "ordinal": 0.0, "short_name": "1Få±å¤", "source": "1", "__floor": "0F", "__z_abs": 37.5}}, {"type": "Feature", "geometry": {"type": "Polygon", "coordinates": [[[139.70151081789652, 35.68959789043378, 37.5], [139.7015378794797, 35.68960240753506, 37.5], [139.70154319501322, 35.68958121376312, 37.5], [139.70151613343685, 35.68957669666301, 37.5], [139.70151081789652, 35.68959789043378, 37.5]]]}, "properties": {"id": "9c3f9fd9db5445eab68582e015143e73", "category": "2", "name": "ã°ã©ã³ãã¬ãã«", "ordinal": 0.0, "short_name": "1Få±å¤", "source": "1", "__floor": "0F", "__z_abs": 37.5}}, {"type": "Feature", "geometry": {"type": "Polygon", "coordinates": [[[139.69824025031096, 35.69185632577446, 37.5], [139.69837959976314, 35.69186490908815, 37.5], [139.69838148206136, 35.691840618017515, 37.5], [139.69824257713182, 35.69183206207603, 37.5], [139.69824025031096, 35.69185632577446, 37.5]]]}, "properties": {"id": "a723d09f64f4400ca923baedf156f6b8", "category": "2", "name": "ã°ã©ã³ãã¬ãã«", "ordinal": 0.0, "short_name": "1Få±å¤", "source": "1", "__floor": "0F", "__z_abs": 37.5}}, {"type": "Feature", "geometry": {"type": "Polygon", "coordinates": [[[139.6980325953188, 35.6921546374708, 37.5], [139.69806431701457, 35.69215652972144, 37.5], [139.69806666867615, 35.69213029398828, 37.5], [139.69803493650284, 35.69212851874301, 37.5], [139.6980325953188, 35.6921546374708, 37.5]]]}, "properties": {"id": "304be4598f0e4ba79e10b90e759a40ce", "category": "2", "name": "ã°ã©ã³ãã¬ãã«", "ordinal": 0.0, "short_name": "1Få±å¤", "source": "1", "__floor": "0F", "__z_abs": 37.5}}, {"type": "Feature", "geometry": {"type": "Polygon", "coordinates": [[[139.69824909927783, 35.69176405014942, 37.5], [139.69838680707133, 35.69177189864752, 37.5], [139.69838880172287, 35.691746157594636, 37.5], [139.69825156385392, 35.69173834990163, 37.5], [139.69824909927783, 35.69176405014942, 37.5]]]}, "properties": {"id": "253511d7499846cdb8684c55e079d847", "category": "2", "name": "ã°ã©ã³ãã¬ãã«", "ordinal": 0.0, "short_name": "1Få±å¤", "source": "1", "__floor": "0F", "__z_abs": 37.5}}, {"type": "Feature", "geometry": {"type": "Polygon", "coordinates": [[[139.70130899168748, 35.69077002306641, 37.5], [139.7013023656095, 35.69081424539473, 37.5], [139.70133927933645, 35.69081793117935, 37.5], [139.70134635307122, 35.69077373757093, 37.5], [139.70130899168748, 35.69077002306641, 37.5]]]}, "properties": {"id": "9ccd8f92ca62478ab56c48485b490447", "category": "2", "name": "ã°ã©ã³ãã¬ãã«", "ordinal": 0.0, "short_name": "1Få±å¤", "source": "1", "__floor": "0F", "__z_abs": 37.5}}, {"type": "Feature", "geometry": {"type": "Polygon", "coordinates": [[[139.69962752650144, 35.688592834811686, 37.5], [139.69963878811507, 35.68856583462581, 37.5], [139.69958451161193, 35.68855091483517, 37.5], [139.69956059558936, 35.688609867930154, 37.5], [139.69959609443995, 35.68861880506136, 37.5], [139.69960867790482, 35.68858798940284, 37.5], [139.69962752650144, 35.688592834811686, 37.5]]]}, "properties": {"id": "964218e83573458db9927636d2b50d37", "category": "2", "name": "ã°ã©ã³ãã¬ãã«", "ordinal": 0.0, "short_name": "1Få±å¤", "source": "1", "__floor": "0F", "__z_abs": 37.5}}, {"type": "Feature", "geometry": {"type": "Polygon", "coordinates": [[[139.6982656777387, 35.690180090786185, 37.5], [139.69838984973046, 35.690185122755985, 37.5], [139.69839111533844, 35.690164337676705, 37.5], [139.6982666915225, 35.69015929550185, 37.5], [139.6982656777387, 35.690180090786185, 37.5]]]}, "properties": {"id": "ee5b8e1e622242d3b7b93baa8a31e642", "category": "2", "name": "ã°ã©ã³ãã¬ãã«", "ordinal": 0.0, "short_name": "1Få±å¤", "source": "1", "__floor": "0F", "__z_abs": 37.5}}, {"type": "Feature", "geometry": {"type": "Polygon", "coordinates": [[[139.7017057979006, 35.69108971668669, 37.5], [139.70169501536282, 35.69117515494088, 37.5], [139.7017211491309, 35.691177349871666, 37.5], [139.701731931641, 35.69109191161522, 37.5], [139.7017057979006, 35.69108971668669, 37.5]]]}, "properties": {"id": "cf91ac4e10774a2799e10b0f9b80974b", "category": "2", "name": "ã°ã©ã³ãã¬ãã«", "ordinal": 0.0, "short_name": "1Få±å¤", "source": "1", "__floor": "0F", "__z_abs": 37.5}}, {"type": "Feature", "geometry": {"type": "Polygon", "coordinates": [[[139.69906192520756, 35.69418565989435, 37.5], [139.69905658757082, 35.694198795478016, 37.5], [139.69920517560317, 35.69423631207462, 37.5], [139.69921016312296, 35.694223088090084, 37.5], [139.69906192520756, 35.69418565989435, 37.5]]]}, "properties": {"id": "ee6cc503d2be4c4a94e7e401f8973f36", "category": "2", "name": "ã°ã©ã³ãã¬ãã«", "ordinal": 0.0, "short_name": "1Få±å¤", "source": "2", "__floor": "0F", "__z_abs": 37.5}}, {"type": "Feature", "geometry": {"type": "Polygon", "coordinates": [[[139.69938564166833, 35.69191636805016, 37.5], [139.69940639722313, 35.69191345554838, 37.5], [139.69937313888983, 35.69180198054836, 37.5], [139.69935315694653, 35.69180673749448, 37.5], [139.6993331750009, 35.691811494437246, 37.5], [139.69936488611205, 35.69191928054837, 37.5], [139.69938564166833, 35.69191636805016, 37.5]]]}, "properties": {"id": "069e0ab151324cb7ad58376a4111b521", "category": "2", "name": "ã°ã©ã³ãã¬ãã«", "ordinal": 0.0, "short_name": "1Få±å¤", "source": "1", "__floor": "0F", "__z_abs": 37.5}}, {"type": "Feature", "geometry": {"type": "Polygon", "coordinates": [[[139.70173177334098, 35.69204565081465, 37.5], [139.7017476563006, 35.692072508996986, 37.5], [139.70177527390237, 35.692061606779866, 37.5], [139.70175938846538, 35.69203474518219, 37.5], [139.70173177334098, 35.69204565081465, 37.5]]]}, "properties": {"id": "328def3f14ef4355a8ad4c8685ee01af", "category": "2", "name": "ã°ã©ã³ãã¬ãã«", "ordinal": 0.0, "short_name": "1Få±å¤", "source": "1", "__floor": "0F", "__z_abs": 37.5}}, {"type": "Feature", "geometry": {"type": "Polygon", "coordinates": [[[139.69925752934216, 35.69149522440614, 37.5], [139.69927310974893, 35.69156003125179, 37.5], [139.69930987743075, 35.69155414861965, 37.5], [139.69929429699533, 35.691489341778635, 37.5], [139.69925752934216, 35.69149522440614, 37.5]]]}, "properties": {"id": "cb8d122e617f45289fe1c2a0c08e06d9", "category": "2", "name": "ã°ã©ã³ãã¬ãã«", "ordinal": 0.0, "short_name": "1Få±å¤", "source": "1", "__floor": "0F", "__z_abs": 37.5}}, {"type": "Feature", "geometry": {"type": "Polygon", "coordinates": [[[139.69758648662514, 35.69262630144099, 37.5], [139.6975698536345, 35.69261288221695, 37.5], [139.6974505842482, 35.69271126180699, 37.5], [139.69746726033966, 35.69272471583795, 37.5], [139.69758648662514, 35.69262630144099, 37.5]]]}, "properties": {"id": "acbab86d05ab4a7fbe8107e12dbc37a3", "category": "2", "name": "ã°ã©ã³ãã¬ãã«", "ordinal": 0.0, "short_name": "1Få±å¤", "source": "1", "__floor": "0F", "__z_abs": 37.5}}, {"type": "Feature", "geometry": {"type": "Polygon", "coordinates": [[[139.69904823501994, 35.691813605839386, 37.5], [139.6991398420834, 35.69181906957206, 37.5], [139.69914231380722, 35.6917914901191, 37.5], [139.69905058705865, 35.69178601924805, 37.5], [139.69904823501994, 35.691813605839386, 37.5]]]}, "properties": {"id": "c721d50c646e466fa7f83f33883dd639", "category": "2", "name": "ã°ã©ã³ãã¬ãã«", "ordinal": 0.0, "short_name": "1Få±å¤", "source": "1", "__floor": "0F", "__z_abs": 37.5}}, {"type": "Feature", "geometry": {"type": "Polygon", "coordinates": [[[139.70016072011958, 35.694112717541465, 37.5], [139.7002123724905, 35.69411955916088, 37.5], [139.70021769179252, 35.69409283475673, 37.5], [139.7001660394078, 35.69408599329316, 37.5], [139.70016072011958, 35.694112717541465, 37.5]]]}, "properties": {"id": "25f64f7b10ca49d795ac2bad4c0572d7", "category": "2", "name": "ã°ã©ã³ãã¬ãã«", "ordinal": 0.0, "short_name": "1Få±å¤", "source": "2", "__floor": "0F", "__z_abs": 37.5}}, {"type": "Feature", "geometry": {"type": "Polygon", "coordinates": [[[139.70210437690753, 35.692327757998996, 37.5], [139.7020744346263, 35.69233943682866, 37.5], [139.70209400022827, 35.69237281913109, 37.5], [139.70212394251905, 35.69236114029666, 37.5], [139.70210437690753, 35.692327757998996, 37.5]]]}, "properties": {"id": "53f31d030c7f4c9aacc73b2abe1d2b77", "category": "2", "name": "ã°ã©ã³ãã¬ãã«", "ordinal": 0.0, "short_name": "1Få±å¤", "source": "2", "__floor": "0F", "__z_abs": 37.5}}, {"type": "Feature", "geometry": {"type": "Polygon", "coordinates": [[[139.70165599851572, 35.691486515796214, 37.5], [139.7016943690223, 35.69149025417237, 37.5], [139.70170091953992, 35.69144678257882, 37.5], [139.70166220996603, 35.69144294565075, 37.5], [139.70165599851572, 35.691486515796214, 37.5]]]}, "properties": {"id": "fdce60fcd697438d903cd73f80ea36bd", "category": "2", "name": "ã°ã©ã³ãã¬ãã«", "ordinal": 0.0, "short_name": "1Få±å¤", "source": "1", "__floor": "0F", "__z_abs": 37.5}}, {"type": "Feature", "geometry": {"type": "Polygon", "coordinates": [[[139.7016790024187, 35.69189645166168, 37.5], [139.7016512907545, 35.69190723413555, 37.5], [139.70166477149, 35.691930378187685, 37.5], [139.7016924831257, 35.69191960473266, 37.5], [139.7016790024187, 35.69189645166168, 37.5]]]}, "properties": {"id": "e5781aa405ea4ce6ab784cc361bbb925", "category": "2", "name": "ã°ã©ã³ãã¬ãã«", "ordinal": 0.0, "short_name": "1Få±å¤", "source": "1", "__floor": "0F", "__z_abs": 37.5}}, {"type": "Feature", "geometry": {"type": "Polygon", "coordinates": [[[139.70304109706728, 35.693333310373866, 37.5], [139.70299555198596, 35.69334541977287, 37.5], [139.70300583670462, 35.6933711615274, 37.5], [139.70305134975752, 35.693359060643715, 37.5], [139.70304109706728, 35.693333310373866, 37.5]]]}, "properties": {"id": "e26a683b786c4159bc226fde09759ad6", "category": "2", "name": "ã°ã©ã³ãã¬ãã«", "ordinal": 0.0, "short_name": "1Få±å¤", "source": "2", "__floor": "0F", "__z_abs": 37.5}}, {"type": "Feature", "geometry": {"type": "Polygon", "coordinates": [[[139.70122990723942, 35.69081593525888, 37.5], [139.70122722957004, 35.69083380581599, 37.5], [139.7012513632044, 35.690836212368296, 37.5], [139.7012540408686, 35.69081834181083, 37.5], [139.70122990723942, 35.69081593525888, 37.5]]]}, "properties": {"id": "07dcecbcc4eb41678b2cb70ee235ce23", "category": "2", "name": "ã°ã©ã³ãã¬ãã«", "ordinal": 0.0, "short_name": "1Få±å¤", "source": "1", "__floor": "0F", "__z_abs": 37.5}}, {"type": "Feature", "geometry": {"type": "Polygon", "coordinates": [[[139.70306425233352, 35.69302194309861, 37.5], [139.7030150113284, 35.693036388276575, 37.5], [139.70302624231508, 35.69306186549577, 37.5], [139.70307548329953, 35.693047420323346, 37.5], [139.70306425233352, 35.69302194309861, 37.5]]]}, "properties": {"id": "30abb73cf6114f169078449ecd7e650d", "category": "2", "name": "ã°ã©ã³ãã¬ãã«", "ordinal": 0.0, "short_name": "1Få±å¤", "source": "2", "__floor": "0F", "__z_abs": 37.5}}, {"type": "Feature", "geometry": {"type": "Polygon", "coordinates": [[[139.69821647438297, 35.69239675506343, 37.5], [139.69820587558195, 35.69238905967482, 37.5], [139.69819748695852, 35.69238296901086, 37.5], [139.69808586397437, 35.6924714924983, 37.5], [139.69809405441953, 35.69247774033716, 37.5], [139.6981044028276, 35.692485634312014, 37.5], [139.69821647438297, 35.69239675506343, 37.5]]]}, "properties": {"id": "d88b967f98834397b2f2637b8f936778", "category": "2", "name": "ã°ã©ã³ãã¬ãã«", "ordinal": 0.0, "short_name": "1Få±å¤", "source": "1", "__floor": "0F", "__z_abs": 37.5}}, {"type": "Feature", "geometry": {"type": "Polygon", "coordinates": [[[139.69896467495127, 35.69090112736943, 37.5], [139.69895570533507, 35.69092788874196, 37.5], [139.69909450630328, 35.69099009914862, 37.5], [139.69911079478882, 35.69096548881444, 37.5], [139.69896467495127, 35.69090112736943, 37.5]]]}, "properties": {"id": "c482f24f2f5048b3919f86c874530279", "category": "2", "name": "ã°ã©ã³ãã¬ãã«", "ordinal": 0.0, "short_name": "1Få±å¤", "source": "1", "__floor": "0F", "__z_abs": 37.5}}, {"type": "Feature", "geometry": {"type": "Polygon", "coordinates": [[[139.700255209174, 35.69425059931836, 37.5], [139.70024427075728, 35.694293257628644, 37.5], [139.70028103651296, 35.69429953113269, 37.5], [139.70029197491095, 35.69425687281908, 37.5], [139.700255209174, 35.69425059931836, 37.5]]]}, "properties": {"id": "ac22261d39fe4b56b8dc24bf66aa4301", "category": "2", "name": "ã°ã©ã³ãã¬ãã«", "ordinal": 0.0, "short_name": "1Få±å¤", "source": "1", "__floor": "0F", "__z_abs": 37.5}}, {"type": "Feature", "geometry": {"type": "Polygon", "coordinates": [[[139.7010272790605, 35.691925520839064, 37.5], [139.70101557272062, 35.692003641596195, 37.5], [139.70108138329317, 35.69201020032097, 37.5], [139.7010933506122, 35.69193223133797, 37.5], [139.7010272790605, 35.691925520839064, 37.5]]]}, "properties": {"id": "cd26addf4dfa45bf89233bf203721bd4", "category": "2", "name": "ã°ã©ã³ãã¬ãã«", "ordinal": 0.0, "short_name": "1Få±å¤", "source": "1", "__floor": "0F", "__z_abs": 37.5}}, {"type": "Feature", "geometry": {"type": "Polygon", "coordinates": [[[139.698919776847, 35.68972255435329, 37.5], [139.69888825556336, 35.68971029579647, 37.5], [139.6988766782555, 35.689789954410394, 37.5], [139.69890972283713, 35.68979173197783, 37.5], [139.698919776847, 35.68972255435329, 37.5]]]}, "properties": {"id": "efb046d63f04490ab855dd5bb0033009", "category": "2", "name": "ã°ã©ã³ãã¬ãã«", "ordinal": 0.0, "short_name": "1Få±å¤", "source": "2", "__floor": "0F", "__z_abs": 37.5}}, {"type": "Feature", "geometry": {"type": "Polygon", "coordinates": [[[139.7001240739254, 35.693938205025574, 37.5], [139.70009128188002, 35.693934027211384, 37.5], [139.70007432903438, 35.69402257700066, 37.5], [139.70018846408638, 35.69399627526129, 37.5], [139.70018862925886, 35.69396620813776, 37.5], [139.70011548548422, 35.693983063703726, 37.5], [139.7001240739254, 35.693938205025574, 37.5]]]}, "properties": {"id": "ef49b8d6f55f47449ff4ae54175bde3c", "category": "2", "name": "ã°ã©ã³ãã¬ãã«", "ordinal": 0.0, "short_name": "1Få±å¤", "source": "2", "__floor": "0F", "__z_abs": 37.5}}, {"type": "Feature", "geometry": {"type": "Polygon", "coordinates": [[[139.69919987023593, 35.691239273085614, 37.5], [139.69923474525, 35.69124163553881, 37.5], [139.69920874529498, 35.69113348758822, 37.5], [139.69917564213512, 35.69113849551686, 37.5], [139.69919987023593, 35.691239273085614, 37.5]]]}, "properties": {"id": "806befc5164a47508c49444e48cb627b", "category": "2", "name": "ã°ã©ã³ãã¬ãã«", "ordinal": 0.0, "short_name": "1Få±å¤", "source": "1", "__floor": "0F", "__z_abs": 37.5}}, {"type": "Feature", "geometry": {"type": "Polygon", "coordinates": [[[139.70248961051664, 35.693466951004545, 37.5], [139.7024391485554, 35.69347823735363, 37.5], [139.70244792030928, 35.69350434912575, 37.5], [139.7024983863056, 35.69349306187393, 37.5], [139.70248961051664, 35.693466951004545, 37.5]]]}, "properties": {"id": "505cfd9cfc414ffaa96235eb861bbe4e", "category": "2", "name": "ã°ã©ã³ãã¬ãã«", "ordinal": 0.0, "short_name": "1Få±å¤", "source": "2", "__floor": "0F", "__z_abs": 37.5}}, {"type": "Feature", "geometry": {"type": "Polygon", "coordinates": [[[139.70294422214795, 35.693057154711255, 37.5], [139.70289498109958, 35.693071599840096, 37.5], [139.70290621201855, 35.69309707708032, 37.5], [139.70295545308048, 35.69308263194705, 37.5], [139.70294422214795, 35.693057154711255, 37.5]]]}, "properties": {"id": "9a78db8e067e4c28b7e9344af80b1efb", "category": "2", "name": "ã°ã©ã³ãã¬ãã«", "ordinal": 0.0, "short_name": "1Få±å¤", "source": "2", "__floor": "0F", "__z_abs": 37.5}}, {"type": "Feature", "geometry": {"type": "Polygon", "coordinates": [[[139.69871769537292, 35.68891089726074, 37.5], [139.6987504850297, 35.68891442638307, 37.5], [139.69876953190746, 35.68878337265499, 37.5], [139.6987366910725, 35.688780196036255, 37.5], [139.69871769537292, 35.68891089726074, 37.5]]]}, "properties": {"id": "0ab9d37f712d40539260eb78d6fd0b26", "category": "2", "name": "ã°ã©ã³ãã¬ãã«", "ordinal": 0.0, "short_name": "1Få±å¤", "source": "1", "__floor": "0F", "__z_abs": 37.5}}, {"type": "Feature", "geometry": {"type": "Polygon", "coordinates": [[[139.69881643799872, 35.69019521777139, 37.5], [139.6988465117747, 35.69019825972824, 37.5], [139.6988612520729, 35.69008251665386, 37.5], [139.6988309298779, 35.69008142565841, 37.5], [139.69881643799872, 35.69019521777139, 37.5]]]}, "properties": {"id": "f6ff83c091194de583c88a72ea1b8812", "category": "2", "name": "ã°ã©ã³ãã¬ãã«", "ordinal": 0.0, "short_name": "1Få±å¤", "source": "1", "__floor": "0F", "__z_abs": 37.5}}, {"type": "Feature", "geometry": {"type": "Polygon", "coordinates": [[[139.6984034681498, 35.691585389440085, 37.5], [139.69840643051572, 35.69155820043243, 37.5], [139.69828023161742, 35.691550672718975, 37.5], [139.69827779180582, 35.69157789289645, 37.5], [139.6984034681498, 35.691585389440085, 37.5]]]}, "properties": {"id": "df654d89ce054efea2978834b4fa8ff9", "category": "2", "name": "ã°ã©ã³ãã¬ãã«", "ordinal": 0.0, "short_name": "1Få±å¤", "source": "1", "__floor": "0F", "__z_abs": 37.5}}, {"type": "Feature", "geometry": {"type": "Polygon", "coordinates": [[[139.69934776354202, 35.691994586364125, 37.5], [139.69938541649776, 35.69198892830216, 37.5], [139.69937992776153, 35.6919646218407, 37.5], [139.69937711071722, 35.69196504515528, 37.5], [139.6993422750994, 35.69197027986486, 37.5], [139.69934776354202, 35.691994586364125, 37.5]]]}, "properties": {"id": "0f25bdc27a0847bd951618fe05588113", "category": "2", "name": "ã°ã©ã³ãã¬ãã«", "ordinal": 0.0, "short_name": "1Få±å¤", "source": "1", "__floor": "0F", "__z_abs": 37.5}}, {"type": "Feature", "geometry": {"type": "Polygon", "coordinates": [[[139.6991893909188, 35.694232326652084, 37.5], [139.6990701396927, 35.694202217226234, 37.5], [139.69906403952953, 35.694217826680664, 37.5], [139.69918291060222, 35.69424874001775, 37.5], [139.6991893909188, 35.694232326652084, 37.5]]]}, "properties": {"id": "932797be3644495abbbb1f4f009e6491", "category": "2", "name": "ã°ã©ã³ãã¬ãã«", "ordinal": 0.0, "short_name": "1Få±å¤", "source": "2", "__floor": "0F", "__z_abs": 37.5}}, {"type": "Feature", "geometry": {"type": "Polygon", "coordinates": [[[139.69858987355394, 35.689774838002904, 37.5], [139.69857551644895, 35.689873620562985, 37.5], [139.69860956669652, 35.68987236270732, 37.5], [139.698623245235, 35.68977824867891, 37.5], [139.69858987355394, 35.689774838002904, 37.5]]]}, "properties": {"id": "560d34973eed4cbd93dea6a5e42b2626", "category": "2", "name": "ã°ã©ã³ãã¬ãã«", "ordinal": 0.0, "short_name": "1Få±å¤", "source": "2", "__floor": "0F", "__z_abs": 37.5}}, {"type": "Feature", "geometry": {"type": "Polygon", "coordinates": [[[139.69898854174045, 35.69171753634886, 37.5], [139.69908929600112, 35.691723204585784, 37.5], [139.69909279728674, 35.69169154203875, 37.5], [139.69899166080734, 35.69168550988864, 37.5], [139.69898854174045, 35.69171753634886, 37.5]]]}, "properties": {"id": "0fc463cae3274ce3b1a4f9266259af36", "category": "2", "name": "ã°ã©ã³ãã¬ãã«", "ordinal": 0.0, "short_name": "1Få±å¤", "source": "1", "__floor": "0F", "__z_abs": 37.5}}, {"type": "Feature", "geometry": {"type": "Polygon", "coordinates": [[[139.7016472633876, 35.6897058243402, 37.5], [139.70166023047088, 35.68965431786123, 37.5], [139.7015124032743, 35.68962969469373, 37.5], [139.7014993802441, 35.68968119185299, 37.5], [139.7014884259408, 35.68967936721709, 37.5], [139.70148421522393, 35.68969672425382, 37.5], [139.70164274794337, 35.689723422761766, 37.5], [139.7016472633876, 35.6897058243402, 37.5]]]}, "properties": {"id": "1bc5f51c0dab493985bced0f38322a5d", "category": "2", "name": "ã°ã©ã³ãã¬ãã«", "ordinal": 0.0, "short_name": "1Få±å¤", "source": "1", "__floor": "0F", "__z_abs": 37.5}}, {"type": "Feature", "geometry": {"type": "Polygon", "coordinates": [[[139.69864391832243, 35.68963600881546, 37.5], [139.69861052051306, 35.68963277832046, 37.5], [139.69859626168943, 35.68973088502383, 37.5], [139.69862963335245, 35.68973429569808, 37.5], [139.69864391832243, 35.68963600881546, 37.5]]]}, "properties": {"id": "29e6d25a5567489b92b3ad63bceb4b39", "category": "2", "name": "ã°ã©ã³ãã¬ãã«", "ordinal": 0.0, "short_name": "1Få±å¤", "source": "2", "__floor": "0F", "__z_abs": 37.5}}, {"type": "Feature", "geometry": {"type": "Polygon", "coordinates": [[[139.6983940739445, 35.69167811929463, 37.5], [139.69839618472432, 35.69165087953598, 37.5], [139.69827108702228, 35.69164341750673, 37.5], [139.6982686472087, 35.69167063763876, 37.5], [139.6983940739445, 35.69167811929463, 37.5]]]}, "properties": {"id": "70805ee6e21e4743b27f9c27eacf0b56", "category": "2", "name": "ã°ã©ã³ãã¬ãã«", "ordinal": 0.0, "short_name": "1Få±å¤", "source": "1", "__floor": "0F", "__z_abs": 37.5}}, {"type": "Feature", "geometry": {"type": "Polygon", "coordinates": [[[139.7016360647492, 35.69162474830435, 37.5], [139.7016307775018, 35.69166151345803, 37.5], [139.70166731044253, 35.691665009867776, 37.5], [139.70167296719586, 35.69162828007798, 37.5], [139.7016360647492, 35.69162474830435, 37.5]]]}, "properties": {"id": "ca95b130e97a4e7c8ea73d5aa069fecb", "category": "2", "name": "ã°ã©ã³ãã¬ãã«", "ordinal": 0.0, "short_name": "1Få±å¤", "source": "1", "__floor": "0F", "__z_abs": 37.5}}, {"type": "Feature", "geometry": {"type": "Polygon", "coordinates": [[[139.70028103651296, 35.69414987669239, 37.5], [139.70026177157567, 35.694146440539036, 37.5], [139.70023330587696, 35.69425745235974, 37.5], [139.70025260740346, 35.69426074586315, 37.5], [139.70028103651296, 35.69414987669239, 37.5]]]}, "properties": {"id": "1a4d4b0a91ba4287a3c920ff50163ef8", "category": "2", "name": "ã°ã©ã³ãã¬ãã«", "ordinal": 0.0, "short_name": "1Få±å¤", "source": "1", "__floor": "0F", "__z_abs": 37.5}}, {"type": "Feature", "geometry": {"type": "Polygon", "coordinates": [[[139.69920579328675, 35.69082452425058, 37.5], [139.69919582855897, 35.69090189802497, 37.5], [139.69923161445666, 35.69090498065653, 37.5], [139.69923735852203, 35.69086202791, 37.5], [139.69924190676642, 35.69082801719325, 37.5], [139.69920579328675, 35.69082452425058, 37.5]]]}, "properties": {"id": "44067845139c44158268b12a51207770", "category": "2", "name": "ã°ã©ã³ãã¬ãã«", "ordinal": 0.0, "short_name": "1Få±å¤", "source": "1", "__floor": "0F", "__z_abs": 37.5}}, {"type": "Feature", "geometry": {"type": "Polygon", "coordinates": [[[139.69865103492785, 35.689342369634524, 37.5], [139.69868379259844, 35.68934612005001, 37.5], [139.69869647024586, 35.68925889141726, 37.5], [139.69866440705252, 35.68925036289917, 37.5], [139.69865103492785, 35.689342369634524, 37.5]]]}, "properties": {"id": "68f9bad974af4c69a06661201693ac20", "category": "2", "name": "ã°ã©ã³ãã¬ãã«", "ordinal": 0.0, "short_name": "1Få±å¤", "source": "2", "__floor": "0F", "__z_abs": 37.5}}, {"type": "Feature", "geometry": {"type": "Polygon", "coordinates": [[[139.69820691121132, 35.69044489754734, 37.5], [139.69823872394636, 35.690446062415724, 37.5], [139.69824368859528, 35.69036057685691, 37.5], [139.69821155249892, 35.690360540791275, 37.5], [139.69820691121132, 35.69044489754734, 37.5]]]}, "properties": {"id": "febc751c97c140bd8ebb307e18a0ab68", "category": "2", "name": "ã°ã©ã³ãã¬ãã«", "ordinal": 0.0, "short_name": "1Få±å¤", "source": "1", "__floor": "0F", "__z_abs": 37.5}}]}