{"type": "FeatureCollection", "features": [{"type": "Feature", "geometry": {"type": "Polygon", "coordinates": [[[139.69927508812955, 35.69416667599601, 2.5], [139.69903344288906, 35.694104077600116, 2.5], [139.6990446553244, 35.694071901387936, 2.5], [139.69901375233633, 35.69406349633289, 2.5], [139.69901711612235, 35.694053959071894, 2.5], [139.6989878566444, 35.6940471438914, 2.5], [139.69895909444236, 35.694132128853276, 2.5], [139.69908606927854, 35.69416509575986, 2.5], [139.69921901683605, 35.69419961321163, 2.5], [139.6992153844092, 35.69420924428884, 2.5], [139.69906743086923, 35.6941721108072, 2.5], [139.69905658757082, 35.694198795478016, 2.5], [139.6990701396927, 35.694202217226234, 2.5], [139.69906083160342, 35.69422603530715, 2.5], [139.69923423004096, 35.69427064643014, 2.5], [139.69927508812955, 35.69416667599601, 2.5]]]}, "properties": {"id": "d30ca5ad237349cdb5b228254801ff19", "category": "1", "name": "å°ä¸3é", "ordinal": -3.0, "short_name": "B3F", "source": "2", "__floor": "B3", "__z_abs": 2.5}}, {"type": "Feature", "geometry": {"type": "Polygon", "coordinates": [[[139.69920134530588, 35.69380166307809, 2.5], [139.699214958389, 35.693716920844295, 2.5], [139.69921330626846, 35.693711137746625, 2.5], [139.69922146160022, 35.69366480459416, 2.5], [139.69925037093586, 35.69348091351161, 2.5], [139.69925189749927, 35.69347836313382, 2.5], [139.699313850359, 35.69308810228172, 2.5], [139.6992785790575, 35.693084286647355, 2.5], [139.69927872378835, 35.693083516536646, 2.5], [139.69916380139838, 35.69306962244819, 2.5], [139.69916438691257, 35.693066935602296, 2.5], [139.69913964940656, 35.693064118872634, 2.5], [139.69915086106514, 35.69299306935513, 2.5], [139.69912270903384, 35.69299000339955, 2.5], [139.69907791710992, 35.6932721767201, 2.5], [139.69903237468827, 35.69348018537114, 2.5], [139.6990892527545, 35.69348843376544, 2.5], [139.69906841115045, 35.69358915423675, 2.5], [139.69905750956488, 35.693633109306724, 2.5], [139.69905356681375, 35.693650355970405, 2.5], [139.69903674438962, 35.69372394173346, 2.5], [139.69903540605043, 35.69373008309339, 2.5], [139.69902599553447, 35.69372871839251, 2.5], [139.6990082310383, 35.69379464419845, 2.5], [139.69905201091908, 35.69380534871276, 2.5], [139.69905494463, 35.693796350510006, 2.5], [139.6991323301403, 35.693814484413046, 2.5], [139.69913033787861, 35.693817895430804, 2.5], [139.69913016033846, 35.693818468109484, 2.5], [139.6991445896144, 35.693821546044504, 2.5], [139.69920134530588, 35.69380166307809, 2.5]]]}, "properties": {"id": "3c18fe6287fc48e78733c112e384993b", "category": "1", "name": "å°ä¸3é", "ordinal": -3.0, "short_name": "B3F", "source": "2", "__floor": "B3", "__z_abs": 2.5}}, {"type": "Feature", "geometry": {"type": "Polygon", "coordinates": [[[139.69920464081804, 35.69246355238254, 2.5], [139.6991907766352, 35.69255340267152, 2.5], [139.69916361244236, 35.69272944638771, 2.5], [139.69914920877102, 35.69280579578861, 2.5], [139.69914762396388, 35.69281610992322, 2.5], [139.6991440994392, 35.69283904798999, 2.5], [139.6991393325934, 35.69287007122, 2.5], [139.69914083339881, 35.692875024979905, 2.5], [139.6991390028769, 35.69288663756758, 2.5], [139.69912270903387, 35.69299000339959, 2.5], [139.69915086106528, 35.692993069355225, 2.5], [139.69913964940667, 35.69306411887259, 2.5], [139.69916438691257, 35.693066935602424, 2.5], [139.69916380139853, 35.69306962244814, 2.5], [139.69927872378832, 35.69308351653671, 2.5], [139.6992785790576, 35.69308428664742, 2.5], [139.69931385035898, 35.69308810228181, 2.5], [139.699323715486, 35.693026290742125, 2.5], [139.69932335995065, 35.69302346742755, 2.5], [139.69932923580018, 35.69298313915846, 2.5], [139.69932797056413, 35.692977808130756, 2.5], [139.69934270208228, 35.69288570476652, 2.5], [139.69934567153655, 35.692880987843346, 2.5], [139.6993493460477, 35.69285784305344, 2.5], [139.69935420224976, 35.69282692333774, 2.5], [139.6993612311578, 35.69278218173053, 2.5], [139.69937292839018, 35.69270913206753, 2.5], [139.69937127627884, 35.692703348971, 2.5], [139.69938567312238, 35.6926127809383, 2.5], [139.6993901691062, 35.69260551363384, 2.5], [139.69939230684986, 35.692592647024014, 2.5], [139.6994118894596, 35.6924710247299, 2.5], [139.69920464081804, 35.69246355238254, 2.5]]]}, "properties": {"id": "f419ea9bac8646fdbc3fda17086c2d3b", "category": "1", "name": "å°ä¸3é", "ordinal": -3.0, "short_name": "B3F", "source": "2", "__floor": "B3", "__z_abs": 2.5}}, {"type": "Feature", "geometry": {"type": "Polygon", "coordinates": [[[139.69911136050916, 35.693880477632085, 2.5], [139.69913016033846, 35.693818468109484, 2.5], [139.69913033787861, 35.693817895430804, 2.5], [139.6991323301403, 35.693814484413046, 2.5], [139.69905494463, 35.693796350510006, 2.5], [139.69905201091908, 35.69380534871276, 2.5], [139.6990082310383, 35.69379464419845, 2.5], [139.69902599553447, 35.69372871839251, 2.5], [139.69903540605043, 35.69373008309339, 2.5], [139.69903674438962, 35.69372394173346, 2.5], [139.69905356681375, 35.693650355970405, 2.5], [139.69905750956488, 35.693633109306724, 2.5], [139.69906841115045, 35.69358915423675, 2.5], [139.6990892527545, 35.69348843376544, 2.5], [139.69903237468827, 35.69348018537114, 2.5], [139.69901418944997, 35.6935634726288, 2.5], [139.69899766787927, 35.69362483343091, 2.5], [139.69899398878079, 35.6936417160284, 2.5], [139.6989887190617, 35.69366589763148, 2.5], [139.6989852790319, 35.69367054630995, 2.5], [139.69895538575898, 35.69379212817694, 2.5], [139.6989557099308, 35.69379732273714, 2.5], [139.6989428972381, 35.693847711817334, 2.5], [139.69899961410718, 35.69385913002996, 2.5], [139.6990135625775, 35.69386194486322, 2.5], [139.6990481628464, 35.69386895385077, 2.5], [139.6989878566444, 35.6940471438914, 2.5], [139.69901711612235, 35.694053959071894, 2.5], [139.69901375233633, 35.69406349633289, 2.5], [139.6990446553244, 35.694071901387936, 2.5], [139.69911136050916, 35.693880477632085, 2.5]]]}, "properties": {"id": "34aabec4cbd742abb2a0c2440b9dc4dd", "category": "1", "name": "å°ä¸3é", "ordinal": -3.0, "short_name": "B3F", "source": "2", "__floor": "B3", "__z_abs": 2.5}}]}