{"type": "FeatureCollection", "features": [{"type": "Feature", "geometry": {"type": "Polygon", "coordinates": [[[139.6998593052539, 35.692069290192094, 12.5], [139.6998590804193, 35.69206724819339, 12.5], [139.69980653269536, 35.69158999504888, 12.5], [139.69972723843063, 35.69160251490549, 12.5], [139.6996937765529, 35.69160779822044, 12.5], [139.69970559363077, 35.691657608076234, 12.5], [139.69974928102343, 35.69184175353433, 12.5], [139.69975204047338, 35.69185338478309, 12.5], [139.6997634684592, 35.69185158041602, 12.5], [139.69977758161556, 35.691911068109476, 12.5], [139.6997661536171, 35.69191287248318, 12.5], [139.69980262323836, 35.69206156627378, 12.5], [139.69982799508517, 35.692064119730794, 12.5], [139.69982690160353, 35.692071804035294, 12.5], [139.6998598696222, 35.69207441591213, 12.5], [139.6998593052539, 35.692069290192094, 12.5]]]}, "properties": {"id": "98993813ab254e3aa8406496e0199fa9", "category": "1", "name": "å°ä¸2é", "ordinal": -2.0, "short_name": "B2F", "source": "2", "__floor": "B2", "__z_abs": 12.5}}, {"type": "Feature", "geometry": {"type": "Polygon", "coordinates": [[[139.7024551146205, 35.69305831402635, 12.5], [139.70237785196647, 35.69292779390038, 12.5], [139.70221536277847, 35.6929918036587, 12.5], [139.702323409422, 35.69317328986593, 12.5], [139.70235760392762, 35.693165409184694, 12.5], [139.7023446952327, 35.69312813542073, 12.5], [139.7024380018797, 35.693090132305365, 12.5], [139.7024551146205, 35.69305831402635, 12.5]]]}, "properties": {"id": "ace52557e4a7483793a7621de41eca06", "category": "1", "name": "å°ä¸2é", "ordinal": -2.0, "short_name": "B2F", "source": "2", "__floor": "B2", "__z_abs": 12.5}}, {"type": "Feature", "geometry": {"type": "Polygon", "coordinates": [[[139.69944606873258, 35.692566940382534, 12.5], [139.69940868576356, 35.6925712999329, 12.5], [139.69939444327355, 35.69257117611709, 12.5], [139.6993898548881, 35.69260494079395, 12.5], [139.69940294976112, 35.692606447331066, 12.5], [139.69943972428143, 35.69260708354309, 12.5], [139.69944606873258, 35.692566940382534, 12.5]]]}, "properties": {"id": "4aea390e57754266a1e17d2ae39ded39", "category": "1", "name": "å°ä¸2é", "ordinal": -2.0, "short_name": "B2F", "source": "2", "__floor": "B2", "__z_abs": 12.5}}, {"type": "Feature", "geometry": {"type": "Polygon", "coordinates": [[[139.70136342393175, 35.69219738594591, 12.5], [139.70139749715383, 35.69219671422052, 12.5], [139.70143222145464, 35.69219603965041, 12.5], [139.7014652041986, 35.69219538599782, 12.5], [139.70146524458391, 35.69219674212564, 12.5], [139.70147511895755, 35.692196477192, 12.5], [139.7015756395798, 35.69219243411982, 12.5], [139.70158005658539, 35.69218457993298, 12.5], [139.70157937764952, 35.692177398787855, 12.5], [139.7016333162617, 35.6921740050709, 12.5], [139.701629104801, 35.69212946048725, 12.5], [139.70157516621873, 35.69213285420261, 12.5], [139.70157359154894, 35.69211619880234, 12.5], [139.70156858135113, 35.69211730326481, 12.5], [139.7015365896292, 35.692125077722714, 12.5], [139.7014647773383, 35.692150965565126, 12.5], [139.7014585936779, 35.69214094384977, 12.5], [139.7014148424007, 35.69214173981043, 12.5], [139.70139874954384, 35.69214187014262, 12.5], [139.70136269858676, 35.692142162106386, 12.5], [139.70133285508655, 35.692141775653226, 12.5], [139.70125938113154, 35.69214082418374, 12.5], [139.70120653357912, 35.6921390738795, 12.5], [139.70107727361744, 35.69213181525021, 12.5], [139.70107445445888, 35.692167772665066, 12.5], [139.70120513989957, 35.692174591234725, 12.5], [139.70120436782815, 35.69219426714629, 12.5], [139.70125018767544, 35.69219546917077, 12.5], [139.70131467506508, 35.69219715374748, 12.5], [139.7013308516041, 35.69219749939992, 12.5], [139.70136342393175, 35.69219738594591, 12.5]]]}, "properties": {"id": "173e2384456a4bbb947af0dd6632f434", "category": "1", "name": "å°ä¸2é", "ordinal": -2.0, "short_name": "B2F", "source": "2", "__floor": "B2", "__z_abs": 12.5}}, {"type": "Feature", "geometry": {"type": "Polygon", "coordinates": [[[139.69881809174404, 35.69216083663575, 12.5], [139.69883369957645, 35.692158896050856, 12.5], [139.69891214712663, 35.692150718575874, 12.5], [139.698932040576, 35.69214944651967, 12.5], [139.69897541858046, 35.69214697359399, 12.5], [139.69902052034018, 35.692145279700654, 12.5], [139.69903382131042, 35.692145091147445, 12.5], [139.69908076402535, 35.6921446326979, 12.5], [139.69910903044774, 35.6921449335977, 12.5], [139.6991427485902, 35.6921456577663, 12.5], [139.69918152712475, 35.69214696951252, 12.5], [139.699244204764, 35.692149974227014, 12.5], [139.69935687611675, 35.69204983703741, 12.5], [139.69935876626272, 35.69204331373403, 12.5], [139.69935399342833, 35.692022176446876, 12.5], [139.69929744234548, 35.692031313406844, 12.5], [139.69928451381224, 35.69197793842807, 12.5], [139.69927210984432, 35.691979858309544, 12.5], [139.69873876257603, 35.69203288252311, 12.5], [139.69875145608154, 35.692087561690435, 12.5], [139.69876069206967, 35.69208626762133, 12.5], [139.6987680523947, 35.69212147997855, 12.5], [139.69876094859603, 35.69212246822253, 12.5], [139.69876216493552, 35.69212828685929, 12.5], [139.69876928226356, 35.692127363774, 12.5], [139.6987761117889, 35.692160036664895, 12.5], [139.69876900855013, 35.692161024831, 12.5], [139.69876969093605, 35.69216428917626, 12.5], [139.6987702106368, 35.69216677528054, 12.5], [139.69881809174404, 35.69216083663575, 12.5]]]}, "properties": {"id": "90a940f61c36456684297bbb347da93f", "category": "1", "name": "å°ä¸2é", "ordinal": -2.0, "short_name": "B2F", "source": "2", "__floor": "B2", "__z_abs": 12.5}}, {"type": "Feature", "geometry": {"type": "Polygon", "coordinates": [[[139.69981933695902, 35.69220130264746, 12.5], [139.69984377335098, 35.69220369678933, 12.5], [139.6998497219313, 35.69216329131304, 12.5], [139.69982528555147, 35.692160897172386, 12.5], [139.69981933695902, 35.69220130264746, 12.5]]]}, "properties": {"id": "eb593c2cba0c42be832ee0dc04d5c173", "category": "1", "name": "å°ä¸2é", "ordinal": -2.0, "short_name": "B2F", "source": "2", "__floor": "B2", "__z_abs": 12.5}}, {"type": "Feature", "geometry": {"type": "Polygon", "coordinates": [[[139.7002318921617, 35.694992886173665, 12.5], [139.7002720412708, 35.69499950362944, 12.5], [139.70027485140804, 35.694988158192466, 12.5], [139.70033753207346, 35.69493116698647, 12.5], [139.70036998260142, 35.69480015289528, 12.5], [139.70040692279034, 35.69465101193883, 12.5], [139.70047306773424, 35.69466123183086, 12.5], [139.70048359267133, 35.69461690232232, 12.5], [139.700417885851, 35.694606749971555, 12.5], [139.7005359777744, 35.69410706109718, 12.5], [139.7004451285099, 35.694093372191176, 12.5], [139.70034727351828, 35.694115922493104, 12.5], [139.70034530928163, 35.69411568499452, 12.5], [139.70034036571383, 35.69414247507522, 12.5], [139.70034232734838, 35.694142712259186, 12.5], [139.7003424652049, 35.69414311034501, 12.5], [139.7003519272945, 35.694170433846296, 12.5], [139.70036806765071, 35.6941729277496, 12.5], [139.70036909774376, 35.69416849132287, 12.5], [139.70037779924914, 35.69416983582216, 12.5], [139.7003745029525, 35.69418403238791, 12.5], [139.70032229390975, 35.69417596540711, 12.5], [139.70031611333965, 35.694202583939074, 12.5], [139.70036572682667, 35.694210249898575, 12.5], [139.70033677712175, 35.6943271003581, 12.5], [139.70037887073735, 35.69433360437886, 12.5], [139.70028298950973, 35.69473962355319, 12.5], [139.70029980867895, 35.6947423957251, 12.5], [139.70029838357644, 35.694748149352996, 12.5], [139.7002888164866, 35.694786774955794, 12.5], [139.7002788706136, 35.69482692979435, 12.5], [139.7002732280478, 35.69482599977468, 12.5], [139.7002318921617, 35.694992886173665, 12.5]]]}, "properties": {"id": "1fce48d93aa245e79f0ddb4b0e6179f4", "category": "1", "name": "å°ä¸2é", "ordinal": -2.0, "short_name": "B2F", "source": "2", "__floor": "B2", "__z_abs": 12.5}}, {"type": "Feature", "geometry": {"type": "Polygon", "coordinates": [[[139.70046252714968, 35.69350654512168, 12.5], [139.70047609198397, 35.69354571616627, 12.5], [139.70051604153227, 35.693536509846304, 12.5], [139.70055225321067, 35.693528164900144, 12.5], [139.7006017109098, 35.6935580115583, 12.5], [139.70062369503623, 35.693621494508704, 12.5], [139.70065565484163, 35.69361412938035, 12.5], [139.70064301488455, 35.693577629382695, 12.5], [139.70064429239227, 35.69357734695365, 12.5], [139.70067077644774, 35.69357420327915, 12.5], [139.70068613709913, 35.69357238379117, 12.5], [139.70073826826948, 35.693560370135515, 12.5], [139.70072953374273, 35.693535147791415, 12.5], [139.70063413677838, 35.693551992340254, 12.5], [139.70063058550537, 35.69354173743031, 12.5], [139.70054478414312, 35.69348995814686, 12.5], [139.70053512281032, 35.69346205926605, 12.5], [139.70050209772938, 35.69346966986577, 12.5], [139.700511021375, 35.69349543857021, 12.5], [139.70046252714968, 35.69350654512168, 12.5]]]}, "properties": {"id": "8b72f45690b0498298271a85b6033b1b", "category": "1", "name": "å°ä¸2é", "ordinal": -2.0, "short_name": "B2F", "source": "2", "__floor": "B2", "__z_abs": 12.5}}, {"type": "Feature", "geometry": {"type": "Polygon", "coordinates": [[[139.69957596494527, 35.692156963982846, 12.5], [139.69959683276983, 35.6921834707073, 12.5], [139.69960933679542, 35.69218794341957, 12.5], [139.69962810221523, 35.69218978198507, 12.5], [139.69962790361708, 35.6921911309288, 12.5], [139.69965090766806, 35.69219338477538, 12.5], [139.69965078396004, 35.692194225042456, 12.5], [139.69973189485566, 35.69220217193345, 12.5], [139.6997332643651, 35.69219286969247, 12.5], [139.69981933695902, 35.69220130264746, 12.5], [139.69982528555147, 35.692160897172386, 12.5], [139.69980088622376, 35.69215850665681, 12.5], [139.6998063589346, 35.692121333620356, 12.5], [139.69975993003825, 35.69211678475151, 12.5], [139.69976156260347, 35.692105695694075, 12.5], [139.69974451573538, 35.692104025523406, 12.5], [139.69973812336906, 35.692095019400995, 12.5], [139.69963383515912, 35.69208480167966, 12.5], [139.6996084460461, 35.69208857718634, 12.5], [139.6995788254783, 35.692110931991344, 12.5], [139.69958140305903, 35.692120026658635, 12.5], [139.69957596494527, 35.692156963982846, 12.5]]]}, "properties": {"id": "eeda5071a4f14d358f4fbcc3cab2c9d7", "category": "1", "name": "å°ä¸2é", "ordinal": -2.0, "short_name": "B2F", "source": "2", "__floor": "B2", "__z_abs": 12.5}}, {"type": "Feature", "geometry": {"type": "Polygon", "coordinates": [[[139.6998063589346, 35.692121333620356, 12.5], [139.69980088622376, 35.69215850665681, 12.5], [139.6998497219313, 35.69216329131304, 12.5], [139.69985519461983, 35.69212611827434, 12.5], [139.69983857301972, 35.692124489782934, 12.5], [139.69984013286935, 35.69211389456913, 12.5], [139.69982450333444, 35.69211236327258, 12.5], [139.69982294348276, 35.69212295848617, 12.5], [139.6998063589346, 35.692121333620356, 12.5]]]}, "properties": {"id": "b72af6dfc42c466d89c5034dc8cd62a2", "category": "1", "name": "å°ä¸2é", "ordinal": -2.0, "short_name": "B2F", "source": "2", "__floor": "B2", "__z_abs": 12.5}}, {"type": "Feature", "geometry": {"type": "Polygon", "coordinates": [[[139.69769974861583, 35.692718029516186, 12.5], [139.6979151694831, 35.69254774960698, 12.5], [139.69799519902108, 35.69249296571047, 12.5], [139.69808508403747, 35.69243858493284, 12.5], [139.69817593963506, 35.692390661840044, 12.5], [139.69827026543965, 35.69234743030991, 12.5], [139.69837419374613, 35.69230649859941, 12.5], [139.69840713010785, 35.69237119983623, 12.5], [139.6984747019007, 35.69234830874364, 12.5], [139.69844182761864, 35.69228372956507, 12.5], [139.698476328829, 35.69227313650889, 12.5], [139.69856707556076, 35.692248275400125, 12.5], [139.69865935874526, 35.69222751664502, 12.5], [139.69875289994187, 35.692210922877535, 12.5], [139.69884741691493, 35.69219854416494, 12.5], [139.6988579486116, 35.69220518093193, 12.5], [139.69894577794113, 35.692197952251405, 12.5], [139.69903597554995, 35.69219429900658, 12.5], [139.69912920090067, 35.69219440297144, 12.5], [139.69919936739922, 35.69219716958351, 12.5], [139.6992143226957, 35.69219797188537, 12.5], [139.69921196197654, 35.69221400609045, 12.5], [139.69905098021084, 35.69219823304282, 12.5], [139.6990728222882, 35.692239904109535, 12.5], [139.69919136550868, 35.6922515190079, 12.5], [139.69920622458758, 35.692252974896185, 12.5], [139.69920232474624, 35.692279462909, 12.5], [139.6992142670473, 35.69228063301088, 12.5], [139.69920423850417, 35.69234874760911, 12.5], [139.69919500383475, 35.69234784279998, 12.5], [139.69918881900716, 35.69235109799258, 12.5], [139.6991415605041, 35.69237597102394, 12.5], [139.69911809248737, 35.69237922288175, 12.5], [139.69910685013954, 35.692427563267515, 12.5], [139.6991763423765, 35.69241793400645, 12.5], [139.69917920012838, 35.69241642992039, 12.5], [139.69919130755073, 35.69241761620113, 12.5], [139.69919085225365, 35.692420708602995, 12.5], [139.69925513435354, 35.69242774648365, 12.5], [139.6992779903395, 35.6924302488467, 12.5], [139.69927360200182, 35.69246005487769, 12.5], [139.6992923134852, 35.69246188820547, 12.5], [139.69929468246133, 35.69244579785877, 12.5], [139.6993395041151, 35.692450189408405, 12.5], [139.69933884246123, 35.6924543368588, 12.5], [139.69937642346125, 35.69245832685878, 12.5], [139.6993771334757, 35.69245387626935, 12.5], [139.699380535144, 35.69245420955903, 12.5], [139.69937816618486, 35.69247029990743, 12.5], [139.6993963273352, 35.69247207929809, 12.5], [139.69941008567292, 35.6924734273087, 12.5], [139.69943296876514, 35.69231800099813, 12.5], [139.6994391331112, 35.69231405071021, 12.5], [139.69947341914215, 35.69231740996869, 12.5], [139.69947256882872, 35.69232318549036, 12.5], [139.69948665339263, 35.69232459344388, 12.5], [139.69981533003778, 35.69235744889115, 12.5], [139.6998318208815, 35.69224543593736, 12.5], [139.69986545580477, 35.69224876772758, 12.5], [139.69986836914748, 35.69224745917088, 12.5], [139.70074573407672, 35.69233267978172, 12.5], [139.70073468338342, 35.69240987584673, 12.5], [139.7009605602435, 35.69242284346767, 12.5], [139.70097699073187, 35.69251719384827, 12.5], [139.70102851198126, 35.69251052357691, 12.5], [139.7010048263906, 35.692388637932346, 12.5], [139.70101065908125, 35.692343378447234, 12.5], [139.7010324670345, 35.692344114197496, 12.5], [139.70112713940517, 35.69247511765793, 12.5], [139.70113990733574, 35.692518212153, 12.5], [139.70120339593487, 35.69250538194427, 12.5], [139.7011882291468, 35.692454190923826, 12.5], [139.7011261416252, 35.69236867325648, 12.5], [139.70113171598436, 35.69234447917501, 12.5], [139.7011790790745, 35.69234490529614, 12.5], [139.701179847819, 35.692415184471514, 12.5], [139.7013239581729, 35.692414135356124, 12.5], [139.70132332091802, 35.69234359737658, 12.5], [139.70137489656358, 35.692341615498535, 12.5], [139.70143222140996, 35.69233798566975, 12.5], [139.70148936944034, 35.692332864986476, 12.5], [139.7015385235121, 35.69232715154889, 12.5], [139.70155123885024, 35.69242960808753, 12.5], [139.70161715794646, 35.692424163837885, 12.5], [139.70160398001195, 35.6923179805295, 12.5], [139.70165910996747, 35.6923086003167, 12.5], [139.70172251470478, 35.692295927495884, 12.5], [139.70173997188647, 35.69233955088663, 12.5], [139.70178749848904, 35.692330507169615, 12.5], [139.70177378232972, 35.69228413711733, 12.5], [139.70180305910117, 35.69227704519194, 12.5], [139.70185683272925, 35.69225948297444, 12.5], [139.70189729203142, 35.69224784353928, 12.5], [139.70191612267104, 35.69224184621488, 12.5], [139.70223202336896, 35.69211863443438, 12.5], [139.70225048528272, 35.69211090303198, 12.5], [139.7022753636262, 35.692100484577345, 12.5], [139.70223433935487, 35.692040449458986, 12.5], [139.70217447070598, 35.692063564759685, 12.5], [139.7021078680632, 35.69199383951745, 12.5], [139.70205925400913, 35.69201582575194, 12.5], [139.70212238148954, 35.69208191295533, 12.5], [139.70204811233043, 35.69210720731383, 12.5], [139.70197931950597, 35.692128001501935, 12.5], [139.70187574150623, 35.69215414897016, 12.5], [139.7018234185736, 35.69216573352857, 12.5], [139.70171688791265, 35.69218172380009, 12.5], [139.70164183821998, 35.69218889756639, 12.5], [139.70163378455695, 35.692178958222755, 12.5], [139.7016333162617, 35.692174005070825, 12.5], [139.70157937764958, 35.692177398787905, 12.5], [139.7015800565854, 35.69218457993285, 12.5], [139.70157563957974, 35.69219243411969, 12.5], [139.70147511895752, 35.69219647719197, 12.5], [139.70146524458397, 35.692196742125525, 12.5], [139.70146520419854, 35.6921953859977, 12.5], [139.70143222145447, 35.69219603965036, 12.5], [139.70139749715386, 35.692196714220486, 12.5], [139.70136342393164, 35.69219738594588, 12.5], [139.70133085160407, 35.69219749939994, 12.5], [139.70131467506494, 35.69219715374756, 12.5], [139.70125018767533, 35.69219546917068, 12.5], [139.70120436782815, 35.69219426714634, 12.5], [139.7012051398996, 35.69217459123465, 12.5], [139.70107445445882, 35.692167772665044, 12.5], [139.70088600854916, 35.69216542886462, 12.5], [139.70086005157884, 35.692163421373884, 12.5], [139.70080806770017, 35.6921594009663, 12.5], [139.69996590731805, 35.69207790111853, 12.5], [139.69985928999338, 35.69206915159249, 12.5], [139.6998598696222, 35.69207441591213, 12.5], [139.69982690160353, 35.692071804035294, 12.5], [139.69982799508517, 35.692064119730794, 12.5], [139.69980262323836, 35.69206156627378, 12.5], [139.6997661536171, 35.69191287248318, 12.5], [139.69977758161556, 35.691911068109476, 12.5], [139.6997634684592, 35.69185158041602, 12.5], [139.69975204047338, 35.69185338478309, 12.5], [139.69974928102343, 35.69184175353433, 12.5], [139.69970559363077, 35.691657608076234, 12.5], [139.6996937765529, 35.69160779822044, 12.5], [139.699661124859, 35.691612953600725, 12.5], [139.6996599157801, 35.69160785545549, 12.5], [139.6996576301896, 35.6916082163273, 12.5], [139.69965883967328, 35.69161331440535, 12.5], [139.6995022222439, 35.691638042619736, 12.5], [139.69950156257795, 35.69163526204374, 12.5], [139.69949927698596, 35.69163562291256, 12.5], [139.69949993665105, 35.691638403485406, 12.5], [139.6994651680574, 35.691643893042716, 12.5], [139.6994629379453, 35.691634016637444, 12.5], [139.69941385392488, 35.69164140065276, 12.5], [139.69944120575357, 35.69175599360194, 12.5], [139.6994727784075, 35.69188826966344, 12.5], [139.69946518744484, 35.69188941035446, 12.5], [139.69947854944718, 35.69194858582066, 12.5], [139.69949628391907, 35.69202712529219, 12.5], [139.6994434317089, 35.69203046954088, 12.5], [139.6994454639334, 35.692048859102414, 12.5], [139.69935876626272, 35.69204331373403, 12.5], [139.69935687611675, 35.69204983703741, 12.5], [139.699244204764, 35.692149974227014, 12.5], [139.69918152712475, 35.69214696951252, 12.5], [139.6991427485902, 35.6921456577663, 12.5], [139.69910903044774, 35.6921449335977, 12.5], [139.69908076402535, 35.6921446326979, 12.5], [139.69903382131042, 35.692145091147445, 12.5], [139.69902052034018, 35.692145279700654, 12.5], [139.69897541858046, 35.69214697359399, 12.5], [139.698932040576, 35.69214944651967, 12.5], [139.69891214712663, 35.692150718575874, 12.5], [139.69883369957645, 35.692158896050856, 12.5], [139.69881809174404, 35.69216083663575, 12.5], [139.6987702106368, 35.69216677528054, 12.5], [139.69876969093605, 35.69216428917626, 12.5], [139.69876900855013, 35.692161024831, 12.5], [139.6987761117889, 35.692160036664895, 12.5], [139.69876928226356, 35.692127363774, 12.5], [139.69876216493552, 35.69212828685929, 12.5], [139.69876094859603, 35.69212246822253, 12.5], [139.6987680523947, 35.69212147997855, 12.5], [139.69876069206967, 35.69208626762133, 12.5], [139.69875145608154, 35.692087561690435, 12.5], [139.69869721292102, 35.69209594172505, 12.5], [139.69869511599728, 35.69209629261743, 12.5], [139.69871163811717, 35.69216096201342, 12.5], [139.69871469252166, 35.69217303056212, 12.5], [139.69871529681762, 35.692175396550155, 12.5], [139.69870596345234, 35.69217698295727, 12.5], [139.69870547305345, 35.69217506290737, 12.5], [139.69865086206653, 35.692185196733654, 12.5], [139.69864160602836, 35.69218706041713, 12.5], [139.6985874848879, 35.692198813721966, 12.5], [139.69857831839613, 35.692200951750976, 12.5], [139.6985247592445, 35.69221430887831, 12.5], [139.69851566855522, 35.692216653405985, 12.5], [139.69846274003078, 35.692231597676916, 12.5], [139.6984537890164, 35.69223427521539, 12.5], [139.69840156445784, 35.692250785639445, 12.5], [139.6983601574107, 35.69226498068752, 12.5], [139.69834128826054, 35.6922717825553, 12.5], [139.6982819936435, 35.69229455957408, 12.5], [139.69827444221514, 35.69229748033825, 12.5], [139.69821647214377, 35.692205948050976, 12.5], [139.69818695593491, 35.692222482983624, 12.5], [139.69824011773258, 35.692311983229764, 12.5], [139.69822375393065, 35.6923190886918, 12.5], [139.69821537397064, 35.69232280118913, 12.5], [139.69816665248416, 35.69234533490593, 12.5], [139.69815844422791, 35.69234929446862, 12.5], [139.69811076350305, 35.69237326400271, 12.5], [139.69810273789147, 35.69237746535306, 12.5], [139.69805616148284, 35.69240283875554, 12.5], [139.6980397703071, 35.692412122530605, 12.5], [139.69801125365612, 35.692428916904824, 12.5], [139.6979952907162, 35.69243868755539, 12.5], [139.69795110763366, 35.692466765408085, 12.5], [139.69790079583416, 35.692501032100054, 12.5], [139.69785169158527, 35.69253646147285, 12.5], [139.69780424750078, 35.692573435547466, 12.5], [139.69775628091224, 35.692611038874574, 12.5], [139.69770833839658, 35.692648623275105, 12.5], [139.6977040605817, 35.69265197685339, 12.5], [139.69770065169106, 35.69264922858677, 12.5], [139.69767180480713, 35.69262597205705, 12.5], [139.69766660072023, 35.69262177648896, 12.5], [139.6976310584967, 35.692593065633794, 12.5], [139.69762299901984, 35.6925931043945, 12.5], [139.6976082535037, 35.69258120793156, 12.5], [139.6975698536345, 35.69261288221695, 12.5], [139.6974505842482, 35.69271126180699, 12.5], [139.69746726033966, 35.69272471583795, 12.5], [139.69745822643281, 35.69273217279038, 12.5], [139.6975717431026, 35.69282369076363, 12.5], [139.69769974861583, 35.692718029516186, 12.5]], [[139.69984377335098, 35.69220369678933, 12.5], [139.6997332643651, 35.69219286969247, 12.5], [139.69973189485566, 35.69220217193345, 12.5], [139.69965078396004, 35.692194225042456, 12.5], [139.69965090766806, 35.69219338477538, 12.5], [139.69962790361708, 35.6921911309288, 12.5], [139.69962810221523, 35.69218978198507, 12.5], [139.69960933679542, 35.69218794341957, 12.5], [139.69959683276983, 35.6921834707073, 12.5], [139.69957596494527, 35.692156963982846, 12.5], [139.69958140305903, 35.692120026658635, 12.5], [139.6995788254783, 35.692110931991344, 12.5], [139.6996084460461, 35.69208857718634, 12.5], [139.69963383515912, 35.69208480167966, 12.5], [139.69973812336906, 35.692095019400995, 12.5], [139.69974451573538, 35.692104025523406, 12.5], [139.69976156260347, 35.692105695694075, 12.5], [139.69975993003825, 35.69211678475151, 12.5], [139.69982294348276, 35.69212295848617, 12.5], [139.69982450333444, 35.69211236327258, 12.5], [139.69984013286935, 35.69211389456913, 12.5], [139.69983857301972, 35.692124489782934, 12.5], [139.69985519461983, 35.69212611827434, 12.5], [139.69984377335098, 35.69220369678933, 12.5]], [[139.70122678120023, 35.69230352103141, 12.5], [139.70122676623615, 35.69230269426506, 12.5], [139.7012029843669, 35.692302980713876, 12.5], [139.7012030543897, 35.69229828387721, 12.5], [139.70119814558137, 35.69229789716122, 12.5], [139.7011810999402, 35.692297232826405, 12.5], [139.7011810205905, 35.692298587809, 12.5], [139.7011517274966, 35.69229744613772, 12.5], [139.70115143652924, 35.69230241440656, 12.5], [139.70114202430295, 35.69230204757221, 12.5], [139.70114231527094, 35.69229707930338, 12.5], [139.70109569218954, 35.692295262193404, 12.5], [139.70109540121865, 35.69230023046211, 12.5], [139.70108598899293, 35.69229986362339, 12.5], [139.70108643867604, 35.69229218538997, 12.5], [139.70109252859174, 35.69229242274274, 12.5], [139.70109626295394, 35.692243509991584, 12.5], [139.7010901730419, 35.69224327263902, 12.5], [139.7010906227243, 35.69223559440552, 12.5], [139.70110003494253, 35.69223596124387, 12.5], [139.70109974397215, 35.69224092951263, 12.5], [139.70114463149227, 35.69224267897998, 12.5], [139.70114492245986, 35.6922377107111, 12.5], [139.7011543346786, 35.692238077545205, 12.5], [139.70115404371157, 35.6922430458141, 12.5], [139.70118420437578, 35.69224422129823, 12.5], [139.7011841461827, 35.69224521495203, 12.5], [139.7012037107486, 35.69224597745891, 12.5], [139.7012038150011, 35.692237669381214, 12.5], [139.70122558457302, 35.69223740717, 12.5], [139.70122556984316, 35.692236593341924, 12.5], [139.70128232309912, 35.69223590973895, 12.5], [139.70128233782958, 35.692236723567, 12.5], [139.70131219917383, 35.69223636387109, 12.5], [139.7013128134466, 35.69224895898006, 12.5], [139.70132098240396, 35.69224925489198, 12.5], [139.70132151123016, 35.692260097969864, 12.5], [139.70134720706872, 35.6922592639756, 12.5], [139.70134830885524, 35.69228185490158, 12.5], [139.70132261300944, 35.69228268889606, 12.5], [139.70132308055258, 35.69229227541548, 12.5], [139.7013080750596, 35.692292696441875, 12.5], [139.70130826141104, 35.69230299180496, 12.5], [139.701286092152, 35.69230325884528, 12.5], [139.70128608396837, 35.69230280671858, 12.5], [139.70122678120023, 35.69230352103141, 12.5]]]}, "properties": {"id": "5edfadbe18804582acabde1fbba59517", "category": "1", "name": "å°ä¸2é", "ordinal": -2.0, "short_name": "B2F", "source": "2", "__floor": "B2", "__z_abs": 12.5}}, {"type": "Feature", "geometry": {"type": "Polygon", "coordinates": [[[139.69924557202597, 35.69352729796414, 12.5], [139.69924896889606, 35.69352270627583, 12.5], [139.69926727744402, 35.69340572789672, 12.5], [139.69927756636562, 35.69340679130164, 12.5], [139.6994093113542, 35.69342040764053, 12.5], [139.699416025926, 35.69336975916995, 12.5], [139.69931993071674, 35.69335974461306, 12.5], [139.69933254268716, 35.693385186601944, 12.5], [139.69937432839467, 35.69338952748304, 12.5], [139.69937366796026, 35.69339256035378, 12.5], [139.69928067563416, 35.693383681395844, 12.5], [139.69927081884327, 35.69338274025976, 12.5], [139.69933423394238, 35.692983650768326, 12.5], [139.6993329835061, 35.69297838562969, 12.5], [139.6993466112582, 35.69289158712931, 12.5], [139.69934536082255, 35.69288632199073, 12.5], [139.6993898548881, 35.69260494079395, 12.5], [139.69939457612108, 35.692570198528045, 12.5], [139.69940161728803, 35.692542118445736, 12.5], [139.69940848610042, 35.69248429188582, 12.5], [139.69941008567292, 35.6924734273087, 12.5], [139.69937816618486, 35.69247029990743, 12.5], [139.699380535144, 35.69245420955903, 12.5], [139.6993771334757, 35.69245387626935, 12.5], [139.69937642346125, 35.69245832685878, 12.5], [139.69933884246123, 35.6924543368588, 12.5], [139.6993395041151, 35.692450189408405, 12.5], [139.69929468246133, 35.69244579785877, 12.5], [139.6992923134852, 35.69246188820547, 12.5], [139.69927360200182, 35.69246005487769, 12.5], [139.69927703462392, 35.69243674016501, 12.5], [139.6992034581045, 35.692428978699624, 12.5], [139.6991890023336, 35.6925234309294, 12.5], [139.69918868422212, 35.692535899136516, 12.5], [139.69918703313627, 35.692543481311866, 12.5], [139.69919231022166, 35.69254346389262, 12.5], [139.69917414186796, 35.69265111336174, 12.5], [139.69916961986888, 35.69265867057327, 12.5], [139.69914457401157, 35.69281576988015, 12.5], [139.69919132260128, 35.692820981929124, 12.5], [139.69918978101018, 35.692830921900814, 12.5], [139.69920170949365, 35.69283226704681, 12.5], [139.69920008289662, 35.692844859477574, 12.5], [139.6992353711702, 35.69284858473912, 12.5], [139.699248158858, 35.692750602974904, 12.5], [139.69927012020045, 35.69275300495261, 12.5], [139.6992623411651, 35.69281298368997, 12.5], [139.6992701261915, 35.69281411197728, 12.5], [139.69926910628863, 35.69287945770301, 12.5], [139.69923255346566, 35.69287775255857, 12.5], [139.6992323126226, 35.69287774132352, 12.5], [139.69922039699986, 35.69297145613975, 12.5], [139.69919744746107, 35.693017405521545, 12.5], [139.69911931318077, 35.69301154617604, 12.5], [139.69910593162274, 35.69309643663283, 12.5], [139.69909793017598, 35.69310896463431, 12.5], [139.69907205612634, 35.693271811834876, 12.5], [139.69905579265654, 35.693346496235264, 12.5], [139.69905864507334, 35.693359814969575, 12.5], [139.69905426961682, 35.69337990772654, 12.5], [139.69903498444398, 35.69346823283793, 12.5], [139.69903177380957, 35.693482937360976, 12.5], [139.69901624656387, 35.693481867032304, 12.5], [139.69880981924575, 35.693467637330585, 12.5], [139.698825604934, 35.69349655148058, 12.5], [139.69902171444417, 35.693511665741475, 12.5], [139.69901552092668, 35.69353932493316, 12.5], [139.69906032731066, 35.693545817994085, 12.5], [139.69905878849914, 35.69355264604163, 12.5], [139.69923673717454, 35.6935835066248, 12.5], [139.69924557202597, 35.69352729796414, 12.5]]]}, "properties": {"id": "02f80eed8608467699fc34f1bc8435c0", "category": "1", "name": "å°ä¸2é", "ordinal": -2.0, "short_name": "B2F", "source": "2", "__floor": "B2", "__z_abs": 12.5}}, {"type": "Feature", "geometry": {"type": "Polygon", "coordinates": [[[139.69944343170891, 35.69203046954095, 12.5], [139.6994962839192, 35.692027125292206, 12.5], [139.69947854944712, 35.69194858582074, 12.5], [139.6994335850984, 35.69195534259272, 12.5], [139.6994393391791, 35.691980825387304, 12.5], [139.69938541649776, 35.69198892830224, 12.5], [139.69934776354205, 35.691994586364224, 12.5], [139.69935399342762, 35.69202217644708, 12.5], [139.6993587662629, 35.69204331373408, 12.5], [139.69944546393344, 35.6920488591025, 12.5], [139.69944343170891, 35.69203046954095, 12.5]]]}, "properties": {"id": "8ad4266cc1d14c478b57d8cd547eb329", "category": "1", "name": "å°ä¸2é", "ordinal": -2.0, "short_name": "B2F", "source": "2", "__floor": "B2", "__z_abs": 12.5}}, {"type": "Feature", "geometry": {"type": "Polygon", "coordinates": [[[139.70344462462867, 35.693276163265345, 12.5], [139.70340477726063, 35.69328702030577, 12.5], [139.7034134817104, 35.69330826693811, 12.5], [139.70340975479928, 35.693309283960836, 12.5], [139.70343537008398, 35.69337180807258, 12.5], [139.70347893822418, 35.69335991891625, 12.5], [139.70344462462867, 35.693276163265345, 12.5]]]}, "properties": {"id": "299aae339a584e63be7c8abaada40fcd", "category": "1", "name": "å°ä¸2é", "ordinal": -2.0, "short_name": "B2F", "source": "2", "__floor": "B2", "__z_abs": 12.5}}, {"type": "Feature", "geometry": {"type": "Polygon", "coordinates": [[[139.70173997188647, 35.692339550886736, 12.5], [139.70177027907437, 35.692422007045245, 12.5], [139.70174420410888, 35.69243240278535, 12.5], [139.70189516640085, 35.69268904962831, 12.5], [139.70195085754528, 35.692667249738065, 12.5], [139.7019113974461, 35.69260016496497, 12.5], [139.70188049055037, 35.69261226324523, 12.5], [139.7018229248032, 35.692514397385985, 12.5], [139.70184351246564, 35.692506338497985, 12.5], [139.701801591783, 35.6924350702228, 12.5], [139.70182499305383, 35.69242574043591, 12.5], [139.701787498489, 35.69233050716968, 12.5], [139.70173997188647, 35.692339550886736, 12.5]]]}, "properties": {"id": "4ff5098ed2074956901b35afe92cc1a6", "category": "1", "name": "å°ä¸2é", "ordinal": -2.0, "short_name": "B2F", "source": "2", "__floor": "B2", "__z_abs": 12.5}}, {"type": "Feature", "geometry": {"type": "Polygon", "coordinates": [[[139.69923673717454, 35.693583506624805, 12.5], [139.69905878849914, 35.69355264604163, 12.5], [139.69906032731066, 35.6935458179941, 12.5], [139.69901552092676, 35.69353932493321, 12.5], [139.69898787034037, 35.69366280749057, 12.5], [139.69921696456606, 35.69370930265671, 12.5], [139.69923673717454, 35.693583506624805, 12.5]]]}, "properties": {"id": "aecd0c171f9d455fad914a4974856ad9", "category": "1", "name": "å°ä¸2é", "ordinal": -2.0, "short_name": "B2F", "source": "2", "__floor": "B2", "__z_abs": 12.5}}, {"type": "Feature", "geometry": {"type": "Polygon", "coordinates": [[[139.7003424652049, 35.69414311034501, 12.5], [139.70034232734838, 35.694142712259186, 12.5], [139.70034036571383, 35.69414247507522, 12.5], [139.70034530928163, 35.69411568499452, 12.5], [139.70034727351828, 35.694115922493104, 12.5], [139.7004451285099, 35.694093372191176, 12.5], [139.7005359777744, 35.69410706109718, 12.5], [139.70053897693194, 35.69409437051233, 12.5], [139.70055383700821, 35.69409666654298, 12.5], [139.70061431332567, 35.69400796710316, 12.5], [139.7006152207583, 35.694007267770914, 12.5], [139.70064972525782, 35.69398067612976, 12.5], [139.7007451778361, 35.693907113385094, 12.5], [139.7010648296164, 35.6938334491971, 12.5], [139.70113058996012, 35.69381829458422, 12.5], [139.70113329861852, 35.69382611612085, 12.5], [139.7011765510842, 35.69381614842801, 12.5], [139.7011738424367, 35.69380832693504, 12.5], [139.70123083742527, 35.69379519208258, 12.5], [139.70130381233778, 35.693778374659544, 12.5], [139.70137092774863, 35.693762907541746, 12.5], [139.70139734784524, 35.69375681887236, 12.5], [139.70140267447712, 35.693755591317355, 12.5], [139.70306549793017, 35.69337237006531, 12.5], [139.70332156487865, 35.693302568113545, 12.5], [139.7034045073099, 35.69328636138487, 12.5], [139.70340477726052, 35.69328702030563, 12.5], [139.70344462462856, 35.69327616326528, 12.5], [139.70357135822331, 35.69324161576753, 12.5], [139.7036455452558, 35.693235256014106, 12.5], [139.70374041327287, 35.693189037319364, 12.5], [139.70360144492875, 35.69284979328497, 12.5], [139.70334151457826, 35.69291760934833, 12.5], [139.70333923515142, 35.69291204502517, 12.5], [139.70329723812293, 35.69292349356251, 12.5], [139.70329933534978, 35.692928613883296, 12.5], [139.70281279823047, 35.69305554983123, 12.5], [139.7027071285126, 35.69302405163909, 12.5], [139.70266485949512, 35.69295264692393, 12.5], [139.7026528973695, 35.69295735923558, 12.5], [139.70265073117682, 35.69295369989314, 12.5], [139.7022203748564, 35.69222669290314, 12.5], [139.70221964024884, 35.692225451907575, 12.5], [139.70202425583892, 35.69230242017237, 12.5], [139.70203397324727, 35.69231883614614, 12.5], [139.70246760946995, 35.6930513860263, 12.5], [139.70246857223512, 35.69305301232576, 12.5], [139.7024551146205, 35.69305831402635, 12.5], [139.7024380018797, 35.693090132305365, 12.5], [139.7023446952327, 35.69312813542073, 12.5], [139.70235760392762, 35.693165409184694, 12.5], [139.70196968012633, 35.69325481188641, 12.5], [139.70196399192852, 35.69323838703103, 12.5], [139.70183033686848, 35.693269189453645, 12.5], [139.70183602507223, 35.693285614405376, 12.5], [139.70157502187763, 35.69334576524724, 12.5], [139.7015720122891, 35.6933370748403, 12.5], [139.7015260971149, 35.69334765639132, 12.5], [139.70152910666755, 35.69335634670924, 12.5], [139.70123416869285, 35.69342431729271, 12.5], [139.70114922047205, 35.69343931783729, 12.5], [139.70114888436112, 35.693437495464586, 12.5], [139.70112462470354, 35.693439246063924, 12.5], [139.70112509445943, 35.69344357814108, 12.5], [139.7009427248737, 35.693475781663956, 12.5], [139.70089589393868, 35.69348405120178, 12.5], [139.70072244547575, 35.69351467927361, 12.5], [139.70072953374273, 35.693535147791415, 12.5], [139.70073826826948, 35.693560370135515, 12.5], [139.70068613709913, 35.69357238379117, 12.5], [139.70067077644774, 35.69357420327915, 12.5], [139.70064429239227, 35.69357734695365, 12.5], [139.70064301488455, 35.693577629382695, 12.5], [139.70065565484163, 35.69361412938035, 12.5], [139.70062369503623, 35.693621494508704, 12.5], [139.7006017109098, 35.6935580115583, 12.5], [139.70055225321067, 35.693528164900144, 12.5], [139.70051604153227, 35.693536509846304, 12.5], [139.70047609198397, 35.69354571616627, 12.5], [139.70046252714968, 35.69350654512168, 12.5], [139.7001806196268, 35.69357110948249, 12.5], [139.7002433672411, 35.693752306686, 12.5], [139.70015814081086, 35.69377194672162, 12.5], [139.70020072497144, 35.69389491751634, 12.5], [139.70008635511132, 35.69392127341241, 12.5], [139.7000511887291, 35.694114813339425, 12.5], [139.70032276443823, 35.69414765029641, 12.5], [139.7003424652049, 35.69414311034501, 12.5]]]}, "properties": {"id": "4ed490fb8c6e4f709a55acfc84465415", "category": "1", "name": "å°ä¸2é", "ordinal": -2.0, "short_name": "B2F", "source": "2", "__floor": "B2", "__z_abs": 12.5}}, {"type": "Feature", "geometry": {"type": "Polygon", "coordinates": [[[139.7002829895098, 35.69473962355322, 12.5], [139.70030976608598, 35.69462623574418, 12.5], [139.70029380744495, 35.69462376992429, 12.5], [139.70028985483145, 35.69464079295152, 12.5], [139.7002855140845, 35.694640077499166, 12.5], [139.7002861603371, 35.6946372942338, 12.5], [139.70026984492267, 35.694634773284854, 12.5], [139.7002682475727, 35.694640916830615, 12.5], [139.70026282204117, 35.694640022580415, 12.5], [139.70025690238003, 35.69466392226405, 12.5], [139.7002536470602, 35.69466338571351, 12.5], [139.70024476756032, 35.694699235237906, 12.5], [139.7002295760625, 35.69469673133402, 12.5], [139.70020896680649, 35.694779937631495, 12.5], [139.70022415831943, 35.6947824415381, 12.5], [139.70023665541748, 35.69473198665462, 12.5], [139.7002829895098, 35.69473962355322, 12.5]]]}, "properties": {"id": "080b3a1e199c4827a31d56b71fbe0457", "category": "1", "name": "å°ä¸2é", "ordinal": -2.0, "short_name": "B2F", "source": "2", "__floor": "B2", "__z_abs": 12.5}}, {"type": "Feature", "geometry": {"type": "Polygon", "coordinates": [[[139.6982819936435, 35.69229455957408, 12.5], [139.69834128826054, 35.6922717825553, 12.5], [139.6983601574107, 35.69226498068752, 12.5], [139.69840156445784, 35.692250785639445, 12.5], [139.6984537890164, 35.69223427521539, 12.5], [139.69846274003078, 35.692231597676916, 12.5], [139.69851566855522, 35.692216653405985, 12.5], [139.6985247592445, 35.69221430887831, 12.5], [139.69857831839613, 35.692200951750976, 12.5], [139.6985874848879, 35.692198813721966, 12.5], [139.69864160602836, 35.69218706041713, 12.5], [139.69865086206653, 35.692185196733654, 12.5], [139.69870547305345, 35.69217506290737, 12.5], [139.69870596345234, 35.69217698295727, 12.5], [139.69871529681762, 35.692175396550155, 12.5], [139.69871469252166, 35.69217303056212, 12.5], [139.69871163811717, 35.69216096201342, 12.5], [139.69869511599728, 35.69209629261743, 12.5], [139.69869721292102, 35.69209594172505, 12.5], [139.6986849785507, 35.6920432404976, 12.5], [139.69865630985768, 35.69199865585471, 12.5], [139.69816471410996, 35.69196933279572, 12.5], [139.69815913335077, 35.69203159411882, 12.5], [139.69822338243247, 35.692035505480476, 12.5], [139.69821478330286, 35.692131441690755, 12.5], [139.69815052711272, 35.69212760877556, 12.5], [139.69821647214377, 35.692205948050976, 12.5], [139.69827444221514, 35.69229748033825, 12.5], [139.6982819936435, 35.69229455957408, 12.5]]]}, "properties": {"id": "9fae593b62704c0198ef85d700f97343", "category": "1", "name": "å°ä¸2é", "ordinal": -2.0, "short_name": "B2F", "source": "2", "__floor": "B2", "__z_abs": 12.5}}, {"type": "Feature", "geometry": {"type": "Polygon", "coordinates": [[[139.70108598899293, 35.69229986362339, 12.5], [139.70109540121865, 35.69230023046211, 12.5], [139.70109569218954, 35.692295262193404, 12.5], [139.70114231527094, 35.69229707930338, 12.5], [139.70114202430295, 35.69230204757221, 12.5], [139.70115143652924, 35.69230241440656, 12.5], [139.7011517274966, 35.69229744613772, 12.5], [139.7011810205905, 35.692298587809, 12.5], [139.7011810999402, 35.692297232826405, 12.5], [139.70119814558137, 35.69229789716122, 12.5], [139.7012030543897, 35.69229828387721, 12.5], [139.7012029843669, 35.692302980713876, 12.5], [139.70122676623615, 35.69230269426506, 12.5], [139.70122678120023, 35.69230352103141, 12.5], [139.70128608396837, 35.69230280671858, 12.5], [139.701286092152, 35.69230325884528, 12.5], [139.70130826141104, 35.69230299180496, 12.5], [139.7013080750596, 35.692292696441875, 12.5], [139.70132308055258, 35.69229227541548, 12.5], [139.70132261300944, 35.69228268889606, 12.5], [139.70134830885524, 35.69228185490158, 12.5], [139.70134720706872, 35.6922592639756, 12.5], [139.70132151123016, 35.692260097969864, 12.5], [139.70132098240396, 35.69224925489198, 12.5], [139.7013128134466, 35.69224895898006, 12.5], [139.70131219917383, 35.69223636387109, 12.5], [139.70128233782958, 35.692236723567, 12.5], [139.70128232309912, 35.69223590973895, 12.5], [139.70122556984316, 35.692236593341924, 12.5], [139.70122558457302, 35.69223740717, 12.5], [139.7012038150011, 35.692237669381214, 12.5], [139.7012037107486, 35.69224597745891, 12.5], [139.7011841461827, 35.69224521495203, 12.5], [139.70118420437578, 35.69224422129823, 12.5], [139.70115404371157, 35.6922430458141, 12.5], [139.7011543346786, 35.692238077545205, 12.5], [139.70114492245986, 35.6922377107111, 12.5], [139.70114463149227, 35.69224267897998, 12.5], [139.70109974397215, 35.69224092951263, 12.5], [139.70110003494253, 35.69223596124387, 12.5], [139.7010906227243, 35.69223559440552, 12.5], [139.7010901730419, 35.69224327263902, 12.5], [139.70109626295394, 35.692243509991584, 12.5], [139.70109252859174, 35.69229242274274, 12.5], [139.70108643867604, 35.69229218538997, 12.5], [139.70108598899293, 35.69229986362339, 12.5]]]}, "properties": {"id": "0352ccd3fd8d404b886fa3535c11144d", "category": "1", "name": "å°ä¸2é", "ordinal": -2.0, "short_name": "B2F", "source": "2", "__floor": "B2", "__z_abs": 12.5}}, {"type": "Feature", "geometry": {"type": "Polygon", "coordinates": [[[139.70222105517172, 35.69222489452179, 12.5], [139.70225883886127, 35.692125014989536, 12.5], [139.70225048528272, 35.69211090303198, 12.5], [139.70223202336896, 35.69211863443438, 12.5], [139.70191612267104, 35.69224184621488, 12.5], [139.70189729203142, 35.69224784353928, 12.5], [139.70191767784783, 35.692282281962385, 12.5], [139.70200539027329, 35.6923098519067, 12.5], [139.70222105517172, 35.69222489452179, 12.5]]]}, "properties": {"id": "775162b7dc1d4d268b0b58135106afb0", "category": "1", "name": "å°ä¸2é", "ordinal": -2.0, "short_name": "B2F", "source": "2", "__floor": "B2", "__z_abs": 12.5}}, {"type": "Feature", "geometry": {"type": "Polygon", "coordinates": [[[139.70107727361727, 35.6921318152501, 12.5], [139.70107462691507, 35.692131666622316, 12.5], [139.70107828298197, 35.69203477292284, 12.5], [139.70100786012432, 35.69202813358341, 12.5], [139.70101660175487, 35.69197481136169, 12.5], [139.7009536906629, 35.69196840335927, 12.5], [139.70093568824268, 35.69206898909132, 12.5], [139.7009088360125, 35.69209236621909, 12.5], [139.70090346223955, 35.6921302979998, 12.5], [139.7008700805616, 35.692129824498686, 12.5], [139.7008661215616, 35.69216389082187, 12.5], [139.70088600854916, 35.69216542886462, 12.5], [139.70107445445882, 35.692167772665044, 12.5], [139.70107727361727, 35.6921318152501, 12.5]]]}, "properties": {"id": "e9f1496693704654a88f81113226e407", "category": "1", "name": "å°ä¸2é", "ordinal": -2.0, "short_name": "B2F", "source": "2", "__floor": "B2", "__z_abs": 12.5}}]}