{"type": "FeatureCollection", "features": [{"type": "Feature", "geometry": {"type": "Polygon", "coordinates": [[[139.69953815336623, 35.69212657138778, 52.5], [139.69950137626117, 35.69212296807136, 52.5], [139.69948735570142, 35.692218199251094, 52.5], [139.69962306863616, 35.692231495962474, 52.5], [139.6996300880941, 35.69218381751376, 52.5], [139.6995426911976, 35.692175254668626, 52.5], [139.69953275103381, 35.69216326553465, 52.5], [139.69953815336623, 35.69212657138778, 52.5]]]}, "properties": {"id": "b6492a89d07245d08ff47b4e4331ac9a", "category": "1", "name": "1é", "ordinal": 1.0, "short_name": "1F", "source": "2", "__floor": "1F", "__z_abs": 52.5}}, {"type": "Feature", "geometry": {"type": "Polygon", "coordinates": [[[139.70093544405438, 35.69160284408865, 52.5], [139.70093994362838, 35.69157308066997, 52.5], [139.70094295998814, 35.69155241969789, 52.5], [139.70092112359328, 35.691550299563445, 52.5], [139.70091803734832, 35.691570896186974, 52.5], [139.70091353776633, 35.69160065960483, 52.5], [139.70091045147126, 35.6916212565361, 52.5], [139.70093235776486, 35.69162344102049, 52.5], [139.70093544405438, 35.69160284408865, 52.5]]]}, "properties": {"id": "c0f3f9d198d348bd82414578fb3e4846", "category": "1", "name": "1é", "ordinal": 1.0, "short_name": "1F", "source": "1", "__floor": "1F", "__z_abs": 52.5}}, {"type": "Feature", "geometry": {"type": "Polygon", "coordinates": [[[139.69908576791025, 35.688984339489174, 52.5], [139.69905777857932, 35.689202128030985, 52.5], [139.69904204149535, 35.6892007819993, 52.5], [139.69903543572224, 35.68925218210382, 52.5], [139.69905117281624, 35.689253528136405, 52.5], [139.69904590728078, 35.689294499747426, 52.5], [139.69912900694183, 35.689301607432235, 52.5], [139.69912702977103, 35.689316992091285, 52.5], [139.69934936238013, 35.68933600836821, 52.5], [139.6993554602617, 35.68928855880414, 52.5], [139.6994488659884, 35.68929654774159, 52.5], [139.6994535441068, 35.689260145439306, 52.5], [139.69944636323362, 35.68925953126604, 52.5], [139.69945267231284, 35.689213095840444, 52.5], [139.6991994443421, 35.68919143721346, 52.5], [139.69920036812874, 35.689184249030305, 52.5], [139.69917939842492, 35.68918245546394, 52.5], [139.69920479987687, 35.68898480117775, 52.5], [139.69914296751722, 35.68897882050917, 52.5], [139.69914103020616, 35.68899011243963, 52.5], [139.69908576791025, 35.688984339489174, 52.5]]]}, "properties": {"id": "74ef66ad4def40969b481887109ee706", "category": "1", "name": "1é", "ordinal": 1.0, "short_name": "1F", "source": "1", "__floor": "1F", "__z_abs": 52.5}}, {"type": "Feature", "geometry": {"type": "Polygon", "coordinates": [[[139.70128993886163, 35.69132442598674, 52.5], [139.70121268705253, 35.69131692559717, 52.5], [139.70120309301996, 35.691380909213045, 52.5], [139.70124096479148, 35.69138468568192, 52.5], [139.70124770443144, 35.69133970610423, 52.5], [139.70128706128955, 35.69134363064881, 52.5], [139.70128993886163, 35.69132442598674, 52.5]]]}, "properties": {"id": "300026764e664d0ab5ddcc5823eb4902", "category": "1", "name": "1é", "ordinal": 1.0, "short_name": "1F", "source": "1", "__floor": "1F", "__z_abs": 52.5}}, {"type": "Feature", "geometry": {"type": "Polygon", "coordinates": [[[139.69944028371046, 35.69155617348633, 52.5], [139.69942429194413, 35.6914848065711, 52.5], [139.69971165615203, 35.691418011968246, 52.5], [139.6998016593414, 35.69140303936959, 52.5], [139.69979259564332, 35.69074954798809, 52.5], [139.699677468641, 35.690729514639145, 52.5], [139.69966270945582, 35.690832122993655, 52.5], [139.6994461378747, 35.69081139105236, 52.5], [139.69944804802788, 35.69079828636928, 52.5], [139.69941285790588, 35.69079487560474, 52.5], [139.6993911462798, 35.690872061345594, 52.5], [139.6993622428403, 35.69097468864661, 52.5], [139.69935325633304, 35.691006596938266, 52.5], [139.69931751142525, 35.691012589257774, 52.5], [139.69932012057757, 35.691023570384026, 52.5], [139.69934229329755, 35.69111688847564, 52.5], [139.69928613637876, 35.69112601697976, 52.5], [139.69932016056586, 35.69126519483456, 52.5], [139.69932987397064, 35.691263615373124, 52.5], [139.6993963236539, 35.691562612914716, 52.5], [139.69944028371046, 35.69155617348633, 52.5]]]}, "properties": {"id": "6e187ec710d04e58ac5e616fb97d533f", "category": "1", "name": "1é", "ordinal": 1.0, "short_name": "1F", "source": "1", "__floor": "1F", "__z_abs": 52.5}}, {"type": "Feature", "geometry": {"type": "Polygon", "coordinates": [[[139.70006033251138, 35.69410204696978, 52.5], [139.7000290483064, 35.69434901420848, 52.5], [139.7000389730964, 35.69435070773656, 52.5], [139.70001213627052, 35.69445536677146, 52.5], [139.70003110167306, 35.69445860294963, 52.5], [139.6999937357113, 35.69460432352993, 52.5], [139.70009440158586, 35.69462150059472, 52.5], [139.7000978231709, 35.69460815702385, 52.5], [139.70014990141559, 35.69461704336157, 52.5], [139.70026204449087, 35.694585174380826, 52.5], [139.70031800721694, 35.694366927499786, 52.5], [139.70028711902512, 35.69436165691057, 52.5], [139.700181029313, 35.69434355436169, 52.5], [139.70016455369532, 35.69434074302853, 52.5], [139.70021852509635, 35.69413026291505, 52.5], [139.70006033251138, 35.69410204696978, 52.5]]]}, "properties": {"id": "46cad3c5289d4d9ba87831aacef2ea65", "category": "1", "name": "1é", "ordinal": 1.0, "short_name": "1F", "source": "1", "__floor": "1F", "__z_abs": 52.5}}, {"type": "Feature", "geometry": {"type": "Polygon", "coordinates": [[[139.69783638019823, 35.68844008809818, 52.5], [139.6978244247792, 35.68846031442004, 52.5], [139.6978340471659, 35.68846409981229, 52.5], [139.6978158206034, 35.68849493571438, 52.5], [139.69784702315073, 35.688507210612485, 52.5], [139.69782074778269, 35.68855166355572, 52.5], [139.69788051443933, 35.68857517537591, 52.5], [139.69793698055202, 35.68847966364779, 52.5], [139.69783638019823, 35.68844008809818, 52.5]]]}, "properties": {"id": "099e94f2b77d4e03ba7eb827dcb7aa97", "category": "1", "name": "1é", "ordinal": 1.0, "short_name": "1F", "source": "1", "__floor": "1F", "__z_abs": 52.5}}, {"type": "Feature", "geometry": {"type": "Polygon", "coordinates": [[[139.69944260149032, 35.69056894685337, 52.5], [139.69941285790583, 35.69079487560481, 52.5], [139.699448048028, 35.69079828636933, 52.5], [139.6994461378747, 35.6908113910523, 52.5], [139.69966270945582, 35.690832122993655, 52.5], [139.699677468641, 35.690729514639145, 52.5], [139.69979259564332, 35.690749547988155, 52.5], [139.69980173736394, 35.69060041192625, 52.5], [139.69944260149032, 35.69056894685337, 52.5]]]}, "properties": {"id": "46bc514383474607af420bf231affbb9", "category": "1", "name": "1é", "ordinal": 1.0, "short_name": "1F", "source": "1", "__floor": "1F", "__z_abs": 52.5}}, {"type": "Feature", "geometry": {"type": "Polygon", "coordinates": [[[139.7013196700631, 35.69112600202127, 52.5], [139.70127941053153, 35.691121987464975, 52.5], [139.70128562945342, 35.69108156751878, 52.5], [139.70124924306361, 35.6910779391684, 52.5], [139.70123980310152, 35.69114094059062, 52.5], [139.7013162889278, 35.691148567533176, 52.5], [139.7013196700631, 35.69112600202127, 52.5]]]}, "properties": {"id": "88f58828240548f2a286bc4bdec8a2b7", "category": "1", "name": "1é", "ordinal": 1.0, "short_name": "1F", "source": "1", "__floor": "1F", "__z_abs": 52.5}}, {"type": "Feature", "geometry": {"type": "Polygon", "coordinates": [[[139.69917939842492, 35.68918245546394, 52.5], [139.69920036812874, 35.689184249030305, 52.5], [139.6991994443421, 35.68919143721346, 52.5], [139.69945267231284, 35.689213095840444, 52.5], [139.69947745042154, 35.68903072606037, 52.5], [139.6992888429618, 35.68894104562056, 52.5], [139.6992279324271, 35.688914959182135, 52.5], [139.69921931813613, 35.68897423289334, 52.5], [139.69920651573887, 35.688972994599304, 52.5], [139.69917939842492, 35.68918245546394, 52.5]]]}, "properties": {"id": "4ef9b4ff9a064d57a12ec90d9e2732ca", "category": "1", "name": "1é", "ordinal": 1.0, "short_name": "1F", "source": "1", "__floor": "1F", "__z_abs": 52.5}}, {"type": "Feature", "geometry": {"type": "Polygon", "coordinates": [[[139.7010833149475, 35.69158046900785, 52.5], [139.70107394304367, 35.69164301493229, 52.5], [139.7011222502032, 35.69164782590475, 52.5], [139.70113136462592, 35.6915852604242, 52.5], [139.7010833149475, 35.69158046900785, 52.5]]]}, "properties": {"id": "9d30c83fca4a4355a033d4ecf47e0cc2", "category": "1", "name": "1é", "ordinal": 1.0, "short_name": "1F", "source": "1", "__floor": "1F", "__z_abs": 52.5}}, {"type": "Feature", "geometry": {"type": "Polygon", "coordinates": [[[139.69893098537048, 35.68993960479378, 52.5], [139.69898957468206, 35.68994527182012, 52.5], [139.69899353448446, 35.68991802588151, 52.5], [139.6989349451925, 35.6899123588571, 52.5], [139.69893098537048, 35.68993960479378, 52.5]]]}, "properties": {"id": "5f22e6558b6846f2a8cd1bf9f8912195", "category": "1", "name": "1é", "ordinal": 1.0, "short_name": "1F", "source": "1", "__floor": "1F", "__z_abs": 52.5}}, {"type": "Feature", "geometry": {"type": "Polygon", "coordinates": [[[139.69885912355267, 35.691281144450045, 52.5], [139.69889589054037, 35.6914190496081, 52.5], [139.69905462968927, 35.69139141530701, 52.5], [139.6990357346324, 35.69132255178465, 52.5], [139.69900974383654, 35.69132707643962, 52.5], [139.69899169163398, 35.69125806618894, 52.5], [139.69885912355267, 35.691281144450045, 52.5]]]}, "properties": {"id": "f8d654d72b4d429ea365fb7134997208", "category": "1", "name": "1é", "ordinal": 1.0, "short_name": "1F", "source": "1", "__floor": "1F", "__z_abs": 52.5}}]}