{"type": "FeatureCollection", "features": [{"type": "Feature", "geometry": {"type": "Polygon", "coordinates": [[[139.69940233539202, 35.69148787420958, 52.5], [139.6994184052313, 35.69155937832594, 52.5], [139.69944028371015, 35.6915561734878, 52.5], [139.69942429194413, 35.6914848065711, 52.5], [139.69940233539202, 35.69148787420958, 52.5]]]}, "properties": {"id": "b4c73aa218684862b5035536c9a9b568", "category": "B023", "floor_id": "6e187ec710d04e58ac5e616fb97d533f", "name": "ä¸æ", "restricted": "2", "suite": "ä¸æ", "nonpublic": "2", "toll": "3", "source": "1", "__floor": "1F", "__z_abs": 52.5}}, {"type": "Feature", "geometry": {"type": "Polygon", "coordinates": [[[139.6994520145846, 35.689272047264105, 52.5], [139.6994535441068, 35.689260145439306, 52.5], [139.6992880785588, 35.68924599321679, 52.5], [139.69928654901233, 35.68925789503945, 52.5], [139.6994520145846, 35.689272047264105, 52.5]]]}, "properties": {"id": "6940086ba25849b797137702e661531b", "category": "B023", "floor_id": "74ef66ad4def40969b481887109ee706", "name": "ä¸æ", "restricted": "2", "suite": "ä¸æ", "nonpublic": "2", "toll": "3", "source": "1", "__floor": "1F", "__z_abs": 52.5}}, {"type": "Feature", "geometry": {"type": "Polygon", "coordinates": [[[139.69933537671346, 35.69115138701728, 52.5], [139.69935785535043, 35.69114773292571, 52.5], [139.69935357483678, 35.691130213437305, 52.5], [139.6993310963431, 35.69113386809525, 52.5], [139.69933537671346, 35.69115138701728, 52.5]]]}, "properties": {"id": "3fd3674bfe604339a2fb4e4a82bd4471", "category": "B022", "floor_id": "6e187ec710d04e58ac5e616fb97d533f", "name": "ä¸æ", "restricted": "2", "suite": "ä¸æ", "nonpublic": "2", "toll": "3", "source": "1", "__floor": "1F", "__z_abs": 52.5}}, {"type": "Feature", "geometry": {"type": "Polygon", "coordinates": [[[139.6992834003661, 35.68928239551256, 52.5], [139.6994488659884, 35.68929654774159, 52.5], [139.69945053268458, 35.6892835785187, 52.5], [139.69928506708874, 35.689269426291986, 52.5], [139.6992834003661, 35.68928239551256, 52.5]]]}, "properties": {"id": "8e903a4aaf8447cb94b11d9135e84c2c", "category": "B023", "floor_id": "74ef66ad4def40969b481887109ee706", "name": "ä¸æ", "restricted": "2", "suite": "ä¸æ", "nonpublic": "2", "toll": "3", "source": "1", "__floor": "1F", "__z_abs": 52.5}}, {"type": "Feature", "geometry": {"type": "Polygon", "coordinates": [[[139.69947173643797, 35.69117094375092, 52.5], [139.69945365890712, 35.69110193791309, 52.5], [139.6994291651711, 35.69110620205102, 52.5], [139.6994472177169, 35.6911752122386, 52.5], [139.69947173643797, 35.69117094375092, 52.5]]]}, "properties": {"id": "666b54f0320e47c59b1386fdf60f8ab8", "category": "B023", "floor_id": "6e187ec710d04e58ac5e616fb97d533f", "name": "ä¸æ", "restricted": "2", "suite": "ä¸æ", "nonpublic": "2", "toll": "3", "source": "1", "__floor": "1F", "__z_abs": 52.5}}, {"type": "Feature", "geometry": {"type": "Polygon", "coordinates": [[[139.69941967952985, 35.69102294448912, 52.5], [139.69944668228231, 35.6908361979417, 52.5], [139.6994425802641, 35.690835803506104, 52.5], [139.6994461378747, 35.69081139105236, 52.5], [139.69944804802788, 35.69079828636928, 52.5], [139.69941285790588, 35.69079487560474, 52.5], [139.6993911462798, 35.690872061345594, 52.5], [139.6993622428403, 35.69097468864661, 52.5], [139.69935325633304, 35.691006596938266, 52.5], [139.69931751142525, 35.691012589257774, 52.5], [139.69932012057757, 35.691023570384026, 52.5], [139.69932368101502, 35.69103855517421, 52.5], [139.69941967952985, 35.69102294448912, 52.5]]]}, "properties": {"id": "ec35157784cb4f22bedf957d065c483f", "category": "B019", "floor_id": "6e187ec710d04e58ac5e616fb97d533f", "name": null, "restricted": "2", "suite": null, "nonpublic": "2", "toll": "1", "source": "1", "__floor": "1F", "__z_abs": 52.5}}, {"type": "Feature", "geometry": {"type": "Polygon", "coordinates": [[[139.69942429194413, 35.6914848065711, 52.5], [139.69971165615203, 35.691418011968246, 52.5], [139.69965458854142, 35.69105448518922, 52.5], [139.69967413650818, 35.691051227521044, 52.5], [139.69974000109798, 35.69104072652904, 52.5], [139.69974092019513, 35.691040574742864, 52.5], [139.6997333461033, 35.691008700630384, 52.5], [139.69964694346, 35.691022519738254, 52.5], [139.69963541864112, 35.690974950113166, 52.5], [139.69964579701457, 35.690949700817846, 52.5], [139.69966270945582, 35.690832122993655, 52.5], [139.69944613787482, 35.690811391052414, 52.5], [139.69944258026408, 35.690835803506154, 52.5], [139.69944668228231, 35.690836197941785, 52.5], [139.6994196795299, 35.69102294448924, 52.5], [139.69932368101502, 35.69103855517425, 52.5], [139.69933022971918, 35.69106611662123, 52.5], [139.6993422932976, 35.691116888475676, 52.5], [139.69935001258432, 35.69111563367641, 52.5], [139.6993535748369, 35.691130213437305, 52.5], [139.6993578553504, 35.691147732925735, 52.5], [139.6993591952803, 35.691153217052644, 52.5], [139.6993634754631, 35.69117073517628, 52.5], [139.69936481584034, 35.691176221130604, 52.5], [139.69936909627552, 35.691193740277754, 52.5], [139.69937043683365, 35.69119922696921, 52.5], [139.69937466731574, 35.69121654165508, 52.5], [139.69937603778715, 35.69122215077414, 52.5], [139.6993803374712, 35.69123974868302, 52.5], [139.69938401769696, 35.69125481124314, 52.5], [139.69932987397064, 35.691263615373124, 52.5], [139.69938037883793, 35.69149094184551, 52.5], [139.69942429194413, 35.6914848065711, 52.5]], [[139.69960677805142, 35.69121979345692, 52.5], [139.69958777710508, 35.69122283604762, 52.5], [139.69958939292798, 35.691229551502495, 52.5], [139.69953873698108, 35.69123739415353, 52.5], [139.69952283972398, 35.691169022014655, 52.5], [139.69950742920207, 35.69110274315033, 52.5], [139.69952976761934, 35.691099286577504, 52.5], [139.69955705683728, 35.69109506392814, 52.5], [139.69957109939764, 35.69115352244832, 52.5], [139.6995896551282, 35.69115062220318, 52.5], [139.69960677805142, 35.69121979345692, 52.5]], [[139.69947173643797, 35.69117094375092, 52.5], [139.69948981399983, 35.691239949585324, 52.5], [139.6994652702936, 35.69124422242277, 52.5], [139.69943786144248, 35.691248994049616, 52.5], [139.6994198088884, 35.69117998386139, 52.5], [139.69940175636518, 35.69111097366981, 52.5], [139.6994291651711, 35.69110620205102, 52.5], [139.69945365890712, 35.69110193791309, 52.5], [139.69947173643797, 35.69117094375092, 52.5]]]}, "properties": {"id": "2d8c0a2832fc4c6587896b0e819c6d6d", "category": "B029", "floor_id": "6e187ec710d04e58ac5e616fb97d533f", "name": null, "restricted": "2", "suite": null, "nonpublic": "2", "toll": "3", "source": "1", "__floor": "1F", "__z_abs": 52.5}}, {"type": "Feature", "geometry": {"type": "Polygon", "coordinates": [[[139.69889589054037, 35.691419049608086, 52.5], [139.69892263671179, 35.691414393483775, 52.5], [139.6989471804986, 35.691410120757226, 52.5], [139.698969643325, 35.69140621029181, 52.5], [139.6990277960698, 35.69139608668698, 52.5], [139.6990546296892, 35.691391415307024, 52.5], [139.69903573463233, 35.69132255178452, 52.5], [139.69900974383648, 35.691327076439634, 52.5], [139.699007056715, 35.69131680407583, 52.5], [139.698991691634, 35.691258066188944, 52.5], [139.69891102626528, 35.69127210892784, 52.5], [139.6988865324488, 35.691276372955016, 52.5], [139.69885912355267, 35.69128114444996, 52.5], [139.69887717564626, 35.69135015472003, 52.5], [139.69889589054037, 35.691419049608086, 52.5]]]}, "properties": {"id": "0f55a7c8f3e04b51929e22aed1016008", "category": "B029", "floor_id": "f8d654d72b4d429ea365fb7134997208", "name": null, "restricted": "2", "suite": null, "nonpublic": "2", "toll": "3", "source": "1", "__floor": "1F", "__z_abs": 52.5}}, {"type": "Feature", "geometry": {"type": "Polygon", "coordinates": [[[139.69953873698108, 35.69123739415353, 52.5], [139.69958939292798, 35.691229551502495, 52.5], [139.69957290021955, 35.691161019179134, 52.5], [139.69952283972398, 35.691169022014655, 52.5], [139.69953873698108, 35.69123739415353, 52.5]]]}, "properties": {"id": "08f05493f61949f9bbe5803e63bcbac8", "category": "B021", "floor_id": "6e187ec710d04e58ac5e616fb97d533f", "name": "ä¸æ", "restricted": "2", "suite": "ä¸æ", "nonpublic": "2", "toll": "3", "source": "1", "__floor": "1F", "__z_abs": 52.5}}, {"type": "Feature", "geometry": {"type": "Polygon", "coordinates": [[[139.70093544405438, 35.69160284408865, 52.5], [139.70091353776633, 35.69160065960483, 52.5], [139.70091045147126, 35.6916212565361, 52.5], [139.70093235776486, 35.69162344102049, 52.5], [139.70093544405438, 35.69160284408865, 52.5]]]}, "properties": {"id": "f1709796f1d943258789ca8a8d363202", "category": "B022", "floor_id": "c0f3f9d198d348bd82414578fb3e4846", "name": "ä¸æ", "restricted": "2", "suite": "ä¸æ", "nonpublic": "2", "toll": "3", "source": "1", "__floor": "1F", "__z_abs": 52.5}}, {"type": "Feature", "geometry": {"type": "Polygon", "coordinates": [[[139.69954574716579, 35.69116535995843, 52.5], [139.69957290021955, 35.691161019179134, 52.5], [139.69955705683728, 35.69109506392814, 52.5], [139.69952976761934, 35.691099286577504, 52.5], [139.69954574716579, 35.69116535995843, 52.5]]]}, "properties": {"id": "ec11c474443d4ecaa0877fa931715b0c", "category": "B021", "floor_id": "6e187ec710d04e58ac5e616fb97d533f", "name": "ä¸æ", "restricted": "2", "suite": "ä¸æ", "nonpublic": "2", "toll": "3", "source": "1", "__floor": "1F", "__z_abs": 52.5}}, {"type": "Feature", "geometry": {"type": "Polygon", "coordinates": [[[139.6994198088884, 35.69117998386139, 52.5], [139.6994472177169, 35.6911752122386, 52.5], [139.6994291651711, 35.69110620205102, 52.5], [139.69940175636518, 35.69111097366981, 52.5], [139.6994198088884, 35.69117998386139, 52.5]]]}, "properties": {"id": "4e32ad3eac3443a193f4f50de756576f", "category": "B023", "floor_id": "6e187ec710d04e58ac5e616fb97d533f", "name": "ä¸æ", "restricted": "2", "suite": "ä¸æ", "nonpublic": "2", "toll": "3", "source": "1", "__floor": "1F", "__z_abs": 52.5}}, {"type": "Feature", "geometry": {"type": "Polygon", "coordinates": [[[139.69908576791025, 35.688984339489174, 52.5], [139.6990624946741, 35.68916543158306, 52.5], [139.69907978201627, 35.68916691020975, 52.5], [139.69910301370922, 35.68898614106649, 52.5], [139.69908576791025, 35.688984339489174, 52.5]]]}, "properties": {"id": "aada5634a961455ebb70901c5919cf6b", "category": "B023", "floor_id": "74ef66ad4def40969b481887109ee706", "name": "ä¸æ", "restricted": "2", "suite": "ä¸æ", "nonpublic": "2", "toll": "3", "source": "1", "__floor": "1F", "__z_abs": 52.5}}, {"type": "Feature", "geometry": {"type": "Polygon", "coordinates": [[[139.69911789009026, 35.68917016967321, 52.5], [139.6991802914107, 35.689175506962336, 52.5], [139.69920479987687, 35.68898480117775, 52.5], [139.69914296751722, 35.68897882050917, 52.5], [139.69914103020616, 35.68899011243963, 52.5], [139.69911789009026, 35.68917016967321, 52.5]]]}, "properties": {"id": "78f5b499334f43a9a88d0642b89e0662", "category": "B021", "floor_id": "74ef66ad4def40969b481887109ee706", "name": "ä¸æ", "restricted": "2", "suite": "ä¸æ", "nonpublic": "2", "toll": "3", "source": "1", "__floor": "1F", "__z_abs": 52.5}}, {"type": "Feature", "geometry": {"type": "Polygon", "coordinates": [[[139.69912247027438, 35.68898817358778, 52.5], [139.69909928545, 35.68916857838085, 52.5], [139.69911789009026, 35.68917016967321, 52.5], [139.69914103020616, 35.68899011243963, 52.5], [139.69912247027438, 35.68898817358778, 52.5]]]}, "properties": {"id": "9724ddc58388479cb379deb2b42a6239", "category": "B023", "floor_id": "74ef66ad4def40969b481887109ee706", "name": "ä¸æ", "restricted": "2", "suite": "ä¸æ", "nonpublic": "2", "toll": "3", "source": "1", "__floor": "1F", "__z_abs": 52.5}}, {"type": "Feature", "geometry": {"type": "Polygon", "coordinates": [[[139.69934795830065, 35.69120288154552, 52.5], [139.69935218888833, 35.691220196684014, 52.5], [139.69937466731557, 35.691216541654974, 52.5], [139.69937043683365, 35.691199226969196, 52.5], [139.69934795830065, 35.69120288154552, 52.5]]]}, "properties": {"id": "4dfdd7e5b0944a63b921463e7e045f86", "category": "B022", "floor_id": "6e187ec710d04e58ac5e616fb97d533f", "name": "ä¸æ", "restricted": "2", "suite": "ä¸æ", "nonpublic": "2", "toll": "3", "source": "1", "__floor": "1F", "__z_abs": 52.5}}, {"type": "Feature", "geometry": {"type": "Polygon", "coordinates": [[[139.70093923377422, 35.69157755266761, 52.5], [139.70091732749296, 35.69157536818449, 52.5], [139.70091424124604, 35.69159596480782, 52.5], [139.70093614753284, 35.691598149291515, 52.5], [139.70093923377422, 35.69157755266761, 52.5]]]}, "properties": {"id": "212fc07f4bdd4297b1fb9009e5ab07db", "category": "B022", "floor_id": "c0f3f9d198d348bd82414578fb3e4846", "name": "ä¸æ", "restricted": "2", "suite": "ä¸æ", "nonpublic": "2", "toll": "3", "source": "1", "__floor": "1F", "__z_abs": 52.5}}, {"type": "Feature", "geometry": {"type": "Polygon", "coordinates": [[[139.69935785930977, 35.69124340482681, 52.5], [139.6993803374712, 35.691239748683074, 52.5], [139.6993760377871, 35.69122215077414, 52.5], [139.69935355935834, 35.69122580580343, 52.5], [139.69935785930977, 35.69124340482681, 52.5]]]}, "properties": {"id": "c651cf60b0c843409527815c290c37c0", "category": "B022", "floor_id": "6e187ec710d04e58ac5e616fb97d533f", "name": "ä¸æ", "restricted": "2", "suite": "ä¸æ", "nonpublic": "2", "toll": "3", "source": "1", "__floor": "1F", "__z_abs": 52.5}}, {"type": "Feature", "geometry": {"type": "Polygon", "coordinates": [[[139.70094295998814, 35.69155241969789, 52.5], [139.70092112359328, 35.691550299563445, 52.5], [139.70091803734832, 35.691570896186974, 52.5], [139.70093994362838, 35.69157308066997, 52.5], [139.70094295998814, 35.69155241969789, 52.5]]]}, "properties": {"id": "ca867572e3024bd6abddfa7bcf0f1246", "category": "B022", "floor_id": "c0f3f9d198d348bd82414578fb3e4846", "name": "ä¸æ", "restricted": "2", "suite": "ä¸æ", "nonpublic": "2", "toll": "3", "source": "1", "__floor": "1F", "__z_abs": 52.5}}, {"type": "Feature", "geometry": {"type": "Polygon", "coordinates": [[[139.6998016593414, 35.69140303936959, 52.5], [139.69979259564332, 35.69074954798809, 52.5], [139.699677468641, 35.690729514639145, 52.5], [139.69964579701457, 35.690949700817846, 52.5], [139.69963541864112, 35.690974950113166, 52.5], [139.69964694346, 35.691022519738254, 52.5], [139.6997333461033, 35.691008700630384, 52.5], [139.69974092019513, 35.691040574742864, 52.5], [139.69974662534298, 35.69106825056768, 52.5], [139.69971369864635, 35.69107352436733, 52.5], [139.69968077194542, 35.69107879815797, 52.5], [139.69967413650818, 35.691051227521044, 52.5], [139.69965458854142, 35.69105448518922, 52.5], [139.69971165615203, 35.691418011968246, 52.5], [139.6998016593414, 35.69140303936959, 52.5]]]}, "properties": {"id": "0c9cd86632884768b43ec83b94957ffc", "category": "B019", "floor_id": "6e187ec710d04e58ac5e616fb97d533f", "name": null, "restricted": "2", "suite": null, "nonpublic": "2", "toll": "1", "source": "1", "__floor": "1F", "__z_abs": 52.5}}, {"type": "Feature", "geometry": {"type": "Polygon", "coordinates": [[[139.69928506708874, 35.689269426291986, 52.5], [139.69945053268458, 35.6892835785187, 52.5], [139.6994520145846, 35.689272047264105, 52.5], [139.69928654901233, 35.68925789503945, 52.5], [139.69928506708874, 35.689269426291986, 52.5]]]}, "properties": {"id": "53200294d4f74c4a8727f14e4d1637cd", "category": "B023", "floor_id": "74ef66ad4def40969b481887109ee706", "name": "ä¸æ", "restricted": "2", "suite": "ä¸æ", "nonpublic": "2", "toll": "3", "source": "1", "__floor": "1F", "__z_abs": 52.5}}, {"type": "Feature", "geometry": {"type": "Polygon", "coordinates": [[[139.69956602897912, 35.692177541229995, 52.5], [139.6995426911976, 35.692175254668626, 52.5], [139.69953275103381, 35.69216326553465, 52.5], [139.69953815336623, 35.69212657138778, 52.5], [139.69950137626117, 35.69212296807136, 52.5], [139.69948735570142, 35.692218199251094, 52.5], [139.69955900948366, 35.692225219674945, 52.5], [139.69956602897912, 35.692177541229995, 52.5]]]}, "properties": {"id": "ae4efd36b46e414dad542dcbaf972597", "category": "B029", "floor_id": "b6492a89d07245d08ff47b4e4331ac9a", "name": null, "restricted": "2", "suite": null, "nonpublic": "2", "toll": "3", "source": "2", "__floor": "1F", "__z_abs": 52.5}}, {"type": "Feature", "geometry": {"type": "Polygon", "coordinates": [[[139.6993554602617, 35.68928855880414, 52.5], [139.6992834003661, 35.68928239551256, 52.5], [139.69928506708874, 35.689269426291986, 52.5], [139.69928654901233, 35.68925789503945, 52.5], [139.6992880785588, 35.68924599321679, 52.5], [139.69929346309513, 35.68924645375836, 52.5], [139.69929943438555, 35.68919998944216, 52.5], [139.6991994443421, 35.68919143721346, 52.5], [139.69920036812874, 35.689184249030305, 52.5], [139.69917939842492, 35.68918245546394, 52.5], [139.6991802914107, 35.689175506962336, 52.5], [139.69911789009026, 35.68917016967321, 52.5], [139.69909928545, 35.68916857838085, 52.5], [139.69907978201627, 35.68916691020975, 52.5], [139.6990624946741, 35.68916543158306, 52.5], [139.69905777857932, 35.689202128030985, 52.5], [139.69905117281624, 35.689253528136405, 52.5], [139.69904590728078, 35.689294499747426, 52.5], [139.69912900694183, 35.689301607432235, 52.5], [139.69912702977103, 35.689316992091285, 52.5], [139.69934936238013, 35.68933600836821, 52.5], [139.6993554602617, 35.68928855880414, 52.5]]]}, "properties": {"id": "5192cf78afc3427b879f0cfd6027045e", "category": "B029", "floor_id": "74ef66ad4def40969b481887109ee706", "name": null, "restricted": "2", "suite": null, "nonpublic": "2", "toll": "3", "source": "1", "__floor": "1F", "__z_abs": 52.5}}, {"type": "Feature", "geometry": {"type": "Polygon", "coordinates": [[[139.69792502327132, 35.688499889239544, 52.5], [139.69789799691173, 35.688489257250325, 52.5], [139.69786620441621, 35.68854304420432, 52.5], [139.69786304547821, 35.68854180149846, 52.5], [139.69786505914504, 35.688538394753614, 52.5], [139.69783547085544, 35.688526754906846, 52.5], [139.69782074778269, 35.68855166355572, 52.5], [139.69788051443933, 35.68857517537591, 52.5], [139.69792502327132, 35.688499889239544, 52.5]]]}, "properties": {"id": "474371b8f2d64e1d8daa01935d6d8d90", "category": "B021", "floor_id": "099e94f2b77d4e03ba7eb827dcb7aa97", "name": "ä¸æ", "restricted": "2", "suite": "ä¸æ", "nonpublic": "2", "toll": "3", "source": "1", "__floor": "1F", "__z_abs": 52.5}}, {"type": "Feature", "geometry": {"type": "Polygon", "coordinates": [[[139.70005832675608, 35.694396409697504, 52.5], [139.70006194985322, 35.69438228026545, 52.5], [139.7000413814409, 35.69437877055512, 52.5], [139.7000377583403, 35.69439289998657, 52.5], [139.70005832675608, 35.694396409697504, 52.5]]]}, "properties": {"id": "2eb2717dda6a487aa83e9d397831ac41", "category": "B022", "floor_id": "46cad3c5289d4d9ba87831aacef2ea65", "name": "ä¸æ", "restricted": "2", "suite": "ä¸æ", "nonpublic": "2", "toll": "3", "source": "1", "__floor": "1F", "__z_abs": 52.5}}, {"type": "Feature", "geometry": {"type": "Polygon", "coordinates": [[[139.7001606495107, 35.69442303243748, 52.5], [139.70026673932335, 35.694441135004304, 52.5], [139.70028711902512, 35.69436165691057, 52.5], [139.700181029313, 35.69434355436169, 52.5], [139.7001606495107, 35.69442303243748, 52.5]]]}, "properties": {"id": "0968920395764f94aae3557318a91caa", "category": "B021", "floor_id": "46cad3c5289d4d9ba87831aacef2ea65", "name": "ä¸æ", "restricted": "2", "suite": "ä¸æ", "nonpublic": "2", "toll": "3", "source": "1", "__floor": "1F", "__z_abs": 52.5}}, {"type": "Feature", "geometry": {"type": "Polygon", "coordinates": [[[139.6993963236539, 35.691562612914716, 52.5], [139.6994184052313, 35.69155937832594, 52.5], [139.69940233539202, 35.69148787420958, 52.5], [139.69938037883793, 35.69149094184551, 52.5], [139.6993963236539, 35.691562612914716, 52.5]]]}, "properties": {"id": "5a3e259c4d9b48fa80c65e8174170768", "category": "B023", "floor_id": "6e187ec710d04e58ac5e616fb97d533f", "name": "ä¸æ", "restricted": "2", "suite": "ä¸æ", "nonpublic": "2", "toll": "3", "source": "1", "__floor": "1F", "__z_abs": 52.5}}, {"type": "Feature", "geometry": {"type": "Polygon", "coordinates": [[[139.6994198088884, 35.69117998386139, 52.5], [139.69943786144248, 35.691248994049616, 52.5], [139.6994652702936, 35.69124422242277, 52.5], [139.6994472177169, 35.6911752122386, 52.5], [139.6994198088884, 35.69117998386139, 52.5]]]}, "properties": {"id": "79840924f4f64d2b9c7d3e730162a005", "category": "B023", "floor_id": "6e187ec710d04e58ac5e616fb97d533f", "name": "ä¸æ", "restricted": "2", "suite": "ä¸æ", "nonpublic": "2", "toll": "3", "source": "1", "__floor": "1F", "__z_abs": 52.5}}, {"type": "Feature", "geometry": {"type": "Polygon", "coordinates": [[[139.69934233756368, 35.691179876729855, 52.5], [139.69934661797356, 35.691197395793154, 52.5], [139.69936909627555, 35.69119374027772, 52.5], [139.69936481584026, 35.69117622113049, 52.5], [139.69934233756368, 35.691179876729855, 52.5]]]}, "properties": {"id": "a08bfb66a20042f6bc18ead69b9ee377", "category": "B022", "floor_id": "6e187ec710d04e58ac5e616fb97d533f", "name": "ä¸æ", "restricted": "2", "suite": "ä¸æ", "nonpublic": "2", "toll": "3", "source": "1", "__floor": "1F", "__z_abs": 52.5}}, {"type": "Feature", "geometry": {"type": "Polygon", "coordinates": [[[139.69907978201627, 35.68916691020975, 52.5], [139.69909928545, 35.68916857838085, 52.5], [139.69912247027438, 35.68898817358778, 52.5], [139.69910301370922, 35.68898614106649, 52.5], [139.69907978201627, 35.68916691020975, 52.5]]]}, "properties": {"id": "84df1920c77941c7a2984f19223c2023", "category": "B023", "floor_id": "74ef66ad4def40969b481887109ee706", "name": "ä¸æ", "restricted": "2", "suite": "ä¸æ", "nonpublic": "2", "toll": "3", "source": "1", "__floor": "1F", "__z_abs": 52.5}}, {"type": "Feature", "geometry": {"type": "Polygon", "coordinates": [[[139.6994472177169, 35.6911752122386, 52.5], [139.6994652702936, 35.69124422242277, 52.5], [139.69948981399983, 35.691239949585324, 52.5], [139.69947173643797, 35.69117094375092, 52.5], [139.6994472177169, 35.6911752122386, 52.5]]]}, "properties": {"id": "323a65306e9b435dbd074733ef434c2a", "category": "B023", "floor_id": "6e187ec710d04e58ac5e616fb97d533f", "name": "ä¸æ", "restricted": "2", "suite": "ä¸æ", "nonpublic": "2", "toll": "3", "source": "1", "__floor": "1F", "__z_abs": 52.5}}, {"type": "Feature", "geometry": {"type": "Polygon", "coordinates": [[[139.70009123284632, 35.69438228026545, 52.5], [139.70016455369532, 35.69434074302853, 52.5], [139.7001872317219, 35.69425230223354, 52.5], [139.7001514589241, 35.694245921635456, 52.5], [139.70014850219118, 35.69425745235974, 52.5], [139.70013170585457, 35.694322955038565, 52.5], [139.7000678921545, 35.69435910634909, 52.5], [139.70006421428826, 35.69437344937032, 52.5], [139.70006194985186, 35.694382280265444, 52.5], [139.7000500244192, 35.694428787309896, 52.5], [139.7000780799336, 35.69443357459007, 52.5], [139.70009123284632, 35.69438228026545, 52.5]]]}, "properties": {"id": "df0280cbb99943ca8f6b1c367641811f", "category": "B029", "floor_id": "46cad3c5289d4d9ba87831aacef2ea65", "name": null, "restricted": "2", "suite": null, "nonpublic": "2", "toll": "3", "source": "1", "__floor": "1F", "__z_abs": 52.5}}, {"type": "Feature", "geometry": {"type": "Polygon", "coordinates": [[[139.69899353448446, 35.68991802588151, 52.5], [139.69896514623417, 35.6899152800437, 52.5], [139.69896118642228, 35.68994252598137, 52.5], [139.69898957468206, 35.68994527182012, 52.5], [139.69899353448446, 35.68991802588151, 52.5]]]}, "properties": {"id": "b4a390d0895240d18c3d7e0c0ee205ce", "category": "B022", "floor_id": "5f22e6558b6846f2a8cd1bf9f8912195", "name": "ä¸æ", "restricted": "2", "suite": "ä¸æ", "nonpublic": "2", "toll": "3", "source": "1", "__floor": "1F", "__z_abs": 52.5}}, {"type": "Feature", "geometry": {"type": "Polygon", "coordinates": [[[139.6996300880941, 35.69218381751376, 52.5], [139.69956602897912, 35.692177541229995, 52.5], [139.69955900948366, 35.692225219674945, 52.5], [139.69962306863616, 35.692231495962474, 52.5], [139.6996300880941, 35.69218381751376, 52.5]]]}, "properties": {"id": "a53040d8a047409e969613d15eef03a0", "category": "B021", "floor_id": "b6492a89d07245d08ff47b4e4331ac9a", "name": "ä¸æ", "restricted": "2", "suite": "ä¸æ", "nonpublic": "2", "toll": "3", "source": "2", "__floor": "1F", "__z_abs": 52.5}}, {"type": "Feature", "geometry": {"type": "Polygon", "coordinates": [[[139.70005289210798, 35.694417603845366, 52.5], [139.70005649427452, 35.69440355604652, 52.5], [139.7000359467895, 35.694399964702235, 52.5], [139.700032323687, 35.694414094133485, 52.5], [139.70005289210798, 35.694417603845366, 52.5]]]}, "properties": {"id": "b536ad3bc4a543cf9b4137f84b581b10", "category": "B022", "floor_id": "46cad3c5289d4d9ba87831aacef2ea65", "name": "ä¸æ", "restricted": "2", "suite": "ä¸æ", "nonpublic": "2", "toll": "3", "source": "1", "__floor": "1F", "__z_abs": 52.5}}, {"type": "Feature", "geometry": {"type": "Polygon", "coordinates": [[[139.69934099722937, 35.69117439094481, 52.5], [139.69936347546306, 35.6911707351763, 52.5], [139.69935919528035, 35.69115321705263, 52.5], [139.6993367169893, 35.691156872566296, 52.5], [139.69934099722937, 35.69117439094481, 52.5]]]}, "properties": {"id": "7d2a71882c604bafbf80074c5c3545d5", "category": "B022", "floor_id": "6e187ec710d04e58ac5e616fb97d533f", "name": "ä¸æ", "restricted": "2", "suite": "ä¸æ", "nonpublic": "2", "toll": "3", "source": "1", "__floor": "1F", "__z_abs": 52.5}}, {"type": "Feature", "geometry": {"type": "Polygon", "coordinates": [[[139.69970709721565, 35.69104595797275, 52.5], [139.69971369864635, 35.69107352436733, 52.5], [139.69974662534298, 35.69106825056768, 52.5], [139.69974000109798, 35.69104072652904, 52.5], [139.69970709721565, 35.69104595797275, 52.5]]]}, "properties": {"id": "f36a63a295f44b2f95806ba8760f7ac5", "category": "B022", "floor_id": "6e187ec710d04e58ac5e616fb97d533f", "name": "ä¸æ", "restricted": "2", "suite": "ä¸æ", "nonpublic": "2", "toll": "3", "source": "1", "__floor": "1F", "__z_abs": 52.5}}, {"type": "Feature", "geometry": {"type": "Polygon", "coordinates": [[[139.69952283972398, 35.691169022014655, 52.5], [139.69954573728504, 35.69116536153799, 52.5], [139.69952976761934, 35.691099286577504, 52.5], [139.69950742920207, 35.69110274315033, 52.5], [139.69952283972398, 35.691169022014655, 52.5]]]}, "properties": {"id": "70ddb461932c471e8a237fecc037aa77", "category": "B023", "floor_id": "6e187ec710d04e58ac5e616fb97d533f", "name": "ä¸æ", "restricted": "2", "suite": "ä¸æ", "nonpublic": "2", "toll": "3", "source": "1", "__floor": "1F", "__z_abs": 52.5}}, {"type": "Feature", "geometry": {"type": "Polygon", "coordinates": [[[139.6978340471659, 35.68846409981229, 52.5], [139.6978158206034, 35.68849493571438, 52.5], [139.69784702315073, 35.688507210612485, 52.5], [139.69786524970405, 35.688476374705765, 52.5], [139.6978340471659, 35.68846409981229, 52.5]]]}, "properties": {"id": "c382ab9ca44c458db8ba35a99a129c9e", "category": "B022", "floor_id": "099e94f2b77d4e03ba7eb827dcb7aa97", "name": "ä¸æ", "restricted": "2", "suite": "ä¸æ", "nonpublic": "2", "toll": "3", "source": "1", "__floor": "1F", "__z_abs": 52.5}}, {"type": "Feature", "geometry": {"type": "Polygon", "coordinates": [[[139.7010833149475, 35.69158046900785, 52.5], [139.70107394304367, 35.69164301493229, 52.5], [139.7011222502032, 35.69164782590475, 52.5], [139.70113136462592, 35.6915852604242, 52.5], [139.7010833149475, 35.69158046900785, 52.5]]]}, "properties": {"id": "53b4cbfb128d4371bf43c604ab38c265", "category": "B021", "floor_id": "9d30c83fca4a4355a033d4ecf47e0cc2", "name": "ä¸æ", "restricted": "2", "suite": "ä¸æ", "nonpublic": "2", "toll": "3", "source": "1", "__floor": "1F", "__z_abs": 52.5}}, {"type": "Feature", "geometry": {"type": "Polygon", "coordinates": [[[139.69896514623417, 35.6899152800437, 52.5], [139.6989349451925, 35.6899123588571, 52.5], [139.69893098537048, 35.68993960479378, 52.5], [139.69896118642228, 35.68994252598137, 52.5], [139.69896514623417, 35.6899152800437, 52.5]]]}, "properties": {"id": "fba7d1133ec948a9bba222469809d0a5", "category": "B029", "floor_id": "5f22e6558b6846f2a8cd1bf9f8912195", "name": null, "restricted": "2", "suite": null, "nonpublic": "2", "toll": "3", "source": "1", "__floor": "1F", "__z_abs": 52.5}}, {"type": "Feature", "geometry": {"type": "Polygon", "coordinates": [[[139.69957109939764, 35.69115352244832, 52.5], [139.69958777710508, 35.69122283604762, 52.5], [139.69960677805142, 35.69121979345692, 52.5], [139.6995896551282, 35.69115062220318, 52.5], [139.69957109939764, 35.69115352244832, 52.5]]]}, "properties": {"id": "bda9e2ab2c0b4398994b493b0499f21b", "category": "B023", "floor_id": "6e187ec710d04e58ac5e616fb97d533f", "name": "ä¸æ", "restricted": "2", "suite": "ä¸æ", "nonpublic": "2", "toll": "3", "source": "1", "__floor": "1F", "__z_abs": 52.5}}, {"type": "Feature", "geometry": {"type": "Polygon", "coordinates": [[[139.70128993886163, 35.69132442598674, 52.5], [139.70121268705253, 35.69131692559717, 52.5], [139.70121017329464, 35.69133415600151, 52.5], [139.70120309301996, 35.691380909213045, 52.5], [139.70124096479148, 35.69138468568192, 52.5], [139.70124770443144, 35.69133970610423, 52.5], [139.70128706128955, 35.69134363064881, 52.5], [139.70128993886163, 35.69132442598674, 52.5]]]}, "properties": {"id": "d2cf112f2efe448597494c7a52382f18", "category": "B021", "floor_id": "300026764e664d0ab5ddcc5823eb4902", "name": "ä¸æ", "restricted": "2", "suite": "ä¸æ", "nonpublic": "2", "toll": "3", "source": "1", "__floor": "1F", "__z_abs": 52.5}}, {"type": "Feature", "geometry": {"type": "Polygon", "coordinates": [[[139.69793698055202, 35.68847966364779, 52.5], [139.69783638019823, 35.68844008809818, 52.5], [139.6978244247792, 35.68846031442004, 52.5], [139.6978340471659, 35.68846409981229, 52.5], [139.69786524970405, 35.688476374705765, 52.5], [139.69789483797538, 35.688488014545285, 52.5], [139.69792502328158, 35.688499889243566, 52.5], [139.69793698055202, 35.68847966364779, 52.5]]]}, "properties": {"id": "2a2bd59e725f4b3988b6754fa0ab5c6a", "category": "B029", "floor_id": "099e94f2b77d4e03ba7eb827dcb7aa97", "name": null, "restricted": "2", "suite": null, "nonpublic": "2", "toll": "3", "source": "1", "__floor": "1F", "__z_abs": 52.5}}, {"type": "Feature", "geometry": {"type": "Polygon", "coordinates": [[[139.69903543572224, 35.68925218210382, 52.5], [139.69905117281624, 35.689253528136405, 52.5], [139.69905777857932, 35.689202128030985, 52.5], [139.69904204149535, 35.6892007819993, 52.5], [139.69903543572224, 35.68925218210382, 52.5]]]}, "properties": {"id": "6a983ca7fc874ac88e72a056f59dbf13", "category": "B021", "floor_id": "74ef66ad4def40969b481887109ee706", "name": "ä¸æ", "restricted": "2", "suite": "ä¸æ", "nonpublic": "2", "toll": "3", "source": "1", "__floor": "1F", "__z_abs": 52.5}}, {"type": "Feature", "geometry": {"type": "Polygon", "coordinates": [[[139.7013196700631, 35.69112600202127, 52.5], [139.70127941053153, 35.691121987464975, 52.5], [139.70128562945342, 35.69108156751878, 52.5], [139.70124924306361, 35.6910779391684, 52.5], [139.70123980310152, 35.69114094059062, 52.5], [139.7013162889278, 35.691148567533176, 52.5], [139.7013196700631, 35.69112600202127, 52.5]]]}, "properties": {"id": "a60f77ad873e4ae5a1a92b2735305d45", "category": "B021", "floor_id": "88f58828240548f2a286bc4bdec8a2b7", "name": "ä¸æ", "restricted": "2", "suite": "ä¸æ", "nonpublic": "2", "toll": "3", "source": "1", "__floor": "1F", "__z_abs": 52.5}}, {"type": "Feature", "geometry": {"type": "Polygon", "coordinates": [[[139.69968077194542, 35.69107879815797, 52.5], [139.69971369864635, 35.69107352436733, 52.5], [139.69970709721565, 35.69104595797275, 52.5], [139.69967413650818, 35.691051227521044, 52.5], [139.69968077194542, 35.69107879815797, 52.5]]]}, "properties": {"id": "93a0f3a1602c482a95f4816305b1bc89", "category": "B022", "floor_id": "6e187ec710d04e58ac5e616fb97d533f", "name": "ä¸æ", "restricted": "2", "suite": "ä¸æ", "nonpublic": "2", "toll": "3", "source": "1", "__floor": "1F", "__z_abs": 52.5}}, {"type": "Feature", "geometry": {"type": "Polygon", "coordinates": [[[139.69929346309513, 35.68924645375836, 52.5], [139.69944636323362, 35.68925953126604, 52.5], [139.69945267231284, 35.689213095840444, 52.5], [139.69929943438555, 35.68919998944216, 52.5], [139.69929346309513, 35.68924645375836, 52.5]]]}, "properties": {"id": "9250a0433de048c29b71c8d67e6e1557", "category": "B021", "floor_id": "74ef66ad4def40969b481887109ee706", "name": "ä¸æ", "restricted": "2", "suite": "ä¸æ", "nonpublic": "2", "toll": "3", "source": "1", "__floor": "1F", "__z_abs": 52.5}}, {"type": "Feature", "geometry": {"type": "Polygon", "coordinates": [[[139.69917939842492, 35.68918245546394, 52.5], [139.69920036812874, 35.689184249030305, 52.5], [139.6991994443421, 35.68919143721346, 52.5], [139.69945267231284, 35.689213095840444, 52.5], [139.69947745042154, 35.68903072606037, 52.5], [139.6992888429618, 35.68894104562056, 52.5], [139.6992279324271, 35.688914959182135, 52.5], [139.69921931813613, 35.68897423289334, 52.5], [139.69920651573887, 35.688972994599304, 52.5], [139.69917939842492, 35.68918245546394, 52.5]]]}, "properties": {"id": "55265b4015c3493e9da5993798fbc70c", "category": "B019", "floor_id": "4ef9b4ff9a064d57a12ec90d9e2732ca", "name": null, "restricted": "2", "suite": null, "nonpublic": "2", "toll": "3", "source": "1", "__floor": "1F", "__z_abs": 52.5}}, {"type": "Feature", "geometry": {"type": "Polygon", "coordinates": [[[139.69789799691173, 35.688489257250325, 52.5], [139.69786524970405, 35.688476374705765, 52.5], [139.69784702315073, 35.688507210612485, 52.5], [139.69783547085947, 35.688526754906846, 52.5], [139.69786505914504, 35.688538394753614, 52.5], [139.69786304547821, 35.68854180149846, 52.5], [139.69786620441621, 35.68854304420432, 52.5], [139.69789799691173, 35.688489257250325, 52.5]]]}, "properties": {"id": "fb6d97ddba72400dbf34e6985b4e304b", "category": "B019", "floor_id": "099e94f2b77d4e03ba7eb827dcb7aa97", "name": null, "restricted": "2", "suite": null, "nonpublic": "2", "toll": "3", "source": "1", "__floor": "1F", "__z_abs": 52.5}}, {"type": "Feature", "geometry": {"type": "Polygon", "coordinates": [[[139.7001514589241, 35.694245921635456, 52.5], [139.7001872317219, 35.69425230223354, 52.5], [139.70021852509635, 35.69413026291505, 52.5], [139.70006033251138, 35.69410204696978, 52.5], [139.7000290483064, 35.69434901420848, 52.5], [139.7000389730964, 35.69435070773656, 52.5], [139.7000344442193, 35.69436836952547, 52.5], [139.70006421428826, 35.69437344937032, 52.5], [139.7000678921545, 35.69435910634906, 52.5], [139.70013170585457, 35.694322955038565, 52.5], [139.7001514589241, 35.694245921635456, 52.5]]]}, "properties": {"id": "4f53fbb376574062bab744280150f0da", "category": "B019", "floor_id": "46cad3c5289d4d9ba87831aacef2ea65", "name": null, "restricted": "2", "suite": null, "nonpublic": "2", "toll": "3", "source": "1", "__floor": "1F", "__z_abs": 52.5}}, {"type": "Feature", "geometry": {"type": "Polygon", "coordinates": [[[139.70005289210798, 35.694417603845366, 52.5], [139.700032323687, 35.694414094133485, 52.5], [139.7000359467895, 35.694399964702235, 52.5], [139.70005649427452, 35.69440355604652, 52.5], [139.70005832675608, 35.694396409697504, 52.5], [139.7000377583403, 35.69439289998657, 52.5], [139.7000413814409, 35.69437877055512, 52.5], [139.70006194985322, 35.69438228026545, 52.5], [139.70006421428826, 35.69437344937032, 52.5], [139.7000344442193, 35.69436836952547, 52.5], [139.70002025432208, 35.69442370746312, 52.5], [139.7000500244192, 35.694428787309896, 52.5], [139.70005289210798, 35.694417603845366, 52.5]]]}, "properties": {"id": "33849e836aed42d0b9d736196b4128e4", "category": "B019", "floor_id": "46cad3c5289d4d9ba87831aacef2ea65", "name": null, "restricted": "2", "suite": null, "nonpublic": "2", "toll": "3", "source": "1", "__floor": "1F", "__z_abs": 52.5}}, {"type": "Feature", "geometry": {"type": "Polygon", "coordinates": [[[139.6993840176969, 35.691254811243134, 52.5], [139.6993803374712, 35.691239748683074, 52.5], [139.69935785930977, 35.69124340482681, 52.5], [139.69935355935834, 35.69122580580343, 52.5], [139.6993760377871, 35.69122215077414, 52.5], [139.69937466731557, 35.691216541654974, 52.5], [139.69935218888833, 35.691220196684014, 52.5], [139.69934795830065, 35.69120288154552, 52.5], [139.69937043683365, 35.691199226969196, 52.5], [139.69936909627555, 35.69119374027772, 52.5], [139.69934661797356, 35.691197395793154, 52.5], [139.69934233756368, 35.691179876729855, 52.5], [139.69936481584026, 35.69117622113049, 52.5], [139.69936347546306, 35.6911707351763, 52.5], [139.69934099722937, 35.69117439094481, 52.5], [139.6993367169893, 35.691156872566296, 52.5], [139.69935919528035, 35.69115321705263, 52.5], [139.69935785535043, 35.69114773292571, 52.5], [139.69933537671346, 35.69115138701728, 52.5], [139.6993310963431, 35.69113386809525, 52.5], [139.69935357483678, 35.691130213437305, 52.5], [139.69935001258432, 35.69111563367628, 52.5], [139.69928613637876, 35.69112601697976, 52.5], [139.69932016056586, 35.69126519483456, 52.5], [139.6993840176969, 35.691254811243134, 52.5]]]}, "properties": {"id": "1b22fa9871854cd088a31845a4bfcd99", "category": "B019", "floor_id": "6e187ec710d04e58ac5e616fb97d533f", "name": null, "restricted": "2", "suite": null, "nonpublic": "2", "toll": "3", "source": "1", "__floor": "1F", "__z_abs": 52.5}}, {"type": "Feature", "geometry": {"type": "Polygon", "coordinates": [[[139.7000978231709, 35.69460815702385, 52.5], [139.70014990141559, 35.69461704336157, 52.5], [139.70026204449087, 35.694585174380826, 52.5], [139.70031800721694, 35.694366927499786, 52.5], [139.70028711902592, 35.69436165690749, 52.5], [139.70026673932335, 35.694441135004304, 52.5], [139.7001606495107, 35.69442303243748, 52.5], [139.70018101092637, 35.69434362606668, 52.5], [139.70018042376157, 35.69434345101001, 52.5], [139.70016455369532, 35.69434074302853, 52.5], [139.70009123284632, 35.69438228026545, 52.5], [139.7000780799336, 35.69443357459007, 52.5], [139.70002025432208, 35.69442370746312, 52.5], [139.70001213627052, 35.69445536677146, 52.5], [139.70003110167306, 35.69445860294963, 52.5], [139.6999937357113, 35.69460432352993, 52.5], [139.70009440158586, 35.69462150059472, 52.5], [139.7000978231709, 35.69460815702385, 52.5]]]}, "properties": {"id": "1a44ef670f434710a3d6607e671fe629", "category": "B019", "floor_id": "46cad3c5289d4d9ba87831aacef2ea65", "name": null, "restricted": "2", "suite": null, "nonpublic": "2", "toll": "3", "source": "1", "__floor": "1F", "__z_abs": 52.5}}]}